id,identity_key,ip,location,lat,lon,country,iso3,version
5,4VRUMfGEaNAD7rahRN15PgKe218oJoaPsosw3ZbSi2Nx,206.189.107.3:1789,Amsterdam,52.35,4.9166,Netherlands,NLD,0.10.1
6,Efwb8tUQ77qPD1bNwQffe1us2sDPZEZbtWbP9w1WyZun,167.99.222.165:1789,Amsterdam,52.35,4.9166,Netherlands,NLD,0.10.1
8,GsqJoCum1XPMdGsDbTdxSwe5oDGnfh8XzQPFanr3wT2P,173.249.24.186:1789,Amsterdam,52.35,4.9166,Netherlands,NLD,0.10.1
13,EeRfHUZiKnsmqgFwCQ5b1E9e9jedGcUUMtgp2sdSDGWU,46.101.225.109:1789,Amsterdam,52.35,4.9166,Netherlands,NLD,0.10.1
15,GQo8871NRbEg7Pd2ncskfzLPNALcuQyk3cYLpXmqUzGd,116.203.230.61:1789,Nuremberg,49.4528,11.0778,Germany,DEU,0.10.1
16,2Zzs2ewc9XV8sZuaa1ritErPFitW7PPB7McB3V22NQmH,157.90.229.149:1789,Nuremberg,49.4528,11.0778,Germany,DEU,0.10.1
18,HT5EGZ6sEtc43tGe1JaL2rY291xRkm7UpF8AQofBrNKY,167.99.222.126:1789,Amsterdam,52.35,4.9166,Netherlands,NLD,0.10.1
25,D6d5fEVoHsGCv2cRR4cqKtNgxZFnnp5CeiKdA1NxwUFH,[2a01:4f9:c010:85e9::4]:1789,Toulouse,43.6045,1.444,France,FRA,0.10.1
26,GWY51qqPbnQgKpJtFc4imvzt3cZUvHkaCokgtripAT69,92.222.180.227:1789,Strasbourg,48.5833,7.7458,France,FRA,0.10.1
28,CsN6SrroWAEkx7pefwYiDNwmVV7K6QnGvuzefGa3kwZn,128.199.59.52:1789,Amsterdam,52.35,4.9166,Netherlands,NLD,0.10.1
29,Hz3dSXEVisaPHECMAmxkuKPYudbGVfB7CdXoTdnMY7co,75.119.136.36:1789,Düsseldorf,51.2311,6.7724,Germany,DEU,0.10.1
30,B3tAREFWTuC6jUTnYRU4WVnxaGYxoScqEmAEYZJSCJJQ,136.244.90.233:1789,Frankfurt,50.1136,8.6797,Germany,DEU,0.10.1
33,cSd9kAUTmfTSNnaiYpfnMv3MfPoTFJXUY9j42MkngTB,162.55.37.79:1789,Falkenstein,50.4667,12.3667,Germany,DEU,0.10.1
34,A6M8u1pnj7XhthnoeBHAgtiinYkumGTQJ9BwiPwGVjVM,148.251.41.8:1789,Berlin,52.5167,13.3833,Germany,DEU,0.10.1
43,EAuvTeG3VQeJzAPDDz1rNCMzawBmJAfmaFh1M849vof6,95.179.214.93:1789,Paris,48.8566,2.3522,France,FRA,0.10.1
44,FDrrynA2UH863VRrvhNrhnBkic4yYrkx3u4QAKeQ9kTU,157.245.69.179:1789,Amsterdam,52.35,4.9166,Netherlands,NLD,0.10.1
47,Fq3zcLNWoLm6d3sMWaeb1oWCyT9bbTzrK8BvnrGa4SJK,45.76.95.124:1789,Frankfurt,50.1136,8.6797,Germany,DEU,0.10.1
52,CZqGwDSGNnkXU7BHzowPxY5zdmACfTRtwsJ9dUD4LSMP,162.55.43.24:1789,Falkenstein,50.4667,12.3667,Germany,DEU,0.10.1
53,5znuPESdnWTHXqpFWDVhLUXAX5stZZVwLh6Y2DBZwWNn,134.209.200.185:1789,Amsterdam,52.35,4.9166,Netherlands,NLD,0.10.1
54,Ei3kkBas46n2ASGxbUTSJZj3iYUZpfFRxhjRd9zS4pGT,[2a01:4f8:c2c:5bb2::8]:1789,Amsterdam,52.35,4.9166,Netherlands,NLD,0.10.1
55,GVjrxBKKYXkAUTNdWmeABX5XiDaehaFXbRa2crfaV9kU,168.119.233.224:1789,Nuremberg,49.4528,11.0778,Germany,DEU,0.10.1
59,3yKC5fXLiQq33SyfywWMaNY9yksLkzRrWsbyVHEKerkK,[2a01:4f8:c17:c4e4::16]:1789,Frankfurt,50.1136,8.6797,Germany,DEU,0.10.1
61,CbgJ7QWQcQm98UekN3HkMUurFVthAeSTdhodwJQG9goD,159.65.18.126:1789,London,51.5072,-0.1275,United Kingdom,GBR,0.10.1
62,89JVjC8wNTLpk9x6pRgXYRrRzjqMeW7ZECjsWszaRCRV,188.34.198.56:1789,Nuremberg,49.4528,11.0778,Germany,DEU,0.10.1
64,kM9VqFvuiNjZ8hTeAa951Qp6ENybVVEfy7r179xdgay,194.195.117.222:1789,Nuremberg,49.4528,11.0778,Germany,DEU,0.10.1
68,GGc1gPUK7eUzKFbZuyCH3U59Fr9uFUcdHRWGesxda7oL,15.237.115.127:1789,Paris,48.8566,2.3522,France,FRA,0.10.1
69,4tZtogjDdQMbFMymS8vuzFtMR8SnzU8uZ14Cn8453Vjx,167.71.2.5:1789,Amsterdam,52.35,4.9166,Netherlands,NLD,0.10.1
71,2GQR1Rs9ibssYW9PgQYwJwiLwfW9VCCiStZfvPxnTD8C,136.244.80.197:1789,Frankfurt,50.1136,8.6797,Germany,DEU,0.10.1
75,DUbum3qwCBuHDsqB9aZ3EMJ6EoCQ1mtjagRHiMCws6k3,78.141.214.91:1789,Amsterdam,52.35,4.9166,Netherlands,NLD,0.10.1
76,J29MDRHsC1QGPB83Yj27Xesa2r37jyi4CW45BTMjKJwE,159.100.240.48:1789,Geneva,46.2,6.15,Switzerland,CHE,0.10.1
78,GMdqbdb5Z3ebFumsp1yYEcazie14jMEbRKMdRQJLgVnc,[2a01:4f9:c011:2076::10]:1789,Frankfurt,50.1136,8.6797,Germany,DEU,0.10.1
79,HqBCMSbhyz39CjdbhUqUE4HcRk7eKdjyreWijkSEa3h1,172.104.233.79:1789,Frankfurt,50.1136,8.6797,Germany,DEU,0.10.1
83,A61YsVDELgQA3YFJS4x6ppWcm5wRWNhPZ98DFeWseTJX,157.245.68.46:1789,Amsterdam,52.35,4.9166,Netherlands,NLD,0.10.1
85,43QU57tE2WYqHVv8coWDRhtDAm6VPYFZDpiQAvgZdUMS,[2a01:4f9:c011:38ae::2]:1789,Frankfurt,50.1136,8.6797,Germany,DEU,0.10.1
88,GaJYAYQAMmsJPYuTYyHG3n2yLr7pKUMaeQBexn8JLp7A,199.247.10.71:1789,Paris,48.8566,2.3522,France,FRA,0.10.1
91,92FE7qpSSQZNQ1UttuyUcqDRN62ssPnL7p34MM3xymhc,[2a01:4f9:c010:ddc9::21]:1789,Barcelona,41.3825,2.1769,Spain,ESP,0.10.1
92,7QqqoschLgHhpYU1Kyo92QLnRBDCsBPzUKThCsV5yYnx,[2a01:4f9:c010:6912::18]:1789,Toulouse,43.6045,1.444,France,FRA,0.10.1
93,DrjvisGFWdxsf8mK2WDFc46RsdCZQYbYms6p7WeC3bJP,64.227.125.99:1789,Frankfurt,50.1136,8.6797,Germany,DEU,0.10.1
97,3Y7MkETk4xSPYMVSkkbbcJs7zYQETxW1YiGd7N6eEEvH,178.18.252.253:1789,Munich,48.1372,11.5755,Germany,DEU,0.10.1
100,FXatG1cmhDPWsVVPFp14RMVzCPXRMzrwHSarCr62qoD3,136.244.81.156:1789,Frankfurt,50.1136,8.6797,Germany,DEU,0.10.1
101,CcH2HQsM2kqeN93GBajSs4nQFBzucRqq5xk8bu6HWtTM,75.119.133.31:1789,Munich,48.1372,11.5755,Germany,DEU,0.10.1
104,4Wka1MfmVKs9nez1XWBe1Qz3aU1EGpbxJ7Tf2MUaTYnE,75.119.150.172:1789,Munich,48.1372,11.5755,Germany,DEU,0.10.1
106,2eR6v2DVUHoarvn4BVdKu3T7QjMDU723pyyvE4HgZKDw,68.183.223.223:1789,Frankfurt,50.1136,8.6797,Germany,DEU,0.10.1
109,9BoGE6Hokk9ACxwUv3ZHfF6S9QqQoDfGJTXiaLBvHqiE,95.216.199.134:1789,Kyiv,50.45,30.5236,Ukraine,UKR,0.10.1
112,CWQRQ7rQMzyVrSKfKPqrQ813Nn7PMduKjBfmJqFgDCG5,168.119.224.155:1789,Nuremberg,49.4528,11.0778,Germany,DEU,0.10.1
113,7RgKpbGrdwnm7knrqBnZVenYGAjmiMf9tf6dKu3YG55t,75.119.137.148:1789,Munich,48.1372,11.5755,Germany,DEU,0.10.1
115,GL45qhi55v88TpjRmHyaV8ruFuRbExDD581oXi7CcFAK,167.172.32.84:1789,Amsterdam,52.35,4.9166,Netherlands,NLD,0.10.1
127,CTdnfwvV2KPr9Bt6F527PD4Lbd28aPneBRcbSfdxHnn9,195.201.33.114:1789,Nuremberg,49.4528,11.0778,Germany,DEU,0.10.1
128,ELqYCDKTwABqbaaYRcxuwJXKXbLwXYZiexH67JRnyJoT,174.138.7.59:1789,Amsterdam,52.35,4.9166,Netherlands,NLD,0.10.1
132,EXwLwSLiMSAc4txA1RuND75tiXph8qz7NqQeVM58xfNo,209.97.130.238:1789,London,51.5072,-0.1275,United Kingdom,GBR,0.10.1
134,GKJH11D1WWj2UudUXzYx9Y8Za2ggiG39GyhBJ1pHzkn3,188.40.243.149:1789,Berlin,52.5167,13.3833,Germany,DEU,0.10.1
135,EXcpKAbjCsykrsSecw2cxj5oGHKvs3EdtDh64T6X6c9L,95.179.245.129:1789,Frankfurt,50.1136,8.6797,Germany,DEU,0.10.1
137,3A7CrmZBTBbFMZSHxvef5Q2SHo9dSLT9qcajViDKZxYg,167.71.79.212:1789,Amsterdam,52.35,4.9166,Netherlands,NLD,0.10.1
140,F7MUYMxHPb3ebVTgreG6X9arDh92goNuawFjP6Lm11Xa,18.188.15.126:1789,Berlin,52.5167,13.3833,Germany,DEU,0.10.1
141,BLMUq2ZhpKVUaGBqYouzbyXAeSvoNQbzq1cnaDbZExeK,159.89.103.115:1789,Frankfurt,50.1136,8.6797,Germany,DEU,0.10.1
142,C4MtYeW17UNK2tULq7frXDt4qRkV1U4nuno4QUJs3w4z,134.209.194.89:1789,Amsterdam,52.35,4.9166,Netherlands,NLD,0.10.1
145,CLqMM9E8U1DL5XGjjYGkL4z4rJrTRYFLQpk9wvtFsXKA,68.183.12.118:1789,Amsterdam,52.35,4.9166,Netherlands,NLD,0.10.1
146,G6PwqLyYvMtcfHSbaE6bJR1WccRyDgcuzgbnKY2EW1M3,142.93.235.118:1789,Amsterdam,52.35,4.9166,Netherlands,NLD,0.10.1
147,37axYdhc7xrhKn6tbrfR3RaB4EShZf5bmQgYEawKoQ4X,116.203.129.59:1789,Nuremberg,49.4528,11.0778,Germany,DEU,0.10.1
150,7urBiGJvZbEF5QxTeTUVMFhYuP5EpUZSde9AcRuBynGp,75.119.151.137:1789,Munich,48.1372,11.5755,Germany,DEU,0.10.1
151,2kuvxmPdhM3SiWTZWXpwRmvHKb9wRb8kUCzWeefb7FDy,62.171.158.133:1789,Munich,48.1372,11.5755,Germany,DEU,0.10.1
152,ESugm8MixTpTkr4KV4JM4nwxsnNkWVMNaDu6kKDyj5CY,206.189.0.137:1789,Amsterdam,52.35,4.9166,Netherlands,NLD,0.10.1
154,EdQXwFAGu3V7EXfAw2NpmVcXBdTEQFbDFcf6VTan7gNn,136.244.103.102:1789,Amsterdam,52.35,4.9166,Netherlands,NLD,0.10.1
155,DVp3ioDJS3ZRsyj5TdxeHNqq4ZiMQwG3a93cYEdkwzuy,91.192.102.120:1789,Gossau,47.4164,9.25,Switzerland,CHE,0.10.1
157,uWAeERbFPDVKZgJytZavbVMZifk9MEND3MZ8fYZJfgf,5.187.0.149:1789,Frankfurt,50.1136,8.6797,Germany,DEU,0.10.1
161,CcMyTwvCR2JHsUocGn1MH2qWFEsRvVjBT85SF4kqtoDT,199.247.1.164:1789,Frankfurt,50.1136,8.6797,Germany,DEU,0.10.1
162,HtSqmgh1sk54c1HuMQrYuPRNkSs44quT5xVPf8M6G6ET,95.179.162.182:1789,Frankfurt,50.1136,8.6797,Germany,DEU,0.10.1
163,Gvpafyh7miuqQCXJ87RtHKnr6GTAdjtcFpxzsVK2EUw3,157.90.123.41:1789,Nuremberg,49.4528,11.0778,Germany,DEU,0.10.1
164,2x6obywRBYgZyyPXUKLFRJa5AodDFARwQrePcZKjCXDm,104.238.170.42:1789,London,51.5072,-0.1275,United Kingdom,GBR,0.10.1
165,14FUGeEVdJ2S7XtCYpZZdLwrjrqkrpowvkMEaANSiGY7,128.199.53.212:1789,Amsterdam,52.35,4.9166,Netherlands,NLD,0.10.1
166,D1FVidiDn9fwS4uvfZQSe9nop8227iFagwAkzXbP26gz,49.12.47.120:1789,Falkenstein,50.4667,12.3667,Germany,DEU,0.10.1
170,8svJ33ZA7MfSDAxSkSUkrDT6YbH6qyjSNYoZj9GPAXPV,95.179.183.88:1789,Amsterdam,52.35,4.9166,Netherlands,NLD,0.10.1
172,FFR7Vnnf7km8gqcYuYxqQ7rDpgc9KciCFCv8Zmyjww1Z,161.97.157.24:1789,Düsseldorf,51.2311,6.7724,Germany,DEU,0.10.1
177,3RS5gdspxCKncJyEAp1rCsXWZ4omvEepG7h3H6fSLSca,146.56.146.19:1789,Paris,48.8566,2.3522,France,FRA,0.10.1
178,C8N2wyz49mQ7THjKkrz6qYk9ZXdYCQntdnnBRUT1J1m2,31.17.217.2:1789,Hamburg,53.55,10.0,Germany,DEU,0.10.1
181,EY2MgBH4KdvC2n7HK28BJcg8UGw1tKKUXaveZ8t7dGxW,161.35.80.178:1789,Amsterdam,52.35,4.9166,Netherlands,NLD,0.10.1
183,6t2Tntv7nMYV48KEdiWit4VLZ42jZw3DCn2yscxLDWRw,95.179.180.170:1789,Amsterdam,52.35,4.9166,Netherlands,NLD,0.10.1
184,88KPb3djdeAdgA6sjuhCyHkpmhLfAcgm3hYT35De8iE,195.54.33.173:1789,Frankfurt,50.1136,8.6797,Germany,DEU,0.10.1
188,59KL5jbAzPCKCL2Jc22ca3bPWCExeFm1QBSAViK9feew,178.62.220.9:1789,Amsterdam,52.35,4.9166,Netherlands,NLD,0.10.1
189,4ToKCQ3ZZgBkKWN261WTfJKTdXxWyJyFgdNdf4DNZHq4,167.99.41.173:1789,Amsterdam,52.35,4.9166,Netherlands,NLD,0.10.1
195,2y9UVFmtgYFaS91b5WnoW9nTh8nsBXAbhZaNX5gRy8z9,195.201.120.0:1789,Nuremberg,49.4528,11.0778,Germany,DEU,0.10.1
196,7vC8suZLMRJGfio4FiXTYPNkFkbhrAQ51TeVjnYPVJxv,142.93.236.117:1789,Amsterdam,52.35,4.9166,Netherlands,NLD,0.10.1
201,B3WaVfn7KxwgEK1XydSPkEWgQ355ABmr32t46bLVadxL,161.35.158.67:1789,Amsterdam,52.35,4.9166,Netherlands,NLD,0.10.1
203,7qtcHfYqUxTuo8yBmYAJAQpAb9mjfd1qshQ5npDbAZww,[2a05:f480:1800:b43:5400:3ff:fe67:8db8]:1789,Frankfurt,50.1136,8.6797,Germany,DEU,0.10.1
204,FAgCYGtmRyGDparW8PyyYxFL2QJkJsYGTgYBkZ2BdsNq,152.70.83.219:1789,London,51.5072,-0.1275,United Kingdom,GBR,0.10.1
208,6Kmto5f3ySv6S7eFj8PxkpMzpk5H7hr2nRwRosyDAsn3,162.55.56.209:1789,Nuremberg,49.4528,11.0778,Germany,DEU,0.10.1
211,KonCkmgFHzEnBdRDrwRzb6N8fF6FVCAuiKNbExUPYH7,188.166.44.68:1789,Amsterdam,52.35,4.9166,Netherlands,NLD,0.10.1
220,E9VL8JsFYVPHB3v896Gt2Sey4CGsuwGPnxjiCqXrGRyh,104.238.177.172:1789,Frankfurt,50.1136,8.6797,Germany,DEU,0.10.1
222,HRXUj1DWFZeN5BGEBgZhjsWkVgjZZ4MpMy1jKjWexemD,172.105.218.188:1789,Amsterdam,52.35,4.9166,Netherlands,NLD,0.10.1
224,6esULnFHTqh774H29QYCqoqUN5N6zB6AYKz3LRPBgmFA,134.122.50.33:1789,Amsterdam,52.35,4.9166,Netherlands,NLD,0.10.1
227,Fw23xDnfSmJ9SVgg6Pcy23K2qkCmsJU9akK2yTi2sFY4,188.166.59.168:1789,Amsterdam,52.35,4.9166,Netherlands,NLD,0.10.1
228,17VVvmyyVKP46Nx4qwnYQsjhJF7sNWqukzKz5vAqprX,167.71.77.42:1789,Amsterdam,52.35,4.9166,Netherlands,NLD,0.10.1
229,BmtrwekTnqMZWru6QyT8iyKkJbbMgYV3VDG9K7EmNnCg,168.119.109.152:1789,Falkenstein,50.4667,12.3667,Germany,DEU,0.10.1
230,HeTSXydtNuiq1u7Cyfu6sNLDXzhscfewYn9k9PbVvSXs,104.238.177.146:1789,Frankfurt,50.1136,8.6797,Germany,DEU,0.10.1
231,2pmLdyiovAanWweM6RnHVt7cZCWubxeH3aoBDFDW8Chh,116.203.40.50:1789,Nuremberg,49.4528,11.0778,Germany,DEU,0.10.1
235,HB1C2MaDGyJhPYkiin8bGPH2MDDpfx7yt2QXgXEMWtWC,95.179.220.238:1789,Paris,48.8566,2.3522,France,FRA,0.10.1
236,4BYH8iP7cNfVDB4LEtMhCTEc7Sj2Q6JRNX8crkVg3u74,167.71.6.93:1789,Amsterdam,52.35,4.9166,Netherlands,NLD,0.10.1
237,DeENP2Cbwwrz8i5cdkRjU9ziZn8KN3D21dzaTjNZLc9q,162.55.186.135:1789,Nuremberg,49.4528,11.0778,Germany,DEU,0.10.1
242,7weiRPD6GvstztiHanZ5oR4KURgG8pweERwQxuNxGzY8,188.166.10.106:1789,Amsterdam,52.35,4.9166,Netherlands,NLD,0.10.1
248,AEaELghaqSWYmZ1R6LgGGZfiNZQSqS2mTFDwhgCRdPUf,116.203.232.109:1789,Nuremberg,49.4528,11.0778,Germany,DEU,0.10.1
249,89vqjWbBNYy8W2Yy5cjVGaMNNqF1qkYvkqLZSjwsPPVp,178.18.253.31:1789,Munich,48.1372,11.5755,Germany,DEU,0.10.1
251,8J9PnAfQQTtof7DY8oga6vUk6Tc6E4SDwDwRcpEXSdBx,167.99.199.239:1789,London,51.5072,-0.1275,United Kingdom,GBR,0.10.1
253,9Nw7vPmEMZnx4rAYUFrrbY5z3j65JoZVAmNsoB6xXaew,138.201.187.84:1789,Falkenstein,50.4667,12.3667,Germany,DEU,0.10.1
257,6dwYjiDSZ9LyJewsnoZkuoj83dQzm7tPQGKmZcrm5qDU,49.12.1.113:1789,Falkenstein,50.4667,12.3667,Germany,DEU,0.10.1
262,438N9QHhKG6rVS7j7QFdzvJzzpcFPgu9SPgCCsF4LeH9,35.180.68.163:1789,Paris,48.8566,2.3522,France,FRA,0.10.1
265,GshHhwzfe5thibohrRp1gaF1UYTQo4pVG5i9G8iTmDio,68.183.14.114:1789,Amsterdam,52.35,4.9166,Netherlands,NLD,0.10.1
266,21aGRBStXTBed4ThgFpkqYnopcEHTAcnMoSig5eyW8hQ,162.55.165.132:1789,Falkenstein,50.4667,12.3667,Germany,DEU,0.10.1
268,AzCndEwUwerThqNLMZpY92YaUDVCuU2zzqTtAbHFN4Lk,104.248.201.160:1789,Amsterdam,52.35,4.9166,Netherlands,NLD,0.10.1
272,8zFFTW3jgyiE1aWzNyBD2pMGAPzt25KMqFLM5qb7QCSK,172.104.167.217:1789,Frankfurt,50.1136,8.6797,Germany,DEU,0.10.1
278,E6SjRTpBmuaJ8W3cuDGAhGqAPwiySBd74oA2ii6py5Y5,45.76.90.89:1789,Frankfurt,50.1136,8.6797,Germany,DEU,0.10.1
279,4GxrebnpWMRrzSo8DqCWPYavbNE2tKB1TQLBnVZ4kdCs,139.162.203.212:1789,Nuremberg,49.4528,11.0778,Germany,DEU,0.10.1
282,DKtZd3JdjfGHteR5yc4HMrKR4uoUmmPwJgbc9eVmcBhS,95.179.178.137:1789,Amsterdam,52.35,4.9166,Netherlands,NLD,0.10.1
283,Hg6PSkL7UjWJUWZqvqTppfhgmyReR2bYCYEBqmJhLZqe,64.227.73.205:1789,Amsterdam,52.35,4.9166,Netherlands,NLD,0.10.1
285,7r29JNgXM38GA7UqBcBhY8RpxTj1cDdabLtaGxUkduh3,199.247.0.49:1789,Frankfurt,50.1136,8.6797,Germany,DEU,0.10.1
287,8b65pSzedr1U6gXX3RJYfDw4c7ycySbVeXXF1P6pAcWR,178.63.126.119:1789,Berlin,52.5167,13.3833,Germany,DEU,0.10.1
288,CqudD6ZAeUR38zp8gNsGvbzsGEEZQ4VS4acpZuQbSB7J,188.166.69.207:1789,Amsterdam,52.35,4.9166,Netherlands,NLD,0.10.1
292,3L5vfd3vSMvffxVYBn7wYBHdz98Z7D1RxzGiXr9enunL,18.217.6.115:1789,Paris,48.8566,2.3522,France,FRA,0.10.1
296,BVoRrtHL2tf227Tc1spMzqUzSxxNvuoS45qSnf3oBgys,157.90.242.135:1789,Falkenstein,50.4667,12.3667,Germany,DEU,0.10.1
297,JD1x4m32pdeigSzizYVAWQBb5o7JF5heqgn7xaehnzhb,[2a01:4f9:c010:6a29::2]:1789,Barcelona,41.3825,2.1769,Spain,ESP,0.10.1
301,3fteXqM7WpUDr4Mozqq9ZELgpLxz3ydP1gfGc4XKwdXi,104.248.30.73:1789,Frankfurt,50.1136,8.6797,Germany,DEU,0.10.1
302,4bQoxysUJyK7AaQ84BDvz23FF9vBBuvJtbAwan2A5Zf4,45.32.151.219:1789,Paris,48.8566,2.3522,France,FRA,0.10.1
305,4r7K4VcCd8dCJidP4qi1rtDqEfQC398nFpSiKPNWJ6k4,188.166.26.201:1789,Amsterdam,52.35,4.9166,Netherlands,NLD,0.10.1
309,AcJtXxTJ9C4qPDHz8QTY9WQH6se86EvhCGXvTNKYCWnB,157.90.246.149:1789,Falkenstein,50.4667,12.3667,Germany,DEU,0.10.1
311,Cb8pjx1yjut3YkZJrqKBgk8vBnVSBghL2mFCs289r6fn,173.199.70.31:1789,Paris,48.8566,2.3522,France,FRA,0.10.1
312,HcPP3Sr9ttXgS2APtqrSgvKn67ArG1GYUx1bVPB7maJB,66.42.100.247:1789,Nuremberg,49.4528,11.0778,Germany,DEU,0.10.1
314,3AH9b7goy5xYmiC6wc3TVtVkVUVz1sMpb34PuNTTRGKE,139.59.167.10:1789,London,51.5072,-0.1275,United Kingdom,GBR,0.10.1
327,pmA32Hp1PSMvMjZ9W5DHE1vBYmTwzQmBPdXYC7fUrAF,162.55.162.128:1789,Falkenstein,50.4667,12.3667,Germany,DEU,0.10.1
329,8eR618NSLaMbBXbvzoLFjsKvthbXENy3cNBn6m118ryX,78.141.200.140:1789,London,51.5072,-0.1275,United Kingdom,GBR,0.10.1
332,Fs4szRyLp3vW81RwVHMSJLoM1CdKgUpMkCbAgU9WAp7w,167.71.15.129:1789,Amsterdam,52.35,4.9166,Netherlands,NLD,0.10.1
335,CYdBbVmfMTwgxfQT5s3n3MBT3Gif85pNWcePTkNXSaW8,[2a01:4f9:c010:b922::6]:1789,Frankfurt,50.1136,8.6797,Germany,DEU,0.10.1
336,56qsiGhvugFVxybhJYouqxQbmj7ejzydF2mt3VGBywVz,134.209.88.166:1789,Amsterdam,52.35,4.9166,Netherlands,NLD,0.10.1
339,APUZ4kefqDtm8aDZn5Xg452kVxwW5YZE1WPzPqoHxGc3,95.179.142.52:1789,Amsterdam,52.35,4.9166,Netherlands,NLD,0.10.1
345,3A8A9SK7hTGXnLWJnGpinTuyrVHTKRxNfNUveQx6mffD,[2a01:4f9:c011:4518::11]:1789,Barcelona,41.3825,2.1769,Spain,ESP,0.10.1
348,GcGRsq8Ap26LyoYcadMQ87iifhaaeU6o5UNjxF3AjzHz,134.209.206.18:1789,Amsterdam,52.35,4.9166,Netherlands,NLD,0.10.1
349,HL6jhkajd9KkUGkpiKq8TsBN8WAVB9xh8CJBe5TUvrk9,161.97.138.185:1789,Munich,48.1372,11.5755,Germany,DEU,0.10.1
351,LCUEqPJFPCfr5b7MAMcppJxLCMnV3d15mvr1AXpuzFd,62.171.159.29:1789,Munich,48.1372,11.5755,Germany,DEU,0.10.1
352,49zV6d1XJ7FkGKBaP3dbYonZegsiKc4hXqs2oH3yRCJ8,46.101.86.233:1789,London,51.5072,-0.1275,United Kingdom,GBR,0.10.1
354,4LTD81ZiTnMcx2RV4VF9vQY49GZ3kpxHN8rsdWGtE23H,108.61.175.39:1789,London,51.5072,-0.1275,United Kingdom,GBR,0.10.1
355,DvqzmsxWLdsN8c8CN26ztzAnpJr3LULwNdbfSEHWoCTX,104.248.19.153:1789,Frankfurt,50.1136,8.6797,Germany,DEU,0.10.1
356,39DBMgFNGmSsKne1aaLGLvcja1yBgiBzToDHsa5Dctan,[2001:19f0:6c01:29d9:5400:3ff:fe67:a12a]:1789,Frankfurt,50.1136,8.6797,Germany,DEU,0.10.1
357,7j2GieSb8SbDQe3sJtM8FUzDYtK2aQu4k264VNjRxjvf,65.21.60.1:1789,Kyiv,50.45,30.5236,Ukraine,UKR,0.10.1
359,55UTxkDaWe4vhzLiXoWizEsVuxehTgbZp55zLUwaAGUX,140.82.57.178:1789,Amsterdam,52.35,4.9166,Netherlands,NLD,0.10.1
360,Be5rKFaKkXF7X9FsH8pkNSCcn973sNNraBQZsnTBF5tF,94.103.81.174:1789,Amsterdam,52.35,4.9166,Netherlands,NLD,0.10.1
361,HeVN2ELSK5JrvTbn6rU4SsgbkK5odhBW8EF94fBc84W6,95.179.148.173:1789,Amsterdam,52.35,4.9166,Netherlands,NLD,0.10.1
362,AqvrHcFdP8pCUrZUZLhikxPCca7YfmpywoAEnMjFU41j,206.189.50.44:1789,Frankfurt,50.1136,8.6797,Germany,DEU,0.10.1
364,D4jbqsKi6pLN9CUsAenTSp7sAsvLP67e3uRgS998zk29,[2001:19f0:6c01:20d4:5400:3ff:fe67:928d]:1789,Frankfurt,50.1136,8.6797,Germany,DEU,0.10.1
365,5eW3ytPvPcM47B8cutPoHBz3bn6Ao8c1mSz15HFCqbRK,104.248.206.234:1789,Amsterdam,52.35,4.9166,Netherlands,NLD,0.10.1
367,74E9U64Yhmq7Mar96HZ1CPLbZ3U5XfvnRw4U3VJwPgWe,116.203.63.127:1789,Nuremberg,49.4528,11.0778,Germany,DEU,0.10.1
369,GxgAZCCRL5qGBce9eFTiREQBgCHEuXgKnemTForsZZqL,116.203.231.78:1789,Nuremberg,49.4528,11.0778,Germany,DEU,0.10.1
371,4vjgDsYd5KmPspGASw2XCKonSzrtpDE9LUN6JCBmNugf,162.55.61.70:1789,Nuremberg,49.4528,11.0778,Germany,DEU,0.10.1
373,D6M7Vd2DEHGaP2YSqxmBCcxMz3SethShgXKuWfvZEoaD,168.119.235.112:1789,Nuremberg,49.4528,11.0778,Germany,DEU,0.10.1
375,CLzVQy7Kf7ymaFGB6uMuzPAkWcByC2zE7uQF4BiEzFSd,152.70.238.153:1789,London,51.5072,-0.1275,United Kingdom,GBR,0.10.1
380,BrUKFGGk2SqzTLVr7kCzF8mX91FALFJjAwXGVedZVSrQ,188.166.28.174:1789,Amsterdam,52.35,4.9166,Netherlands,NLD,0.10.1
382,9ghhHGDPLmUV3Q1yeyT9mdivYKvG9e44rTfyKtZyqJuA,144.76.97.170:1789,Kassel,51.3158,9.4979,Germany,DEU,0.10.1
390,EzwuiRtENi214PWpkUqhLWmary1paoZ7BgXd28uhuXGS,157.90.251.67:1789,Falkenstein,50.4667,12.3667,Germany,DEU,0.10.1
393,DVrqKpZozpN8gS3uNresVhEJF8L6ur3i2rz81ydXUwpZ,134.209.206.209:1789,Amsterdam,52.35,4.9166,Netherlands,NLD,0.10.1
397,A8c5mGVdHx88Z8WxEkjP8ju22qUxLfcjs2B2A1p9ttrG,157.90.173.66:1789,Nuremberg,49.4528,11.0778,Germany,DEU,0.10.1
400,FAqaKdBK6FPaLNs9JqMuoYft1PfRKPvMs5DfUo9usGhi,65.21.145.52:1789,Falkenstein,50.4667,12.3667,Germany,DEU,0.10.1
401,F1Bu1wYyb49RfwyNn7qW4wxD5jmvPxSjsxBuynKxcc5y,206.189.111.221:1789,Amsterdam,52.35,4.9166,Netherlands,NLD,0.10.1
402,4bw7W2PvKmZyMmHjYFbXizaryS2FUE4ySF8ZAWdCr74L,45.76.34.246:1789,Amsterdam,52.35,4.9166,Netherlands,NLD,0.10.1
404,CzF4j3tW4qL8YeWGHQV2AC7wsCHQzGamfvbJGqsFUKh8,159.65.91.91:1789,London,51.5072,-0.1275,United Kingdom,GBR,0.10.1
406,HwDntvae8JsbMzJ2fynuUkk3vpEvbuZqQYNpcZAB8WfY,[2a01:4f8:1c1c:c929::14]:1789,Nuremberg,49.4528,11.0778,Germany,DEU,0.10.1
407,F3aywa6izpuqVB8TQK1ac81jgwYkYZxLMGMKcsYvde7x,[2a01:4f9:c011:38ae::11]:1789,Nuremberg,49.4528,11.0778,Germany,DEU,0.10.1
409,FWBAg15SitpeLSoBFog94W4AMpzBmSLWao9YvQNAF3CK,45.77.142.123:1789,Frankfurt,50.1136,8.6797,Germany,DEU,0.10.1
411,JE68c9diA73WASeYmqQiR8KsuZnMybsbvMmerhoaX1Ai,178.62.229.230:1789,Amsterdam,52.35,4.9166,Netherlands,NLD,0.10.1
413,EWMPrA9aj5KnH75SKoDJZPRPfJnFGDkYDiJ2h9aESrnU,162.55.35.154:1789,Falkenstein,50.4667,12.3667,Germany,DEU,0.10.1
414,GSBeGJBSFGWJmBe2piJCp2VEn7z5sQRnCRDATtQBhWDe,[2a01:4f9:c011:3c18::2]:1789,Amsterdam,52.35,4.9166,Netherlands,NLD,0.10.1
417,HQ7ddCiknmjCgyudPJGYDAuctZBp9dd7Sj6Uhpz4rtWP,140.82.34.109:1789,Frankfurt,50.1136,8.6797,Germany,DEU,0.10.1
420,HCKPKuvKsMk7nyHD2BQSf75XsYuAUhxoK6B2UeBAhbov,178.62.4.163:1789,London,51.5072,-0.1275,United Kingdom,GBR,0.10.1
425,HCiZk71MUPTknquSjHieAcacMAP9eNUr37G8MBo8Nx1t,95.179.249.149:1789,Frankfurt,50.1136,8.6797,Germany,DEU,0.10.1
427,2oSie4pv5iM1TnNNpdirJLWcaJo23X85a9xSkzTYHsZt,188.166.81.209:1789,Amsterdam,52.35,4.9166,Netherlands,NLD,0.10.1
428,3jZ7Zd2iaaugzLReye5PeDDUYVMnXF2GEgvDJT1CtfBn,64.225.69.22:1789,Amsterdam,52.35,4.9166,Netherlands,NLD,0.10.1
429,35EByQ8CCpXipzTP41321SSCJvLUnkBe3oW7JmSUgMWJ,68.183.1.167:1789,Amsterdam,52.35,4.9166,Netherlands,NLD,0.10.1
432,GHQvzp5hcnhpCPRHTxBdzUJAftFfF8Y5AgNjfoyPKuYf,134.209.240.92:1789,Frankfurt,50.1136,8.6797,Germany,DEU,0.10.1
437,HEFRRo4xgMTEpZP7WoGQ9LJqB7uh23ALZ5HcbsWLL7Vs,45.76.90.116:1789,Frankfurt,50.1136,8.6797,Germany,DEU,0.10.1
439,GUz512kCci3Xybhk4mD8t75QCv6sYX5o8aHo5QYQbcyQ,[2a01:4f8:c17:edf7::1]:1789,Falkenstein,50.4667,12.3667,Germany,DEU,0.10.1
447,8uPM6vGVHJyQa3JHUqxCupqkrvGjKcssDPToErMfhbMS,46.101.202.145:1789,Frankfurt,50.1136,8.6797,Germany,DEU,0.10.1
448,5DWzQo8KC5VmP7nUVsRKXbUqm2h8bZtRpiuUSRy6t4da,209.250.251.130:1789,Amsterdam,52.35,4.9166,Netherlands,NLD,0.10.1
449,79EkjzzxkS35UdD3Uy5hktmHJxWNHd1esMakxbLD2jiK,46.101.179.75:1789,Frankfurt,50.1136,8.6797,Germany,DEU,0.10.1
451,9Whi1G1Hj86Fy2cdsggGxAUX6iP4vrJfxkDCKnuDcAoW,199.247.16.191:1789,Frankfurt,50.1136,8.6797,Germany,DEU,0.10.1
455,4rxzKSoBk7NqNX268Lq5ZvH44qjQvHgiQMigXEoKw2iY,45.76.88.170:1789,Frankfurt,50.1136,8.6797,Germany,DEU,0.10.1
457,BP2yPiA3zFRo3xtXVm3ZPyqgV4mwvyXEerVZSyXP6WJq,159.65.193.187:1789,Amsterdam,52.35,4.9166,Netherlands,NLD,0.10.1
460,Azc7VWSL3uKNXE5983m91KW9zcnLizPxbDwh8zFSjJBu,136.244.65.150:1789,London,51.5072,-0.1275,United Kingdom,GBR,0.10.1
463,5fWv32GgYoQvduE7SACDzZ3GD5ZpurCXCsdAnsosu7gH,46.101.173.121:1789,London,51.5072,-0.1275,United Kingdom,GBR,0.10.1
464,CxmDCURu5pN9hJRPiN26iwP48Bn5cy2WcRXE3Vf5JxmL,162.55.47.253:1789,Falkenstein,50.4667,12.3667,Germany,DEU,0.10.1
465,J4nYcZGxmQk9c8xhFcQAGakDCtHtgVpmUfosbTPuAGP,138.68.66.72:1789,London,51.5072,-0.1275,United Kingdom,GBR,0.10.1
469,CHkTpFVKBGJ5CeqKds45kjjzLa2nf4pJjnjGovANiRuc,52.14.240.44:1789,London,51.5072,-0.1275,United Kingdom,GBR,0.10.1
473,HbnZw9WwABnQV6TfQH1DDcewxSq9uAFGSHT44dXHQppX,167.172.108.151:1789,Frankfurt,50.1136,8.6797,Germany,DEU,0.10.1
474,BWTVfTRxyQmjdN545t1cXvn7BhAEfYcHbWS4JVy7UDzk,45.77.52.72:1789,Frankfurt,50.1136,8.6797,Germany,DEU,0.10.1
475,7pbQvg3w54xysKt3xVQPDdY4pjfh7oFkW2D6QcRfSqfK,3.23.130.51:1789,Paris,48.8566,2.3522,France,FRA,0.10.1
481,CEeTcFFKFFSymHKqBqGsFUTH9aE2ADDS75X7Enroq56b,116.203.138.243:1789,Gunzenhausen,49.1147,10.7542,Germany,DEU,0.10.1
482,EdByTBzN2jjfiQgXaJWhqmeH11he5kSzox8UdvvzBNwk,161.35.152.80:1789,Amsterdam,52.35,4.9166,Netherlands,NLD,0.10.1
483,54qUx6BZ2CDHrPxBdtFEfzPSPErXffjxccJ78NaqMZcu,188.166.20.67:1789,Amsterdam,52.35,4.9166,Netherlands,NLD,0.10.1
484,9GZAur6AKfatNwvRoSuKBBDwz1dqWJDAQU2kEpd6VVqd,185.224.139.190:1789,Amsterdam,52.35,4.9166,Netherlands,NLD,0.10.1
485,ApoktDW5N9AbfWN9uTK4SU228mDQMwBcjoUkAvkbFJ4A,95.179.183.155:1789,Amsterdam,52.35,4.9166,Netherlands,NLD,0.10.1
487,3k65xiRsh8ercJdYJPttp3vWQ1ikFC3StBirsoPw4QKC,[2a01:4f8:c17:2601::17]:1789,Frankfurt,50.1136,8.6797,Germany,DEU,0.10.1
495,EEy3Nae2EnEQkLrWc3xSFDvGUXYDBXgYBzskRGojkfo8,161.35.214.170:1789,Frankfurt,50.1136,8.6797,Germany,DEU,0.10.1
496,88a8EieLYTnhCvCj9qwVcQmpWQ2idBWBmwzF7DYVpN7v,161.97.183.190:1789,Nuremberg,49.4528,11.0778,Germany,DEU,0.10.1
497,WEv2fu8kby9PZ6ioZ7Kf1CTokXgGcLpjDDMQdo52oZV,157.90.156.243:1789,Falkenstein,50.4667,12.3667,Germany,DEU,0.10.1
500,Cym716ZKcKvp7BuBDHSuWpUNe88dmWuXbb7W6yTXKZyh,104.248.136.140:1789,Frankfurt,50.1136,8.6797,Germany,DEU,0.10.1
501,EQw9gLsxRLkYKSt5BA4wg5NNSdozAxz2XCADbQ77piC7,[2a01:4f9:c010:8ef8::11]:1789,London,51.5072,-0.1275,United Kingdom,GBR,0.10.1
502,Au4W5Tjrt2vg5P8hBPjR64DRbQVekWPgzyAtQZ7BPUHo,161.97.187.34:1789,Düsseldorf,51.2311,6.7724,Germany,DEU,0.10.1
510,952MU5C9ZHWSEyJtrXZvFyAJUCnkRMu5qiRcr71TwFSA,[2a01:4f8:c17:c4e4::5]:1789,Barcelona,41.3825,2.1769,Spain,ESP,0.10.1
511,6TJF7Vg2c397xzVEcCPZH2EjnTNeWeSHRS16TM3Yk1AQ,159.65.25.202:1789,London,51.5072,-0.1275,United Kingdom,GBR,0.10.1
514,5VaZ5mj3aQzDVtomXuZ1qRCBJES7hP9oEuiegBqDBt72,209.145.54.101:1789,Nuremberg,49.4528,11.0778,Germany,DEU,0.10.1
519,7biZuQWMh9bDmVSsRQ6rpz17qwTNWYpFJiU4oxjoXi2Q,168.119.61.154:1789,Falkenstein,50.4667,12.3667,Germany,DEU,0.10.1
521,44RuTzsD7WyCtWbBaab1bc9ZAt5gtV9Rg3zVxiEHMEQU,95.179.165.85:1789,Frankfurt,50.1136,8.6797,Germany,DEU,0.10.1
529,6DDTx6tkATik9cn2eLwAqe2UagNB86nLFMHAhDnicY1m,217.69.5.64:1789,Paris,48.8566,2.3522,France,FRA,0.10.1
531,7bfW6QyfZfZhVctEoeQECP4e4feHSBjP4T1pDYHgjZR4,116.203.197.75:1789,Nuremberg,49.4528,11.0778,Germany,DEU,0.10.1
533,F58Cgg2xKXwFNzEcjZYeJTZZqnYKBRwoxyadjBHNyi8F,135.181.92.114:1789,Amsterdam,52.35,4.9166,Netherlands,NLD,0.10.1
535,EPUMTVycg8hkTuJcrGQHdxLpAof2n1v6R2rECESukQmE,[2a01:4f9:c011:2076::9]:1789,Barcelona,41.3825,2.1769,Spain,ESP,0.10.1
536,GKkZoBK3spu38QcjgAekJZFFmJLwbe6GFLPMcTM8KVDA,159.65.204.4:1789,Amsterdam,52.35,4.9166,Netherlands,NLD,0.10.1
540,FFZ7HYCX9ApCd2DpP8Z8WRBJLgi42LfLZnsB4c86U3yF,138.197.188.209:1789,Frankfurt,50.1136,8.6797,Germany,DEU,0.10.1
547,4eaTUqePjhozhgqUni7CBuWrdw6atCaRMTpZYBiJadCQ,65.21.53.166:1789,Kyiv,50.45,30.5236,Ukraine,UKR,0.10.1
551,5Maupwb5vDsg6WVFB5MQNmkUzVTxy94j5fqqjqoxvmRn,167.172.183.174:1789,Frankfurt,50.1136,8.6797,Germany,DEU,0.10.1
552,84acm3w1PufJ1wgjAtyeyGnv89Z96mnPAX9HrvAeToKE,46.101.19.58:1789,London,51.5072,-0.1275,United Kingdom,GBR,0.10.1
553,CHCVNRwX3Qd53BM3yuJ4VEF7GJ9NJzyjacpjfJGSKexj,95.111.248.194:1789,Munich,48.1372,11.5755,Germany,DEU,0.10.1
555,3d9meEYz3GMmFAUvM549rNf3F5qcxH8oX9UmA7GFpKhQ,168.119.170.169:1789,Nuremberg,49.4528,11.0778,Germany,DEU,0.10.1
556,FtpDfNktaD6mgTuQ2rdRiFSwPYugxM3vpfkbWM3vUj9G,188.166.111.172:1789,Amsterdam,52.35,4.9166,Netherlands,NLD,0.10.1
564,2on5jktcdbCXwr6UA9KeAqcAiYKiTHKk8FVqvRRfhVWG,49.12.100.163:1789,Falkenstein,50.4667,12.3667,Germany,DEU,0.10.1
565,GbQFuooyAgegujiEDGQQWGoaywsfY2MPxhvoM9zAouag,88.198.203.101:1789,Falkenstein,50.4667,12.3667,Germany,DEU,0.10.1
567,7VnFMv4n9Y23t2R2x5wqbF2ooPvCNfkAS79PGGz6e7eT,188.227.107.95:1789,Amsterdam,52.35,4.9166,Netherlands,NLD,0.10.1
570,FxRERdXKZWUDmFbR6dy1v3PMj2vrm1VBCyMXgU1HZVsS,161.97.89.251:1789,Munich,48.1372,11.5755,Germany,DEU,0.10.1
585,C7bmsE1Z7hQBU4Wfc3966qzXv1u6MxHD6sMsXSefQt6c,188.166.5.234:1789,Amsterdam,52.35,4.9166,Netherlands,NLD,0.10.1
588,HKXs8qnDTRCTV2qJ2eiKjRoAjfNwt1FgipSivuwhNLg9,178.128.194.214:1789,Frankfurt,50.1136,8.6797,Germany,DEU,0.10.1
589,28QnveDtcW4S2H4QZo731jDbqUFsaWrP4SusuPdhP6bo,80.82.215.94:1789,Düsseldorf,51.2311,6.7724,Germany,DEU,0.10.1
590,BSzHJVQoKL5urSvJUptokZdFwvcY6AC9d4Som8dfp1Ve,139.59.213.96:1789,Frankfurt,50.1136,8.6797,Germany,DEU,0.10.1
595,FkaG3YyECeugBrJQ6S18dJN18pK5xo7QLW1kx9GPFdCa,78.141.212.190:1789,Amsterdam,52.35,4.9166,Netherlands,NLD,0.10.1
598,8GJsbqYN3s5z5xM4sFhfVRYWDQs6CuU7pC1cmjR9Agth,116.202.98.77:1789,Nuremberg,49.4528,11.0778,Germany,DEU,0.10.1
599,6VT7jXJbo8LnTCUVTYQei7358i516mukqk2KPQV1533S,161.97.161.161:1789,Düsseldorf,51.2311,6.7724,Germany,DEU,0.10.1
601,4v9dNozVEsmeMFjJLmRUyGDQCjnyFAm8TQ2W6ESRnoij,142.93.140.194:1789,Amsterdam,52.35,4.9166,Netherlands,NLD,0.10.1
602,GeSsaPheQ2ZVWrXENpzQYaudHGdNQ69WgPNe4qaAHHz6,138.201.187.82:1789,Falkenstein,50.4667,12.3667,Germany,DEU,0.10.1
608,AzJpeDk8g9N57AcjuF69obsUXLf2EEBHdjm4FErA71ji,68.183.4.52:1789,Amsterdam,52.35,4.9166,Netherlands,NLD,0.10.1
609,BgP3k9gZYsUYrGyxhmRSz4TJo2hYwuPxVfBsf3rbEwqV,162.55.172.183:1789,Falkenstein,50.4667,12.3667,Germany,DEU,0.10.1
617,J5RkFQPnu8mq9x2XJML7eE5BHPskpmYNVSR66CpxdFqk,178.63.126.113:1789,Berlin,52.5167,13.3833,Germany,DEU,0.10.1
619,32BfEB63hF9rWV6U2895SPSmj4RHyaJFmv7pr53ABTxg,136.244.114.152:1789,Paris,48.8566,2.3522,France,FRA,0.10.1
620,GxYnqg9Rd9C7AG6ZpWkxEBo6TmPztsc9ZXgywyQBuitB,161.35.152.103:1789,Amsterdam,52.35,4.9166,Netherlands,NLD,0.10.1
623,6kvhJEBC8trt9LFJSAYQgqrrT5pLLFWiHviJUgaov3S6,[2a01:4f9:c011:4518::15]:1789,Barcelona,41.3825,2.1769,Spain,ESP,0.10.1
625,HQiXu1C9mhPPidKpwnzN2VE4VzYfwxffoSvXwkFLYab8,116.202.27.126:1789,Falkenstein,50.4667,12.3667,Germany,DEU,0.10.1
628,Hwj4WGYyjZDqiFFSkUYqf3tP9LAA6VtDUUwhXDXxvjVZ,161.97.81.127:1789,Amsterdam,52.35,4.9166,Netherlands,NLD,0.10.1
631,2Wm5FrtrwhUMvpreXdPNYJ1MZfDjPnaDbHfdDndFsaZA,116.203.177.128:1789,Nuremberg,49.4528,11.0778,Germany,DEU,0.10.1
634,FmsGN3dCjZFDnkbW7eiAaS33Bpft5fnD6TJjyLayfUrv,136.244.107.138:1789,Amsterdam,52.35,4.9166,Netherlands,NLD,0.10.1
637,EdqLq6mdKohL5ovuzLRddTGaLSXxcRow9MuejQpGdrRb,178.62.238.134:1789,Amsterdam,52.35,4.9166,Netherlands,NLD,0.10.1
638,3djsseY7xuevvDBtyG9T4sF38U67nAuZbt4SwBoECunk,165.22.205.165:1789,Amsterdam,52.35,4.9166,Netherlands,NLD,0.10.1
640,E2NBJ2YT1nGjbQp9P43Db3pDWJbbgoiQVF5U37tN7gf,45.76.38.10:1789,Amsterdam,52.35,4.9166,Netherlands,NLD,0.10.1
645,H6bhwuBtrTfAYdRTL2csH8jb586NCjEHuF4vibZHiWE5,188.34.181.2:1789,Falkenstein,50.4667,12.3667,Germany,DEU,0.10.1
649,HywNSiP4xRzPqLNCEJBz9GFjxvrficcK4ypm1X6TXpZf,176.58.105.240:1789,London,51.5072,-0.1275,United Kingdom,GBR,0.10.1
651,6LBBXjCQngNC1h2mgTJazA4f2hrdQCaLokEuiUpKnrwh,192.248.155.73:1789,London,51.5072,-0.1275,United Kingdom,GBR,0.10.1
654,6MJ7zD9W51r7PyhecygU7tUTNiLhphpQdGKdQcFMBXmB,178.63.126.118:1789,Berlin,52.5167,13.3833,Germany,DEU,0.10.1
657,5hLTBigyMjv9WrE3bXUaEUQ6z2TKGWr2sF354VR3nqGZ,104.248.89.203:1789,Amsterdam,52.35,4.9166,Netherlands,NLD,0.10.1
658,HZPNuPcbd9gTqp5AjGc6UpqracsbsZtnBFcuZvSpKaP7,51.38.69.88:1789,London,51.5072,-0.1275,United Kingdom,GBR,0.10.1
662,5eAeh1hovDqxeEFt5wrhyvdzztVD91TCP1BkNUef3QB4,136.244.82.255:1789,Frankfurt,50.1136,8.6797,Germany,DEU,0.10.1
664,9Hg8M6fcFs2r7Eq8sczgVYzmA4XXpGeTpw3B56gbp62X,195.201.114.110:1789,Nuremberg,49.4528,11.0778,Germany,DEU,0.10.1
669,HTTnpBQmSW1SVoCMHczntQN8Bqz4inp6mzrZL8BXxz84,45.32.238.18:1789,Amsterdam,52.35,4.9166,Netherlands,NLD,0.10.1
673,J5K751732gujA5SvTHGmKeBUijd3tRHcjeuEf9JQq5is,46.101.112.138:1789,Frankfurt,50.1136,8.6797,Germany,DEU,0.10.1
675,EJwahwTN4pa3H3pC71LhfqXTrwbqn9UWvjDUuWvvfTMN,140.82.58.9:1789,Amsterdam,52.35,4.9166,Netherlands,NLD,0.10.1
679,24YqvVMs7ccwWfARzGT7oxXyF3VLMCYacexmv5rVJPei,142.93.132.18:1789,Amsterdam,52.35,4.9166,Netherlands,NLD,0.10.1
680,Cr2Dc1nkYDbHw8wu1vyBkWrX46Yiu7Q53vFYbQNfZL61,162.55.211.48:1789,Nuremberg,49.4528,11.0778,Germany,DEU,0.10.1
681,GpcxrhA9xHmQxkf8Uc4rvsfFH77t6ouWbJL5sZSGUYsU,168.119.125.184:1789,Nuremberg,49.4528,11.0778,Germany,DEU,0.10.1
682,BPCYwpMgfiAYXZc5CkSNmb36y9crswNYnTfCpavuv3MN,167.179.78.140:1789,London,51.5072,-0.1275,United Kingdom,GBR,0.10.1
684,B5sLErWQNjaDFv81D5Vso15pE7xpRgnm3xYxdjJhD8d9,194.163.147.189:1789,Berlin,52.5167,13.3833,Germany,DEU,0.10.1
688,H7mqyJ1G2mxMcHVaZht4Vz2gcC6H7LxPk7ixBiyDyuvx,146.56.136.175:1789,London,51.5072,-0.1275,United Kingdom,GBR,0.10.1
693,ARFbwxiJhRqydg8KQKeMybQTpzQ8XJEVpQ93aB8meuar,45.77.138.140:1789,Amsterdam,52.35,4.9166,Netherlands,NLD,0.10.1
694,9A7DaXXxXZMENLnc7ELs2KxDQCV8WBw3bviBpMEU26vA,78.46.244.165:1789,Nuremberg,49.4528,11.0778,Germany,DEU,0.10.1
697,8EZyNxU5A3cMEvgyvw9nwhaQN89GUpM2uJKWvYkrRnY7,167.71.72.176:1789,Amsterdam,52.35,4.9166,Netherlands,NLD,0.10.1
699,HFqCsvA38eRHem1C6hxBRAuQ7DKUH85oQ298fEvJFCUv,207.154.249.253:1789,Frankfurt,50.1136,8.6797,Germany,DEU,0.10.1
702,8bHxvXj1jyBJw1mpGHbLmqvgr5ZyshzkfT8cb7wgyg4P,207.154.209.248:1789,Frankfurt,50.1136,8.6797,Germany,DEU,0.10.1
703,GZHjEDMHXJRc5YdhU4cFkZAq8omxWnbfuMiufqcPeFZ1,162.55.57.90:1789,Nuremberg,49.4528,11.0778,Germany,DEU,0.10.1
704,HDAZsXL7DWbZQQkZguEC39dRTnoVSW4bwRyf4NgNW8EA,192.248.180.41:1789,Frankfurt,50.1136,8.6797,Germany,DEU,0.10.1
709,B4MLHEX5JwqGYea9BNqV7qNW5xycy7vC989kie7Z5DbA,108.61.178.19:1789,Frankfurt,50.1136,8.6797,Germany,DEU,0.10.1
710,ERYLAUqsm4JiTP44TaP1chvDCUNSWfZhWVf6eUyhbBqV,157.90.251.36:1789,Falkenstein,50.4667,12.3667,Germany,DEU,0.10.1
715,9vWxhggAKHiXUGRPJ9YBjhKGKumRV42tDwafqDbXyL4w,192.248.184.252:1789,Frankfurt,50.1136,8.6797,Germany,DEU,0.10.1
722,Cca2DnrjuzCyj1EVwhdCAzW7LdFzyS6mMENX34WmB4TG,167.99.32.120:1789,Amsterdam,52.35,4.9166,Netherlands,NLD,0.10.1
723,8S86opvUMsnsVj2kuoT6meMSXUEamLQknxojmE7qA5LF,95.217.133.104:1789,Nuremberg,49.4528,11.0778,Germany,DEU,0.10.1
725,CmKmgEBUW1Q7mXejQDCKZbYvrU8envDr7B9gFJWyjf2B,139.59.139.23:1789,Frankfurt,50.1136,8.6797,Germany,DEU,0.10.1
726,8yF9GA5SHXuPqgXmVD4pwvSwnoX2cN5LVugg4f9UUSU2,188.34.181.31:1789,Falkenstein,50.4667,12.3667,Germany,DEU,0.10.1
728,DYpfuBWKgosetddjzEEUooew4avMDPS2XrJSDp5SyHdi,146.56.163.179:1789,Paris,48.8566,2.3522,France,FRA,0.10.1
729,DLznyY4Mh5JRVNw66VMa3KZGkxzyza1u15Y5Z7a5BjwG,62.171.158.118:1789,Munich,48.1372,11.5755,Germany,DEU,0.10.1
731,FoLqFWmJyDiehXywoDtyeJ4Z32mejVQDimWgm24YRSMP,161.97.136.165:1789,Munich,48.1372,11.5755,Germany,DEU,0.10.1
734,A3iEFXHpd1CXuvsk7bu83QEmJuWXWxBQUe1P1yruSUmz,167.172.35.82:1789,Amsterdam,52.35,4.9166,Netherlands,NLD,0.10.1
735,2mD9swZEajuHmeJybn1qY6oWVv1P6ufFXw199TTd1d9Y,188.166.81.243:1789,Amsterdam,52.35,4.9166,Netherlands,NLD,0.10.1
741,GB9349ZaHGwCuKH4Z6WdYuu35q6DMEAGFsvYmepLxFC6,95.179.222.113:1789,Paris,48.8566,2.3522,France,FRA,0.10.1
748,D28cHoMeDhQ4eWPUz9AjuHkhwYn3s6iCJ5zrmP77Wwsn,162.55.58.102:1789,Nuremberg,49.4528,11.0778,Germany,DEU,0.10.1
751,CmGVFXwwXSztVhJoVChA7qzc7wam9aFxGkezd5QnXi6Y,188.166.145.187:1789,London,51.5072,-0.1275,United Kingdom,GBR,0.10.1
754,HJegiAfhnmQKmkPZJFzcLsxDMkCugxeGFLrYL2Xut4xh,95.179.146.233:1789,Amsterdam,52.35,4.9166,Netherlands,NLD,0.10.1
755,EK1ihsqr69LiDeWhNYRUPXG7Vas4E87ChrUd5ALrC9M1,[2a01:4f8:c17:2601::11]:1789,Barcelona,41.3825,2.1769,Spain,ESP,0.10.1
757,5pSzEjs7WhFErymvdtTr3C95vBPdxxZ4SgxmM3A38ZCN,46.101.73.215:1789,London,51.5072,-0.1275,United Kingdom,GBR,0.10.1
759,HMEbazeyrYh7LDmRqU5WZt7zCcens74sophdJRMAVGig,136.244.97.52:1789,Amsterdam,52.35,4.9166,Netherlands,NLD,0.10.1
760,E5WxgY91nuRZLJyaXGnUEYCribP38S1mrwkwBtQ5G2e2,64.227.76.220:1789,Amsterdam,52.35,4.9166,Netherlands,NLD,0.10.1
761,6x5PS2MBf5DynDLLYLuNa7RttxLExJv5eQqVPQwLkB75,45.76.82.32:1789,Frankfurt,50.1136,8.6797,Germany,DEU,0.10.1
767,FY12XpYaZ2QCHZcxgWd4vPJ8V67YamHcsN7D8rAUxw5S,168.119.227.209:1789,Nuremberg,49.4528,11.0778,Germany,DEU,0.10.1
770,8AFkgijQ1HAiJ57hQaFiNfJ3omZbb1qBBD65o2CA9cJB,[2a01:4f8:c17:edf7::3]:1789,Nuremberg,49.4528,11.0778,Germany,DEU,0.10.1
772,DECHhA1uMXnFXCYFdhCwhZHDdvSHAtvwCrrpUfnoQzTY,[2a01:4f9:c010:8ef8::2]:1789,Toulouse,43.6045,1.444,France,FRA,0.10.1
773,7C8nM8eMBnT8Kqyk6koj9qVEwJfYVdcDJa2kEnodxhYM,161.35.148.72:1789,Amsterdam,52.35,4.9166,Netherlands,NLD,0.10.1
774,F57x6yU1dnSeiPt7qMujX3FCf7WhCFBYibMLUgUtCUGK,157.90.20.165:1789,Nuremberg,49.4528,11.0778,Germany,DEU,0.10.1
775,Gievs8NVu2CzFntdZPb1DgddQ49uGpyuQrNPhsF974S5,78.141.202.163:1789,London,51.5072,-0.1275,United Kingdom,GBR,0.10.1
781,7gSNssd7TmwmRAmP4EqFTP4rEfPZeUmKMA8j2fPNKxxL,161.97.164.13:1789,Munich,48.1372,11.5755,Germany,DEU,0.10.1
782,4fd3G7SmdXr5yXW84BDvdgoSAuK9YvDPjoR7kogx2n6A,78.141.208.245:1789,Amsterdam,52.35,4.9166,Netherlands,NLD,0.10.1
784,9a5VcNmAdbu65HhHGicTVHwcFqTQzQMXFag1gsvn17G7,188.166.92.158:1789,Amsterdam,52.35,4.9166,Netherlands,NLD,0.10.1
791,744ZouYoz9oythJ44GaLuq8asEAnWRjCcG4BdMT5vzu,95.179.179.46:1789,Amsterdam,52.35,4.9166,Netherlands,NLD,0.10.1
792,8EgBG8QDVSbnfzkPBG7aZh2Xk74wtcKhWSsALo4uURzT,157.90.79.60:1789,Berlin,52.5167,13.3833,Germany,DEU,0.10.1
793,GGrqzD3vWvXXX3q6Nup6rypJbvLhfcSnQcYxgL2GUxv,94.130.176.231:1789,Gunzenhausen,49.1147,10.7542,Germany,DEU,0.10.1
794,FDQsKo6jCTVVt7KHPWnBikLtewfXcYsjuFJmrY9mbSRq,164.90.160.116:1789,Frankfurt,50.1136,8.6797,Germany,DEU,0.10.1
795,7zKpyfW392smAi9h3cAbygFVhDxo7NRzysEwQtcMBqb8,188.166.67.223:1789,Amsterdam,52.35,4.9166,Netherlands,NLD,0.10.1
796,9WggFM4F7a8bpU2KKQuF56Awi3eMzvJ2MMape9bfgJCa,45.77.137.10:1789,Amsterdam,52.35,4.9166,Netherlands,NLD,0.10.1
798,E4dM2hsK5dy5gtbJXsyTXL6yEVcTnddBMFq2ssr9HD2h,139.177.193.178:1789,Nuremberg,49.4528,11.0778,Germany,DEU,0.10.1
800,J7zLiLYgxnA1eA4VQDaMp4aYcXf9biPw6eV3KFHAH3uv,162.55.181.22:1789,Nuremberg,49.4528,11.0778,Germany,DEU,0.10.1
807,6R2Gk4W8DD828RXw6LodhFAYAL2BW7P3EiFn38EXCymf,161.35.90.248:1789,Amsterdam,52.35,4.9166,Netherlands,NLD,0.10.1
819,9krb8ZWFmTGYLyCEkoG7hfidTrjY9tp2vDgG1hqUKqPA,136.244.117.202:1789,Paris,48.8566,2.3522,France,FRA,0.10.1
820,GYD9nd9Cf9X72MX9vuCHinZWLPeC8fTE1pTH4rubA7NW,138.68.78.200:1789,Frankfurt,50.1136,8.6797,Germany,DEU,0.10.1
822,BskwYYU7i8TinCccysMXouQ5k3ACS6XJnxGqMQ5yahmT,45.77.201.69:1789,Nuremberg,49.4528,11.0778,Germany,DEU,0.10.1
823,DJEriKyRgU5KC426F6dsYUah5iXzbM3236MLrMd4WQ4d,199.247.3.136:1789,Frankfurt,50.1136,8.6797,Germany,DEU,0.10.1
824,A9ao9QrRWVERdd9TLHFcnwmCG8hc6hZaXis2t9GUk24V,134.209.86.26:1789,Amsterdam,52.35,4.9166,Netherlands,NLD,0.10.1
825,4Aqv3aPN9UNsprNzeGbqAj2gAsNYaSMbWN77uCUTW8rC,68.183.11.242:1789,Amsterdam,52.35,4.9166,Netherlands,NLD,0.10.1
826,9pq5XhnUgdjYFoLoFChnt7H2QLSGyJF3e3hSdHoH6AFG,165.227.224.17:1789,London,51.5072,-0.1275,United Kingdom,GBR,0.10.1
827,AzjUXKfxXANfB6HzqWGGoakMoTGJfMdnpATeRSv7Zqby,178.18.253.38:1789,Munich,48.1372,11.5755,Germany,DEU,0.10.1
828,Fyi8g3F76EjCrAsttahNhNJW7iQYdPyiQt1nQgEa4atA,207.154.255.82:1789,Frankfurt,50.1136,8.6797,Germany,DEU,0.10.1
832,HvHttjzyVCXCo4QsHMMRwj5MDD6BREofKDVUzrRKXws1,75.119.135.48:1789,Munich,48.1372,11.5755,Germany,DEU,0.10.1
833,HkGLgQqLb14tMyy9CMN9LzdeUwoanAnhY1cPjLKv2t5C,139.162.219.253:1789,London,51.5072,-0.1275,United Kingdom,GBR,0.10.1
838,5w5yBvFgXmxXbpq1do29bPkp5sfqb2HCMt1fYUJWPLtx,[2a01:4f9:c010:6912::16]:1789,Amsterdam,52.35,4.9166,Netherlands,NLD,0.10.1
839,9SLv3nf82EAmPXZMSPJafSBkTkgAXoeTnsTyMUc46CBe,188.166.54.19:1789,Amsterdam,52.35,4.9166,Netherlands,NLD,0.10.1
841,CxG4ZR8kWH45mnKrUTCpbZZe7arFnhgdRb1iPKTM2UQ4,95.179.177.83:1789,Amsterdam,52.35,4.9166,Netherlands,NLD,0.10.1
843,7CeiiPDs1ov1czFGoQvKH3LFu26Edc56xcF4fBrrAjfM,103.219.154.96:1789,Lelystad,52.5176,5.474,Netherlands,NLD,0.10.1
847,7vc5UiSWdF8eyDU3kzzkkCVR1Zh9qQEkxue5oU9yHU6b,128.199.35.26:1789,Amsterdam,52.35,4.9166,Netherlands,NLD,0.10.1
850,8zStoJB6PwNq7JkDke3s9ExwP9ZyPo1mMJkgxVezhucY,46.101.110.67:1789,London,51.5072,-0.1275,United Kingdom,GBR,0.10.1
851,3TtEreCmQrW2haqavSXFfbYg1CUAYvhZ8npdPbZXjC4Y,95.179.242.164:1789,Frankfurt,50.1136,8.6797,Germany,DEU,0.10.1
856,GBAKYwo6thpcb44rUfEai3te52bn3x9jcwYZkXeaDfzw,95.179.158.34:1789,Amsterdam,52.35,4.9166,Netherlands,NLD,0.10.1
857,2uFn5pDEbbyXZe439QG1XfKUcdtmaEPfDrN1PEFMC1RR,128.199.53.239:1789,Amsterdam,52.35,4.9166,Netherlands,NLD,0.10.1
866,Aa8SYugH1VkM6jCfRuTXr22K5dZuLnhVJbFKpaxzoxQ6,136.244.89.203:1789,Frankfurt,50.1136,8.6797,Germany,DEU,0.10.1
867,Ac6tXtpbfXPK4y7j9ieFeEcytiW8r7kt3NCF8qMg4CKU,178.62.85.154:1789,London,51.5072,-0.1275,United Kingdom,GBR,0.10.1
871,BMKdgPGB5WQGZymqAmWSx3Sx6kCaMKpy6UnfQxT5rYA3,78.141.220.205:1789,Amsterdam,52.35,4.9166,Netherlands,NLD,0.10.1
872,BBiWdtBU4ujLBsdRMky6QuaYZ9dsiD6sV7psSupVrdTq,[2a01:4f8:1c17:489e::17]:1789,Nuremberg,49.4528,11.0778,Germany,DEU,0.10.1
877,6mVCofBhr4GAvna7tBMA1guMtpujG6KyLUT5sC5fiLg3,142.93.139.169:1789,Amsterdam,52.35,4.9166,Netherlands,NLD,0.10.1
879,CgUMFfi17ErwAPhFmTTUaHEmD2SsMPzHZkaVqHADSJvc,134.209.207.68:1789,Amsterdam,52.35,4.9166,Netherlands,NLD,0.10.1
884,F7injqZJgq7KZ9bZiadMMtuB73fM4AfrPszJyXmkLhwe,207.154.245.191:1789,Frankfurt,50.1136,8.6797,Germany,DEU,0.10.1
885,DoJs7kw9sZFKx6npw7udi36CgCTiLgwMcrcTEQetYBip,188.34.193.142:1789,Nuremberg,49.4528,11.0778,Germany,DEU,0.10.1
887,BSwSAUsfVk5nooY9Mz9xp8cdqCNkrbnjZx5GGtsZpwgj,206.189.110.149:1789,Amsterdam,52.35,4.9166,Netherlands,NLD,0.10.1
891,5nihiWdjQCGwipk83QvrYZzVVeHz8bzGFEzjveqGHqTL,159.65.114.175:1789,Frankfurt,50.1136,8.6797,Germany,DEU,0.10.1
894,5QdNHdwNKRBq2poAG7a6K9ByXZYFbEztRfhz9YxFPzsx,45.76.142.205:1789,London,51.5072,-0.1275,United Kingdom,GBR,0.10.1
895,ENBQsifSvQKr1ipfQQMZ3mmZBeabkGq8mdapkgrw1Eat,80.240.20.255:1789,Frankfurt,50.1136,8.6797,Germany,DEU,0.10.1
899,FXS8qAk9fwWPRt8vsZUnLhGfJzv6k2CTehNqyVDv7pMj,116.203.113.9:1789,Nuremberg,49.4528,11.0778,Germany,DEU,0.10.1
900,D9vJnqRqRhBeGe9HaQ6Q2Z6CSqTwm49ZBoexj6iHzsry,167.172.44.98:1789,Amsterdam,52.35,4.9166,Netherlands,NLD,0.10.1
901,6u5hnqveW4UzwtS7NeqPKZETCsbcEa3Ge517HsXx6yMQ,207.154.237.149:1789,Frankfurt,50.1136,8.6797,Germany,DEU,0.10.1
903,ByrobxcjNR8oRs9zoSGyUGsrR4F1scjvEGowwMQTkLwy,188.166.78.210:1789,Amsterdam,52.35,4.9166,Netherlands,NLD,0.10.1
908,Ae9msHJbv7Fohwx3n76jvTeiiub6Kewsq62TdqFRedw2,136.244.105.140:1789,Amsterdam,52.35,4.9166,Netherlands,NLD,0.10.1
911,BzT1qRMsiBSdHoLG22CqTvcrquDFoqnexH5skr64zfL7,45.77.66.184:1789,Frankfurt,50.1136,8.6797,Germany,DEU,0.10.1
913,AEsd2ba1cgCveK58R8Rv3t4akDq3TY25EV4dWHVPitrG,206.189.4.56:1789,Amsterdam,52.35,4.9166,Netherlands,NLD,0.10.1
915,3NntY7xcG22vccQaJe1HeQbemEs6rf3wwT9m1ZJbAUn5,178.20.41.108:1789,Frankfurt,50.1136,8.6797,Germany,DEU,0.10.1
918,HzAQY1woDYWisUrx7o5WGhzZsEh4Wc5z119m1bJYcw2y,193.178.169.41:1789,Amsterdam,52.35,4.9166,Netherlands,NLD,0.10.1
923,FDTF9jGfkheozZQoyP7AVicpJ4tmFCk5vxCyA6YcEjuh,206.189.96.114:1789,Amsterdam,52.35,4.9166,Netherlands,NLD,0.10.1
927,EGFBbQSkgZdTqPFmLrjxp99THpi5VbvTBhw4B6Tg7Abx,192.248.180.61:1789,Frankfurt,50.1136,8.6797,Germany,DEU,0.10.1
931,EiPN3xxdqbfNohUXrFRS8UHFFiygHvEjrUk3iXCm2rFQ,134.122.63.212:1789,Amsterdam,52.35,4.9166,Netherlands,NLD,0.10.1
940,77vqLvp8mV1gV39BJFrwUGkB1ky2r3P4Hnx95YCMgiK7,[2a01:4f9:c010:ddc9::23]:1789,Frankfurt,50.1136,8.6797,Germany,DEU,0.10.1
943,J6GASzApbAKcupgRJxqfmzEwoZCm4GGbsPrevwSj1dy3,75.119.151.37:1789,Munich,48.1372,11.5755,Germany,DEU,0.10.1
945,82jMRa25ieG3wRpUtZgvCzDbAMdmwkHfpj3eYdf1vZ8,[2a01:4f8:c2c:5bb2::9]:1789,Barcelona,41.3825,2.1769,Spain,ESP,0.10.1
948,3j9JVPpefd8KjU4kgALHzijmEkQxG6wLLYEuzsmU4Cz2,142.93.224.95:1789,Amsterdam,52.35,4.9166,Netherlands,NLD,0.10.1
949,37yWDhtaxp446RPScDMn7TJau6Ux9Hj2z87ot4GTdJrg,[2a01:4f9:c010:8ef8::19]:1789,Nuremberg,49.4528,11.0778,Germany,DEU,0.10.1
950,ArJQoGEHGt2EDzrMunkY9YTd2dV3QReb4QFcXWBjT4zW,[2a01:4f9:c011:38ae::15]:1789,Berlin,52.5167,13.3833,Germany,DEU,0.10.1
951,48CbNSfKcNYJztcDUARstQS67wrJsiZ9in3ChN3bjKbW,178.18.252.244:1789,Munich,48.1372,11.5755,Germany,DEU,0.10.1
953,D2NGU9g4ufNCmumeeFeXaPR4coNNW23xonN1oMPVKif6,95.179.215.218:1789,Paris,48.8566,2.3522,France,FRA,0.10.1
955,883gH2XSg2FDurGKKb1CFZWJzm8HFbJFf6q5ebWZ3vdJ,178.18.247.167:1789,Düsseldorf,51.2311,6.7724,Germany,DEU,0.10.1
961,CYNv67hN1jrg3JDNjipQChikk5vfSSBbEw9ZrG5mkteL,[2a01:4f9:c010:ddc9::24]:1789,Nuremberg,49.4528,11.0778,Germany,DEU,0.10.1
962,DbtDS65WFmftmfcvRbLs8ASvKCp9YpJWMKyKk6xroDh8,199.247.20.193:1789,Frankfurt,50.1136,8.6797,Germany,DEU,0.10.1
963,6wR1G4a5krfAWwfBV6wurso5VUJvE6yvJnnL4meo5TJw,95.179.151.118:1789,Amsterdam,52.35,4.9166,Netherlands,NLD,0.10.1
966,Cg6cyNgqQG68u2A7HgLveZkDY9RZdQvvi4ktEzABCndT,95.216.184.140:1789,Madrid,40.4189,-3.6919,Spain,ESP,0.10.1
967,GhM1gHE9wSabr4ciNCckT93jQpFxFckxz9KAjCabpCMk,[2a01:4f8:1c1c:c929::8]:1789,Nuremberg,49.4528,11.0778,Germany,DEU,0.10.1
970,Ffyswpzu9vGsAfDmHgvHRJT7sqrzKDK56ECYz3DAszGN,146.56.157.207:1789,Paris,48.8566,2.3522,France,FRA,0.10.1
976,5jAx7ANaeGsYgDZeMbFHehDok4cM37gTKDcDypUUQdV3,159.69.244.36:1789,Falkenstein,50.4667,12.3667,Germany,DEU,0.10.1
978,F6YoGj4J1mhTmR1UQddjF4JTinyG1YDcV2Ay8aKXpPRS,139.162.207.108:1789,London,51.5072,-0.1275,United Kingdom,GBR,0.10.1
981,5zV4HN13mA8iAapFXMxPtKeTAJkT9JYEWtrxfaxKa7Q3,[2a01:4f8:1c1c:c929::5]:1789,Amsterdam,52.35,4.9166,Netherlands,NLD,0.10.1
983,BA8QpRSz9N35tAN8RGQLrEX3CDgcZFfq7T9KbF7cTsxH,167.86.69.198:1789,Falkenstein,50.4667,12.3667,Germany,DEU,0.10.1
984,71zP1R2yx2WXwrE4KH93n6k89V3SeXRbRVYxgTomcUom,161.97.186.123:1789,Nuremberg,49.4528,11.0778,Germany,DEU,0.10.1
990,3PLmKfb6P3PSBF9sUxNJDtsj9cckBVqYxZrndnHua5mj,134.209.221.110:1789,Amsterdam,52.35,4.9166,Netherlands,NLD,0.10.1
991,BAujU6yJwm59Q722vCBR4irhi3cELfyoS2fh9LXZFAPN,45.63.114.212:1789,Paris,48.8566,2.3522,France,FRA,0.10.1
998,CT11RFwfaJ4cwZzWvMw3X79XcpoHhCscXnuNmEHyAS2j,138.201.245.248:1789,Falkenstein,50.4667,12.3667,Germany,DEU,0.10.1
1004,AGH7QWRf36gNT2otKhh2tqxUjnDdo4WnZBkeRP3CVpsA,199.247.14.220:1789,Paris,48.8566,2.3522,France,FRA,0.10.1
1009,E74nPz9cyH22KcVeyuKN1S4qD7emGWe7BhhRvMMi7jNq,134.122.57.218:1789,Amsterdam,52.35,4.9166,Netherlands,NLD,0.10.1
1011,3U4qyinxyRm7DfLqX68eRTii151hx4kh8MSdxGSvJF5K,116.202.96.47:1789,Falkenstein,50.4667,12.3667,Germany,DEU,0.10.1
1013,FJxRvy6LZPEcJvV2gTFZFRmkRJPADDQa91DiYaW2Qney,95.179.133.168:1789,Amsterdam,52.35,4.9166,Netherlands,NLD,0.10.1
1014,2gwmKET1ur7DKfjCNa7CZCeeZm79fqY4iz8VEF6YDXdb,168.119.49.110:1789,Falkenstein,50.4667,12.3667,Germany,DEU,0.10.1
1016,9rg5d9JCtMVo3qFfhYGVXMj2RYZifd4ia4FwyfbuDGj,45.76.88.245:1789,Frankfurt,50.1136,8.6797,Germany,DEU,0.10.1
1017,BqmNHcPnCVHNtEhbb2dAf7N2iheVUfTrrNzG5sS347nH,168.119.115.76:1789,Nuremberg,49.4528,11.0778,Germany,DEU,0.10.1
1018,DZ6RfeY8DttMD3CQKoayV6mss5a5FC3RoH75Kmcujyhu,161.97.138.166:1789,Munich,48.1372,11.5755,Germany,DEU,0.10.1
1019,EHm944ZzpbTmqzBEDVRXL6eCw26cp1maBWGG3cmAXFpN,107.191.63.181:1789,Paris,48.8566,2.3522,France,FRA,0.10.1
1020,4z9iMbm9vyQyRXhYFpgnChp1EJ2F4AVKssPKPDNzo2pM,104.248.85.194:1789,Amsterdam,52.35,4.9166,Netherlands,NLD,0.10.1
1021,DA8Hp2WuYjyTGbvRHLxzGJmG481qXP6W6iYfLNvBkgjK,78.46.182.91:1789,Falkenstein,50.4667,12.3667,Germany,DEU,0.10.1
1022,EQxXofTuMqMn5aRocxaVkGSeR7rQf67dk43yMQzr3ib9,167.71.75.91:1789,Amsterdam,52.35,4.9166,Netherlands,NLD,0.10.1
1026,wVbWucbztdq61DVFVqBpMzWMc4gYeVfwF4k2qpcQoV2,108.61.165.46:1789,Amsterdam,52.35,4.9166,Netherlands,NLD,0.10.1
1028,9PuKRXhPDKoVzZCe1MCQjtAYBZgMKraaT2juTEcLJYoc,108.61.167.21:1789,Amsterdam,52.35,4.9166,Netherlands,NLD,0.10.1
1032,9AtSNvXx1cHvvcLPZP9TQxWVvKbhqmaZRw2AzBAa8CD6,[2a01:4f8:c0c:6464::4]:1789,Nuremberg,49.4528,11.0778,Germany,DEU,0.10.1
1033,Eg8zEEeSbBN9HUDGrqd9f7puam8exifL1PYxq5hnboVM,178.18.252.246:1789,Munich,48.1372,11.5755,Germany,DEU,0.10.1
1035,5Gjt8fKa1EF3trSseWZZySGdA7vXqdQ8tUmTAmYZMHuC,95.179.183.28:1789,Amsterdam,52.35,4.9166,Netherlands,NLD,0.10.1
1036,72TzWEthRwgf1BaPRBQaDmez7oxL8UjXS5gjszqTqrQD,49.12.99.0:1789,Falkenstein,50.4667,12.3667,Germany,DEU,0.10.1
1038,24XYE8Y97bQTYarqVdusoY7ng5bZk66UUUHcNLVwDR1a,165.22.70.148:1789,Frankfurt,50.1136,8.6797,Germany,DEU,0.10.1
1039,C2DCfxXUCuU5vVja9XBJC687A85vZdNGciy6d38Pgmt7,136.244.93.183:1789,Frankfurt,50.1136,8.6797,Germany,DEU,0.10.1
1042,2kPwnSQBYJwEGrPokvU3DW8X4N7DJ95ouYX3jPUVYCMf,161.35.156.207:1789,Amsterdam,52.35,4.9166,Netherlands,NLD,0.10.1
1043,5GQD3KtXNqmFgPhuSJfSmUCaV1Z3rxi2HQZLbF6wapBp,209.250.246.102:1789,Amsterdam,52.35,4.9166,Netherlands,NLD,0.10.1
1044,5LFSMUw2aixUKkLGeEKwsLjBPbYuoDKbgsstR3SR4nbU,134.122.49.228:1789,Amsterdam,52.35,4.9166,Netherlands,NLD,0.10.1
1045,HcyADpWFt2xeEEY6wXTbiYddiywpRMT1ffSsicVgYkHt,95.179.177.238:1789,Amsterdam,52.35,4.9166,Netherlands,NLD,0.10.1
1048,5kwYyWB9vgDPM8p4Q1CBhaSctaWfxmg4HVWCRs5WY6rA,188.34.159.1:1789,Falkenstein,50.4667,12.3667,Germany,DEU,0.10.1
1051,AR8eKbdRxV6ktXzDZX2DL6suXYHL1GqYm3TQzP7DW8wC,162.55.161.147:1789,Falkenstein,50.4667,12.3667,Germany,DEU,0.10.1
1053,D5EuAbN4xiPPMt8Qros3H1EJzRG7AAVSkMcBKsZxZ8U6,161.35.150.192:1789,Amsterdam,52.35,4.9166,Netherlands,NLD,0.10.1
1056,CD4dCQzqh788tyG35RC6hzd2fqeuKsP8WXSDu3KBQ1n5,142.93.105.253:1789,Frankfurt,50.1136,8.6797,Germany,DEU,0.10.1
1057,BwM3VpFijNRqszJLDvTh4UBkNNoBJof1e6yw5qEQHh56,128.199.51.138:1789,Amsterdam,52.35,4.9166,Netherlands,NLD,0.10.1
1058,Ekm38eVertATV1b54tTGV8PtdFv5J13c1vjx9ZY7dcRv,134.209.200.22:1789,Amsterdam,52.35,4.9166,Netherlands,NLD,0.10.1
1062,42TtdhqysL5auiWDfZW48yeaWS3y23dcDzep9zV2CJdC,162.55.52.46:1789,Nuremberg,49.4528,11.0778,Germany,DEU,0.10.1
1064,AUinV5wKvTBURLmy8ZXq2RqWxosvgMCo4JZTW6BqbXQB,206.81.23.200:1789,Frankfurt,50.1136,8.6797,Germany,DEU,0.10.1
1066,AeujxYb9JeGfbTRXmcVGShjF5KbmD9PMwnAwMxxVsm77,162.55.178.228:1789,Nuremberg,49.4528,11.0778,Germany,DEU,0.10.1
1071,84dyArYYbveo2XDgotkAbbU8fg5RRq2KvpsR5A2MZCqZ,162.55.172.122:1789,Falkenstein,50.4667,12.3667,Germany,DEU,0.10.1
1072,BB8iHdGWRAwk5aQqM5hffkwonbBdV5YPQuRah1BhoQBq,139.162.205.11:1789,London,51.5072,-0.1275,United Kingdom,GBR,0.10.1
1075,AMLZtVfuVejCVvRuWgcCC1jQ8WeNDYB4EBTCtktgcbT3,206.189.11.201:1789,Amsterdam,52.35,4.9166,Netherlands,NLD,0.10.1
1079,7kER3NmWQLQfcM3sqVVc6wJib5X6gW9JGorxk2nnWWac,64.225.72.84:1789,Amsterdam,52.35,4.9166,Netherlands,NLD,0.10.1
1080,6Z69YsqHAKfAqPeaXVSpd5bz1te43KWjEaTMQnsp3zJH,178.63.126.121:1789,Berlin,52.5167,13.3833,Germany,DEU,0.10.1
1085,259bx84w37BrCwzvEdeYZzwsaepubzGMbhKntcK6GGyY,104.248.244.144:1789,Frankfurt,50.1136,8.6797,Germany,DEU,0.10.1
1090,9LYJWkPBmQ1nktGN6Ls6LKa4cPpECon5mngW1ajRRJ1S,162.55.48.39:1789,Nuremberg,49.4528,11.0778,Germany,DEU,0.10.1
1092,3z7uU5C5xNLJEBs2FNPosdTyVMmj7Du8Vzqc1NVZx5mc,188.166.93.13:1789,Amsterdam,52.35,4.9166,Netherlands,NLD,0.10.1
1095,7z7uqCAxNwRHNe8dxLckUEZFfCqd3WoFy2UzHKbALsqa,[2a01:4f8:c17:2601::6]:1789,Toulouse,43.6045,1.444,France,FRA,0.10.1
1097,DnFL1jktxWiipU1DaabGn3x4bHRBbYHngK1d2VPPFMXc,178.63.126.115:1789,Berlin,52.5167,13.3833,Germany,DEU,0.10.1
1104,DykGAYm3w9hVuMdnRPj6AAPZzd3V2iSJEhHupXAS4UKa,78.141.241.14:1789,London,51.5072,-0.1275,United Kingdom,GBR,0.10.1
1105,Aj9RJdjiSeKUQZXnjkunLU9n2UcK49eFsXrNYy22D5ZG,178.170.9.251:1789,Maisons-Laffitte,48.9469,2.1456,France,FRA,0.10.1
1106,vk9eG9pbDN1FuiA2V8ih6z2oboygMbH2LiASAqhjiTM,157.90.123.90:1789,Nuremberg,49.4528,11.0778,Germany,DEU,0.10.1
1107,63jCQkFvk7G8KC5Hv5ew7EWNeRGXpBQb5GtMEq22Zgyg,168.119.252.51:1789,Falkenstein,50.4667,12.3667,Germany,DEU,0.10.1
1108,YTpLNN4TyEgXKJYAMCEFq35uGbeQrwnz3weweu2ZqTZ,161.35.83.179:1789,Amsterdam,52.35,4.9166,Netherlands,NLD,0.10.1
1112,J9CbR6D8R867kRYWRPLEEeGViZirjCbYm6SvafoRvnPP,45.77.58.189:1789,London,51.5072,-0.1275,United Kingdom,GBR,0.10.1
1121,8S1FoN3GByZStbbXXUVzviiR8QSXrGK7yya5Cs74e9LE,159.89.7.183:1789,Frankfurt,50.1136,8.6797,Germany,DEU,0.10.1
1125,HhKUs7qGNbTyW6gz5QC5Us6VMh7VeYdQoWoY6gVfwCTm,135.181.158.101:1789,Kyiv,50.45,30.5236,Ukraine,UKR,0.10.1
1128,9uA2rp3Kj9UVYgvBpoXdxhDRk1vAqRRyxtESYyFyeh48,217.69.10.112:1789,Paris,48.8566,2.3522,France,FRA,0.10.1
1131,CqSzWMgjYf8JiMfXyAgYf2ub23mhmGGr1eB1ir2Hb4X9,95.179.221.215:1789,Paris,48.8566,2.3522,France,FRA,0.10.1
1134,6Q6vTjhiLPksbQvG76p9B3fi98fpMxbMfZHD5sptxLAT,75.119.136.140:1789,Munich,48.1372,11.5755,Germany,DEU,0.10.1
1135,AFDg6ePmj3Wv6yz8ynR8prxybfWjeaRztBJUPGPLp7dD,162.55.56.23:1789,Nuremberg,49.4528,11.0778,Germany,DEU,0.10.1
1136,CeyoV4tpCTMZepggxPpH86DURmRL6n35vKpjyEGhQezh,[2a01:4f8:c0c:aa70::1]:1789,Nuremberg,49.4528,11.0778,Germany,DEU,0.10.1
1139,7Dvf44WVRwkzdirfZixtMWfGi6jr5dJ8LDL9ALwbDgrd,159.65.56.115:1789,London,51.5072,-0.1275,United Kingdom,GBR,0.10.1
1141,8DSByrBHNnGB3CwitnyBeAEdQ1MPrMDFsNGdpKwXi8A7,128.199.60.240:1789,Poltava,49.5744,34.5686,Ukraine,UKR,0.10.1
1142,9XkyTRVxPpJX2hzHAEodg8PmRSW3x8YCeoG67AJNnG2t,159.89.32.157:1789,Amsterdam,52.35,4.9166,Netherlands,NLD,0.10.1
1146,9ATJww7PzgECvTJMNrHywVzdRd31g4UWK2Jb75SWpoab,95.179.217.84:1789,Paris,48.8566,2.3522,France,FRA,0.10.1
1150,HPvVEYnfzi1BeisYHSEEaUDaoErmHFXMtE1sBaXHEzY9,45.32.158.216:1789,Frankfurt,50.1136,8.6797,Germany,DEU,0.10.1
1151,BhUEKrLyFXyGjPBngE78u7LztCY6PpcyoWRUsrjNg6SS,199.247.24.108:1789,Amsterdam,52.35,4.9166,Netherlands,NLD,0.10.1
1154,DwiGquQFviVoPkm8qAhmEaiCYmEagFDJvzS7Z9E26xyG,188.166.36.148:1789,Amsterdam,52.35,4.9166,Netherlands,NLD,0.10.1
1159,972ZwLggrzXNzSAnNSTjEtjfRK3U5vz9BTBtcbVmXdZC,49.12.76.82:1789,Falkenstein,50.4667,12.3667,Germany,DEU,0.10.1
1162,zv4SHGKeewTygrPuuU7H5FsdhQPA5P5Uxu3G9ZpbUmA,162.55.44.238:1789,Falkenstein,50.4667,12.3667,Germany,DEU,0.10.1
1164,4zGc6Tc9HhEvV3JRqWF31PN5Bzn8HH6XtfMpAgEnhwrR,140.82.38.125:1789,Frankfurt,50.1136,8.6797,Germany,DEU,0.10.1
1165,FFPEkAMEj3qo9MiCxQsWFcTTY4fSxE65iN1e5mT9SXTh,165.232.158.102:1789,London,51.5072,-0.1275,United Kingdom,GBR,0.10.1
1171,5Q4z1wdoXrfYyc5U3CYim8QRhti2Rfx8yNRWnNRpdfN2,209.250.247.185:1789,Amsterdam,52.35,4.9166,Netherlands,NLD,0.10.1
1172,CHcqgexAJ6fyPojZDFHVRS7T73cYyVwkrrUUApmV9bZS,157.90.244.228:1789,Falkenstein,50.4667,12.3667,Germany,DEU,0.10.1
1174,5ZFSdQ3hhmmZD92bnirAV28q89HcVhmmNRScyZSPUntR,162.55.174.41:1789,Falkenstein,50.4667,12.3667,Germany,DEU,0.10.1
1179,DaV9smmQrE2gBg6MH23RKUHXba2GBiNJkRefUPjeGZMP,[2a01:4f9:c010:6a29::8]:1789,Nuremberg,49.4528,11.0778,Germany,DEU,0.10.1
1185,42WkJx5dvqMEqwsS9w9NHiFgrgqaWfd2QTrf9GzKDwgm,[2a01:4f9:c010:b922::12]:1789,Nuremberg,49.4528,11.0778,Germany,DEU,0.10.1
1188,Ciou22GBvEqUa7vYfXVE5oPLJ4geuW34wYWrQ4GkH755,188.166.51.203:1789,Amsterdam,52.35,4.9166,Netherlands,NLD,0.10.1
1189,CnJ3T7SqTfb3GZbrw4662bMSGhbFkiya9SkSjRmvUngA,142.93.234.75:1789,Amsterdam,52.35,4.9166,Netherlands,NLD,0.10.1
1193,DrqtA1JufLNMJGGy2b5bSoUx2voeTo3kWicJCktoQ8Qi,45.77.53.69:1789,Frankfurt,50.1136,8.6797,Germany,DEU,0.10.1
1203,GCuTrsbAQhduzFUvNNDbiWLWJjXXctGhRSMTyh4tghmq,194.44.223.47:1789,Stryy,49.25,23.85,Ukraine,UKR,0.10.1
1204,66hmEtUNeJFsFgKJJhRjLrXe42Jn33E1AbW2s1myRJfV,159.69.190.35:1789,Falkenstein,50.4667,12.3667,Germany,DEU,0.10.1
1206,DDh1rLgZcSrwXw2dQuZj53wx6wmE6w4mjX6fWzz3fghr,144.202.26.23:1789,Paris,48.8566,2.3522,France,FRA,0.10.1
1212,8xHxPZChLaxLKSimbKsWyzGhUhcUsyXmCH9LXymfwYQ8,139.162.183.85:1789,Frankfurt,50.1136,8.6797,Germany,DEU,0.10.1
1214,Dq6m4ApZCmYuA5sqvgoQRzBk1w26ZXCVfC2Ui9YckytN,178.62.193.113:1789,Amsterdam,52.35,4.9166,Netherlands,NLD,0.10.1
1216,5JGoquj3duqaNu99gxsuNk7QhJ66NCosLxdc1NKctRqv,95.179.144.121:1789,Amsterdam,52.35,4.9166,Netherlands,NLD,0.10.1
1221,2s1aBbd7DQU9pYB7VjPTVa4VA7cYtqgik9kVEPtg5Tv8,178.62.210.179:1789,Amsterdam,52.35,4.9166,Netherlands,NLD,0.10.1
1222,HjrRWj5vMLPgko1utvQTbMD47fTx4gSAocwcc4JhYJHL,209.250.246.174:1789,Amsterdam,52.35,4.9166,Netherlands,NLD,0.10.1
1223,HYrkJnjqaLhhP1eEYwkm9YKxgoY2x97uRa5VB6R7EEzQ,88.198.184.53:1789,Amsterdam,52.35,4.9166,Netherlands,NLD,0.10.1
1224,AkCPWyeyW4Gu36hNj7jPfHfHysPLbiJtr4LZN5qbVFJd,162.55.165.155:1789,Falkenstein,50.4667,12.3667,Germany,DEU,0.10.1
1228,3E35qURN1Yr1KakbUq4hTTYwzUoaSDXEDQhe8gS6Ccys,213.136.92.73:1789,Nuremberg,49.4528,11.0778,Germany,DEU,0.10.1
1230,FhDk1nVVhdaHyaBkNrXZYrmDVLUkePWiJWCPy9QMATzx,192.248.178.73:1789,Frankfurt,50.1136,8.6797,Germany,DEU,0.10.1
1234,CZyAbRdeig7X6svUTvbS6Csj3gh5qavEiwuHZjvajJEF,128.199.41.46:1789,Amsterdam,52.35,4.9166,Netherlands,NLD,0.10.1
1235,9CvJcCKLQJ3xz4tswcJV77hTh8uWJ5Du25r1pqkjaN2p,134.122.91.247:1789,Frankfurt,50.1136,8.6797,Germany,DEU,0.10.1
1236,FNkYSABNetSgZV47THDHfjuUzzzJJ4FyeG1oJjHmTWuV,199.247.28.111:1789,Amsterdam,52.35,4.9166,Netherlands,NLD,0.10.1
1238,FCXZQcLPvxbXT3y6AbR728ie1M51xxUYGRmzcwoVYQuz,167.99.36.69:1789,Amsterdam,52.35,4.9166,Netherlands,NLD,0.10.1
1239,63VJj6nkKzPyUxSMJqqiqTDsNbfSzEcCngNtyE5rZeMd,206.189.2.8:1789,Amsterdam,52.35,4.9166,Netherlands,NLD,0.10.1
1240,GBQQNf1vfUQy7t1qyHEr3m52UTAFtiFmQYJgaE8HigYR,75.119.150.13:1789,Munich,48.1372,11.5755,Germany,DEU,0.10.1
1241,E76yCeBKaq1XhDzhZKgdk6RSwq32ZdjwtyewJeXYDfjg,195.201.0.87:1789,Nuremberg,49.4528,11.0778,Germany,DEU,0.10.1
1245,7CjHDgu39ZDUQcBxjPPefGeNWyRSfw47X9hmc5YUrNpo,83.229.6.33:1789,Milan,45.4669,9.19,Italy,ITA,0.10.1
1257,23aBBsnuLYxmSit6Y9F8ir2WWh3EF5dzGme8HEMDfN5b,108.61.190.23:1789,Frankfurt,50.1136,8.6797,Germany,DEU,0.10.1
1258,9V598eT4FVHsB7UqCD9LnUWLfnZLmNZBfqBhR12qVmUD,[2a01:4f8:c17:c4e4::13]:1789,Barcelona,41.3825,2.1769,Spain,ESP,0.10.1
1265,CHJafiazhzheyLt2YhbeK7481uAWbP95jG8kVHMzAJtp,194.195.219.62:1789,Nuremberg,49.4528,11.0778,Germany,DEU,0.10.1
1268,H7wBXWTA3i7qYCZ2QdwthHyLgLatAieCKvh6r4XSWsgV,167.71.49.232:1789,Frankfurt,50.1136,8.6797,Germany,DEU,0.10.1
1273,ApCXxhPko6oj8Q51jb4SGNche2EsbFEuSdxiVCCrU9Rw,188.166.114.199:1789,Amsterdam,52.35,4.9166,Netherlands,NLD,0.10.1
1283,DLXSYsVk3WUAinYPPpYnSsfmTZLKWEjY5eAoQCbzYxq4,45.32.187.220:1789,Rotterdam,51.92,4.48,Netherlands,NLD,0.10.1
1284,HDFhzaqj9hZjJVNsYFyYQZcFq2d5Weqa2n52nGzyv52s,165.22.197.232:1789,Amsterdam,52.35,4.9166,Netherlands,NLD,0.10.1
1285,Hmh83w1TrC8UkmXQj9hFzGLbVPkD9T8nCWQQJub2fEy4,65.21.108.93:1789,Amsterdam,52.35,4.9166,Netherlands,NLD,0.10.1
1287,EA71nbZdqXuipK5N5fNJAsXndadCtCoGyhUF65g3RmAK,[2a01:4f8:c17:d55a::13]:1789,Amsterdam,52.35,4.9166,Netherlands,NLD,0.10.1
1292,Exg9x3Tjsypkvj7MsPW6oQPhSm7iqYXR2AtwVvsFT4gN,174.138.6.21:1789,Amsterdam,52.35,4.9166,Netherlands,NLD,0.10.1
1300,B35XsH1zVj5tFKf1FGU162owA7UrsfxeUR8xcfCiW6Gp,162.55.174.47:1789,Falkenstein,50.4667,12.3667,Germany,DEU,0.10.1
1304,EcMPdurJHcdhayAZ5fAtMKtHrSLdJLr8uMuCAQH1TzUb,136.244.78.164:1789,London,51.5072,-0.1275,United Kingdom,GBR,0.10.1
1310,7q2uWYDUocSuFU9gdUE46uMx598U5BpG2NHJWTemDt4M,167.71.7.155:1789,Amsterdam,52.35,4.9166,Netherlands,NLD,0.10.1
1312,ArbtfNzXp1Qj4uNJaWa6FEasLHGzaX5bLSemRm72WjPi,206.189.115.23:1789,London,51.5072,-0.1275,United Kingdom,GBR,0.10.1
1313,7tZzLAJP3hNDa9bXtwwkSGxo4hQ5SNLGp5QXvaCjQi3c,89.163.216.154:1789,Düsseldorf,51.2311,6.7724,Germany,DEU,0.10.1
1314,4ypvSVmXUke1ZNLtnri7KLYViPhmG8fSSod5yjhSpTja,217.69.13.227:1789,Paris,48.8566,2.3522,France,FRA,0.10.1
1315,ESie51gmLpEijVaWv2mYfPqJVZSNsdWSfKkxHfuyrvk,167.99.217.240:1789,Amsterdam,52.35,4.9166,Netherlands,NLD,0.10.1
1317,BCY2CkbS1yvKuWtwZLGvyoemGwPuLQ3qat9UtdmXWV7C,46.101.238.36:1789,Frankfurt,50.1136,8.6797,Germany,DEU,0.10.1
1323,AZDdJ7J1m8NYuP57mrXRueB8gMZ57CBy7YHPQ3N3HMpA,162.55.47.254:1789,Falkenstein,50.4667,12.3667,Germany,DEU,0.10.1
1327,5wmQ8r7vqb3fUY4tAXeENwH4u6YFnXSkKV6rdwVuXmUJ,157.90.239.93:1789,Nuremberg,49.4528,11.0778,Germany,DEU,0.10.1
1328,FYiDoabibWLXMSSBUJMh3icoib3sezaGyTbxM4xgRfdD,134.122.49.186:1789,Amsterdam,52.35,4.9166,Netherlands,NLD,0.10.1
1329,FKy7DQM4MisivxHrCpT9fatSCEhGc8c7HLVbBTDckeQx,62.171.158.121:1789,Munich,48.1372,11.5755,Germany,DEU,0.10.1
1332,FjkZSyjt7kq55TvYaA6RCe3qiGYP6LA12s6vYZvd8dSq,[2a01:4f9:c010:ddc9::22]:1789,Barcelona,41.3825,2.1769,Spain,ESP,0.10.1
1334,FnzrVhehrKVwLNadk3wbFgc7T6cZPLAWSVf3cFuq1F1D,46.101.120.190:1789,Frankfurt,50.1136,8.6797,Germany,DEU,0.10.1
1335,25gUTufJbh6k39mqxD6yZxTYcJgMRZzqLPbPef9v3YUL,104.248.202.126:1789,Amsterdam,52.35,4.9166,Netherlands,NLD,0.10.1
1336,79X9xQfanGwnuLaeC3dX3PjLY7h6Jdq1vJ4qYnfk5LT1,159.65.18.76:1789,London,51.5072,-0.1275,United Kingdom,GBR,0.10.1
1338,BxRz6W1ohzKmAcUZZ5D3Yu4fWCeg491E2cpJxdyh12mS,178.62.241.136:1789,Amsterdam,52.35,4.9166,Netherlands,NLD,0.10.1
1339,GhxQqgDqsGNbnhwyYtBYvrSMcPF295vmEvUNrK4imhLT,116.203.115.86:1789,Nuremberg,49.4528,11.0778,Germany,DEU,0.10.1
1341,5hCcufUKw5aNkXT1oidhLujH1EF1c1ucesDJwzx94V5M,[2a01:4f9:c010:8ef8::14]:1789,Frankfurt,50.1136,8.6797,Germany,DEU,0.10.1
1342,4JBB8EBbiWxMBXMNH3FePN4VukXfhxjdPPrEEskUMxEA,188.166.156.210:1789,London,51.5072,-0.1275,United Kingdom,GBR,0.10.1
1344,vDu5mmYWaHWVAZWWdKEdUj7hnUVgNkbVJrN94U6bzp9,157.90.161.138:1789,Nuremberg,49.4528,11.0778,Germany,DEU,0.10.1
1345,4P6hNCMAkHK41Q3MPaqHN3ftL5FTxJ3kZohMSLxVZcwq,161.35.152.213:1789,Amsterdam,52.35,4.9166,Netherlands,NLD,0.10.1
1346,9ifW4heKaCN3d4zmRsJLLfzrQywt6PodvomCrJMbkdCM,159.69.22.28:1789,Nuremberg,49.4528,11.0778,Germany,DEU,0.10.1
1353,95McsNEk5XJSrxJ2MGaEgdmT26bqsXXPGRFoJpMZX38m,[2a01:4f8:c17:1015::13]:1789,Toulouse,43.6045,1.444,France,FRA,0.10.1
1355,4aBeLigEo7fhxhPpUqtSd5KMd3BscCagr7gRikbhVVv6,[2a01:4f8:c17:d55a::4]:1789,Nuremberg,49.4528,11.0778,Germany,DEU,0.10.1
1357,4bgaDWpgd3ucCpHY2QgWveiSfEfGho6Xedruz2CT8BeA,46.101.113.113:1789,Frankfurt,50.1136,8.6797,Germany,DEU,0.10.1
1358,AnehbqdYzruyNzKYuLCHMzTJTStJjBHv3E33ksVfSr1X,157.90.251.214:1789,Amsterdam,52.35,4.9166,Netherlands,NLD,0.10.1
1364,2dCnTXDXUjVVu7tXnpP4dZF85UCXdkuiU1PbkgbxJJe6,192.248.179.151:1789,Frankfurt,50.1136,8.6797,Germany,DEU,0.10.1
1365,4y4RNTxVWKtQA47M3GDdhubaQUb5NRh4CwDefj8w5SCF,165.227.168.246:1789,Frankfurt,50.1136,8.6797,Germany,DEU,0.10.1
1366,q7oMVPZYTvojULmorecjUK7SuQ2z4ZwvueWZCNfSo3U,142.93.135.82:1789,Amsterdam,52.35,4.9166,Netherlands,NLD,0.10.1
1367,F9rkfjXPQNkWJHbFQHdJ5yb5ncTh1Hrsbf6otdumVR4n,75.119.142.34:1789,Munich,48.1372,11.5755,Germany,DEU,0.10.1
1368,2YzTDQ9MUyJwW1EbPYxWe66r3oPGJZSgMfjs5wm77QtL,161.35.154.162:1789,Amsterdam,52.35,4.9166,Netherlands,NLD,0.10.1
1369,hQv6G8L68uXF5dwtxhpgTbt6HKnmnY3LmCxFm1yR9bq,92.38.184.29:1789,Amsterdam,52.35,4.9166,Netherlands,NLD,0.10.1
1376,8PmCgyQXePFPAZ6ENUJYx6PEmbt7Q2b9D7eYhJetULg7,168.119.228.47:1789,Nuremberg,49.4528,11.0778,Germany,DEU,0.10.1
1381,Bo5YfgymXMqaAcGtMqDMAxD6jCKQ8gx2sepzGsNgtAsa,64.225.71.1:1789,Amsterdam,52.35,4.9166,Netherlands,NLD,0.10.1
1382,3xKqpe2UqBiKrAhXnNW9UTgzGNKvYoogJbma5JMGp46B,140.82.37.1:1789,Frankfurt,50.1136,8.6797,Germany,DEU,0.10.1
1386,BEoEgZSQ5Zdzp7KYfFUzSk94TXePJorkuihFyNWPUUss,168.119.63.35:1789,Falkenstein,50.4667,12.3667,Germany,DEU,0.10.1
1391,CmN91tPWmHwYPUZzdaby8Rp87Tewt8BgnJtrGTezeGvj,178.62.206.118:1789,Amsterdam,52.35,4.9166,Netherlands,NLD,0.10.1
1394,FSzvyQqdQ6vd1HYF5fQ6uSq1QB7hsu8dVf1VLd6zqYUa,75.119.151.139:1789,Munich,48.1372,11.5755,Germany,DEU,0.10.1
1397,FCxcS4Rwb8DanBWTesJeLcBJvTYSAwkUsYECJbu8JLGo,45.77.143.177:1789,Frankfurt,50.1136,8.6797,Germany,DEU,0.10.1
1405,AavQsyWYG8ERLoMzzcEh7v8WtjwpsjMXzYvmb9UtR3gP,159.65.200.58:1789,Amsterdam,52.35,4.9166,Netherlands,NLD,0.10.1
1408,EcrDVZrPUMeJPntbyGSCVTfqmM9h8znu7i7yTm95q6D,178.62.200.179:1789,Amsterdam,52.35,4.9166,Netherlands,NLD,0.10.1
1413,BFpwckeLccdq9hKYMwURpfxrbJWzrB7TvDJ7Attc8wRL,78.141.223.5:1789,Amsterdam,52.35,4.9166,Netherlands,NLD,0.10.1
1414,5ndHTiDjHLNXYpJ9PYZRk1W4f7Hkey2VcS8qjWArdDBi,162.55.160.105:1789,Falkenstein,50.4667,12.3667,Germany,DEU,0.10.1
1417,FywgVMbKCNDpea1gVbTR2PtwK219LZRCA5VEwvNUi2z9,162.55.171.69:1789,Falkenstein,50.4667,12.3667,Germany,DEU,0.10.1
1418,3EdKdN5JNAh7vbHebY75zpvvmVeee8G8UccrqCS9RGsi,178.62.229.90:1789,Amsterdam,52.35,4.9166,Netherlands,NLD,0.10.1
1420,BKFdeEDvhVeqRZAw7gwsQPx9uz84e7qHhUZNHDyTAbUy,167.71.78.80:1789,Amsterdam,52.35,4.9166,Netherlands,NLD,0.10.1
1426,GdCp8pp9PY7Pn2P939zVmQiYFaG3tfLG8ThxrGrxGhUs,45.76.34.52:1789,Amsterdam,52.35,4.9166,Netherlands,NLD,0.10.1
1430,9VgQdBL6o5KDPNjCZHU1fNkTa8zMbt5orbqmqatWy1bo,64.227.73.100:1789,Amsterdam,52.35,4.9166,Netherlands,NLD,0.10.1
1431,BYmPMdjEjy63Y8z7ShtqeXuhvUH7dSZcysKuwT4TtwGS,206.189.11.124:1789,Amsterdam,52.35,4.9166,Netherlands,NLD,0.10.1
1433,DuR9YmZjfYip6Mgb7LZS8DabawSceasH9jhPFvuJ9xgL,45.76.80.207:1789,Frankfurt,50.1136,8.6797,Germany,DEU,0.10.1
1435,6k9fNU5jAyEDEF3jPpxyRqyGfJPXPpyKfw3McGocCasK,35.234.74.51:1789,Frankfurt,50.1136,8.6797,Germany,DEU,0.10.1
1436,9Hq8xFzGKkAkWSFeZTGH5eC3ACJTNcm1xNzrbyC4A3WL,75.119.130.230:1789,Munich,48.1372,11.5755,Germany,DEU,0.10.1
1437,4cG47fbSbT3VyDJkwNifpMSJYq2qMryGiwJUKJZbDnoK,152.70.162.83:1789,Frankfurt,50.1136,8.6797,Germany,DEU,0.10.1
1438,6sdreVmBAM1hy83CudjUYkpgcLtBk9NGhCvF9WRaYML9,178.62.214.98:1789,Amsterdam,52.35,4.9166,Netherlands,NLD,0.10.1
1441,CfTfWYAFtZ8zoaS5TavvMgiuzXBxmqMuoJu9pmnEpmhM,95.179.154.78:1789,Amsterdam,52.35,4.9166,Netherlands,NLD,0.10.1
1443,5pMxSRGTmy2UEBAsvhRLEYm6b854Co5AVHa7uGDT7tRP,178.62.249.74:1789,Amsterdam,52.35,4.9166,Netherlands,NLD,0.10.1
1446,6CxfJ8YrrMo5n36kTVFGwDyyszS7NzFtLwhhbqVwomPx,188.40.243.151:1789,Berlin,52.5167,13.3833,Germany,DEU,0.10.1
1447,Dy2soaqQTAuuLzAPPCNon5DZVhDQcB942vr7kDHrUST1,136.244.109.246:1789,Amsterdam,52.35,4.9166,Netherlands,NLD,0.10.1
1449,7QkYeoP5BwsTUNrknxoNMryjtERuZ6vV4ZkaXSKxWo1b,167.71.6.150:1789,Amsterdam,52.35,4.9166,Netherlands,NLD,0.10.1
1450,J2MBJcqD2TANjiv5ADxFeE7bEY7C7xb4P81UFgZ9nQnX,109.238.12.69:1789,Paris,48.8566,2.3522,France,FRA,0.10.1
1451,FnWCvERwAjLJkGNXZqyi3QGSGmxhnFPw5ZiTLBrRkTdx,75.119.142.33:1789,Munich,48.1372,11.5755,Germany,DEU,0.10.1
1454,6qYd5axsyi7gvKSfVs9Jw84HomipqjpJvtt3MyfBon9d,45.76.38.203:1789,Amsterdam,52.35,4.9166,Netherlands,NLD,0.10.1
1456,AUPjuTCvCR3opj8P97yhkk7c36WCLGVucLU8xYfcQUHG,[2a01:4f9:c011:4518::2]:1789,Berlin,52.5167,13.3833,Germany,DEU,0.10.1
1457,6jGY3qUPPf6DZM7Z466QekV8c5QvTW7U4XPU2pvstYkk,46.101.236.19:1789,Frankfurt,50.1136,8.6797,Germany,DEU,0.10.1
1459,8im3AcJn3NSpPQjZc2CZFkdppFQ4EKrriB4zyNadkVLd,95.179.171.190:1789,Frankfurt,50.1136,8.6797,Germany,DEU,0.10.1
1464,BjYauH87HnzYVEzPKzwZZE1EMpK3k8TRLBnKDiSnudhA,134.122.94.233:1789,Frankfurt,50.1136,8.6797,Germany,DEU,0.10.1
1468,DnonC6MKhJ6yyy9xRQpMrTS6bDzVu4ZAkydVpDYRXX7K,159.65.31.5:1789,London,51.5072,-0.1275,United Kingdom,GBR,0.10.1
1469,GU7XRkKVwrCkvYFtv6SEDpArdTSWjiAzxeXKePt1cSff,157.230.125.102:1789,London,51.5072,-0.1275,United Kingdom,GBR,0.10.1
1471,2dDUa6osxMTZLuYpRpnx7ofH24aLb9ta539mt7dEcMT5,188.166.93.224:1789,Amsterdam,52.35,4.9166,Netherlands,NLD,0.10.1
1472,5Htdz69as2s71Ph2VSooGbBoGGFUNpXtsMba8K376iCU,188.166.100.236:1789,Amsterdam,52.35,4.9166,Netherlands,NLD,0.10.1
1474,6RTru9ZHygvRTsY83SNPCgTQ9a1WAgTwTxqQZUVfae2y,178.62.214.155:1789,Amsterdam,52.35,4.9166,Netherlands,NLD,0.10.1
1477,Df4t6Hyhv6rNkJfzjuw8x4wQ2hqv1tMQ8rk34KmaVtHC,159.65.62.18:1789,London,51.5072,-0.1275,United Kingdom,GBR,0.10.1
1480,B5Dkfhp2S73QENGUueG6AtyeAUAsjEgKde1G6ox8sbN1,45.63.119.33:1789,Frankfurt,50.1136,8.6797,Germany,DEU,0.10.1
1500,2a6zgafoL4thudjdpnwDcs4uQr8XTU9Tq3ZSDtnKa3QB,136.244.117.223:1789,Paris,48.8566,2.3522,France,FRA,0.10.1
1502,Ah7KsPVD4Ksvj83rJCvamj9uLHd6LVRU9c8ZaU9oTZ5B,162.55.49.104:1789,Nuremberg,49.4528,11.0778,Germany,DEU,0.10.1
1506,ksTHnRpPxbDXhJVv4SdajJJF6b1ypo6kTqBek99u6EG,64.225.69.117:1789,Amsterdam,52.35,4.9166,Netherlands,NLD,0.10.1
1508,2ifWASDYH3KazKjPSCL9NQefTnHHWpEuJGMqPWf59Bum,75.119.151.138:1789,Munich,48.1372,11.5755,Germany,DEU,0.10.1
1512,Bt4Y849vg8md2ToVhMokFyN4RDp785pNGFKjhtXcvSzF,161.97.141.35:1789,Munich,48.1372,11.5755,Germany,DEU,0.10.1
1513,FE53WmG6i3DGD4csX96KneNHHXjdRyXj4PhyTsKqiykL,167.71.66.205:1789,Amsterdam,52.35,4.9166,Netherlands,NLD,0.10.1
1514,7n87MZvqPVKmaeQcy9spEmY7ht1bRjj7LiVD8vvy31Av,157.90.170.248:1789,Nuremberg,49.4528,11.0778,Germany,DEU,0.10.1
1522,G9Ra1UCNgSZnEuj37v5miEAA5NMEFNg3jVPGw9P7vzWN,138.197.182.113:1789,London,51.5072,-0.1275,United Kingdom,GBR,0.10.1
1528,qBpJMsXge3UTF1nWQUa15UhTJosN7ZJUJ6mdsf21V5N,217.69.14.92:1789,Paris,48.8566,2.3522,France,FRA,0.10.1
1533,4wxwWyrGfxLiuAQN2iWxrY6igh366yN35WcamseDH5Gz,138.68.92.146:1789,Frankfurt,50.1136,8.6797,Germany,DEU,0.10.1
1539,8bZz2GCdzcbSQmRtRA1XHeomfiqm6KqsR1scmKZzmD2t,157.90.162.80:1789,Nuremberg,49.4528,11.0778,Germany,DEU,0.10.1
1540,5htEwT3accha6n9558ijLpbDX63K5qq5JARffiKo8RF2,162.55.182.154:1789,Nuremberg,49.4528,11.0778,Germany,DEU,0.10.1
1541,hcxFkEYLCjX743e56iwwxVWv1ktk95J2dR5TPb5eEVG,139.59.172.60:1789,Amsterdam,52.35,4.9166,Netherlands,NLD,0.10.1
1544,DbtsYdce3yU4AM6x1RwAapLLYu3Hk5YybsYRj3F18DdL,162.55.166.253:1789,Falkenstein,50.4667,12.3667,Germany,DEU,0.10.1
1545,6WAoTpzUoqr6oQVA2UUYRwX33BA1orERrnCitvfmnfhg,45.77.64.164:1789,Frankfurt,50.1136,8.6797,Germany,DEU,0.10.1
1546,EXQw6sws6uKSNqeGaHCcMiYsrPzZbeU3SamN7b4cz4ff,206.81.20.227:1789,Frankfurt,50.1136,8.6797,Germany,DEU,0.10.1
1548,MpZFmK12EjtxA9imUnAubZ7sXgDngBnSZFHz65QejLB,161.97.164.156:1789,Munich,48.1372,11.5755,Germany,DEU,0.10.1
1550,B2dgxypVoTEfx2FzjFMTCE7Zx9dQY1nNXCUm4DUFdiVK,167.71.5.96:1789,Frankfurt,50.1136,8.6797,Germany,DEU,0.10.1
1552,ALtic6QAUGbX1AuGHNg4Ry14kb18oMJ4h4uTTcfzE3Fg,142.93.141.178:1789,Amsterdam,52.35,4.9166,Netherlands,NLD,0.10.1
1556,9yiCHhSpyiUR8oKNfaQocXJDKHyJ5yEqg6eWnELVfuLA,[2a01:4f8:1c17:489e::8]:1789,Berlin,52.5167,13.3833,Germany,DEU,0.10.1
1560,AoadoUJe42LK6Yez3Q2wfP1yD8V3MYmAA6noR34DzQpp,[2a01:4f9:c010:b922::9]:1789,Frankfurt,50.1136,8.6797,Germany,DEU,0.10.1
1561,8KDwvYaHodceDfxJntxbACBbF1W9hr8noH3XdtRe41ZG,62.171.158.185:1789,Munich,48.1372,11.5755,Germany,DEU,0.10.1
1570,C1DdcEacpJCMppp1rvzGPRJ9TUfMXNW3uDVeVxWwphL7,[2a01:4f9:c011:4518::1]:1789,Nuremberg,49.4528,11.0778,Germany,DEU,0.10.1
1575,6WgJXifGgM1i1z9JzyzXJnY5kJ8n1SAYvgnU6VKNPcvZ,188.166.107.37:1789,Amsterdam,52.35,4.9166,Netherlands,NLD,0.10.1
1576,6szuzEG4tgScr2gym35qTNLkjPvjfqUQsxvJySw9bfGS,192.248.189.39:1789,Frankfurt,50.1136,8.6797,Germany,DEU,0.10.1
1577,CQZfRrjVeYyAzv3FWQygUjyXenMfwVVCDs1pK2a2fAsw,178.62.236.57:1789,Amsterdam,52.35,4.9166,Netherlands,NLD,0.10.1
1582,GMzaNVn4Dmv6fJe3VffwYuGKyozw4PkBAniXPh3YRWGt,188.34.193.148:1789,Nuremberg,49.4528,11.0778,Germany,DEU,0.10.1
1583,9uXF14jNYNVGj5xyExv5H2KwQZecEMKy9opoeQHiv1wp,199.247.26.75:1789,Amsterdam,52.35,4.9166,Netherlands,NLD,0.10.1
1584,3aBW7mKA3ZLumVWugLfMafVpBh5tKD8m88pTCikHzW6e,[2a01:4f9:c010:6912::1]:1789,Amsterdam,52.35,4.9166,Netherlands,NLD,0.10.1
1585,HXCezBGfwvfTgVpjPqZoyRz737oh1Bb4XrVVbaJvvFJg,159.65.197.143:1789,Amsterdam,52.35,4.9166,Netherlands,NLD,0.10.1
1586,13Tx4uZBfns99mh8LbDPddaSPo64Q87VJpxuvEFsXjFh,116.202.105.163:1789,Falkenstein,50.4667,12.3667,Germany,DEU,0.10.1
1588,EvdUECdJgrJoQmPTXLbVdYQmFSa3yiAATvorDo9kdg5X,146.56.178.125:1789,London,51.5072,-0.1275,United Kingdom,GBR,0.10.1
1589,x5pKSFKKoZUKh8WWoLLQESwvGDf66mPGMfH8L3hX996,167.99.220.111:1789,Amsterdam,52.35,4.9166,Netherlands,NLD,0.10.1
1591,9qcXY86zhgKm1ri1Ufs6nsCGT1eDum8BMJHPeL973423,199.247.18.19:1789,Frankfurt,50.1136,8.6797,Germany,DEU,0.10.1
1592,GBhDDSBHbbPFwZNDr17pZpSGhSP3G7gLA6Tdg5q2bZM5,134.209.197.143:1789,Amsterdam,52.35,4.9166,Netherlands,NLD,0.10.1
1593,8Nm25vgZMvDXN59W4Q4WtQYbrrwAuRsdpFipkwachkNt,165.22.203.49:1789,Amsterdam,52.35,4.9166,Netherlands,NLD,0.10.1
1598,HCnnfzUjvAab3P5R2EwWrVBvVsTU4e5udu1FTAC7KWNL,188.166.44.123:1789,Amsterdam,52.35,4.9166,Netherlands,NLD,0.10.1
1599,8ByS8R5GwMsdtSYbZEsG5yVAxEuab6ziHfBpnL441gN7,157.245.69.139:1789,Amsterdam,52.35,4.9166,Netherlands,NLD,0.10.1
1600,HzcDyYzCbf1mpLwxkKCGpHffELuqd2yS8XHaa1DNXWF,[2a01:4f8:c17:c4e4::2]:1789,Berlin,52.5167,13.3833,Germany,DEU,0.10.1
1602,8syNYNuJWAYAT76LxEBnjEHCL17p8Sp9vij7xrWzsANM,188.166.45.101:1789,Amsterdam,52.35,4.9166,Netherlands,NLD,0.10.1
1607,A81hGr2XgHSzvxeTPtoQxvQ51y4bAvTzGJxFf6HBuJLE,95.217.238.73:1789,Berlin,52.5167,13.3833,Germany,DEU,0.10.1
1608,EsCzFvtMZ7H86KL4d3fayfJbKvYUE5amT1fuDnqqdSmi,78.141.217.79:1789,Amsterdam,52.35,4.9166,Netherlands,NLD,0.10.1
1612,88nyCkqdqSvHQ847KC85KJtJVTAKpcbvUN2fMAGVBrhx,136.244.115.244:1789,Paris,48.8566,2.3522,France,FRA,0.10.1
1613,5dmQDm7q8m3r4BS77A2kyFcPURH94Xn4szN4JhGt3s8F,157.90.79.59:1789,Berlin,52.5167,13.3833,Germany,DEU,0.10.1
1614,FyPgfbECPzirmPJ1MSS6wmrfrLBYrwpTJaJ3Tixpocvs,[2a01:4f8:c17:2601::3]:1789,Amsterdam,52.35,4.9166,Netherlands,NLD,0.10.1
1616,HZUmCG9Kc6qEpaBwChWduiESQCN1eKVYSKgY24Q7jnac,209.145.52.155:1789,Falkenstein,50.4667,12.3667,Germany,DEU,0.10.1
1619,BfhvXq3k4jovDNe5w7mpjjBmUJjHUt5BQR5u4FqqbBnn,167.99.38.175:1789,Amsterdam,52.35,4.9166,Netherlands,NLD,0.10.1
1621,ETP6tEX3XG912wX93XLeYRC9wDoNumfoRVWSFvJK5B7e,165.227.173.179:1789,Frankfurt,50.1136,8.6797,Germany,DEU,0.10.1
1623,FCw8yso9tz3kyAMatPQJw5F5CCqEGbqmpNsK7ZVamjWZ,188.34.193.122:1789,Amsterdam,52.35,4.9166,Netherlands,NLD,0.10.1
1635,5jghk47J1zY8W6vT9TgimQiyyZ5hfAhvhyBv1ZBoKWFk,167.71.70.196:1789,Amsterdam,52.35,4.9166,Netherlands,NLD,0.10.1
1638,4UQwfPdypSZ7eE7jQgoTnBwsiGxFVBrCrFEfhzN5jkEc,188.166.29.87:1789,Amsterdam,52.35,4.9166,Netherlands,NLD,0.10.1
1639,FFr65sQMPacEHZc2mmyWwyhUP8Mo7hUWPS22jnvBWFfR,178.63.126.116:1789,Berlin,52.5167,13.3833,Germany,DEU,0.10.1
1645,Eng3vSbNtPYAx6rrUNaMP9ZhXoVMfoxrDfejJoanN4Te,213.136.88.180:1789,Frankfurt,50.1136,8.6797,Germany,DEU,0.10.1
1647,8kUWmAE1j5fPfUx5eeKSL7kemVTY7yMD6UK7tdSmjvdi,116.202.111.175:1789,Falkenstein,50.4667,12.3667,Germany,DEU,0.10.1
1661,7bKMkuy5SH4f3hfv7duLsRMmeFeRWCAZ7N5wb48TKxSY,45.77.62.226:1789,Paris,48.8566,2.3522,France,FRA,0.10.1
1662,CSjQWh1hEpgDDkuXhGYj2EdY5xeHe9wh77Pog7BoA3E5,178.18.252.251:1789,Munich,48.1372,11.5755,Germany,DEU,0.10.1
1665,3qGHoW9yEq5rvKd6ABB5ud8fwAQqiAPDEYuCZHE8Cu3x,209.250.245.137:1789,Amsterdam,52.35,4.9166,Netherlands,NLD,0.10.1
1667,9oEADb53NU7M3xwaMNYNrBQ2t7QgaoYvtkxATCM5vSKK,[2001:19f0:6c01:1069:5400:3ff:fe67:7a8a]:1789,Frankfurt,50.1136,8.6797,Germany,DEU,0.10.1
1670,8KtPDXFaptWJgZg4msmT5xU8iqgHeHnseHCPK5dNae4M,165.227.237.251:1789,London,51.5072,-0.1275,United Kingdom,GBR,0.10.1
1671,7j4zPQ7qBLrPk8vJtX5uVQ54cFGiQfiiVemfMbPWHoDF,128.199.40.93:1789,Amsterdam,52.35,4.9166,Netherlands,NLD,0.10.1
1673,8jBBzqZsKFN2YVNKUaanUYoxhghyCcXgvVgCfT7XLChL,75.119.151.47:1789,Munich,48.1372,11.5755,Germany,DEU,0.10.1
1674,ADuxdV2AawMDW99RNw5GZRnPqsiUynYj6a9ncgwu28eT,157.90.127.193:1789,Nuremberg,49.4528,11.0778,Germany,DEU,0.10.1
1676,8sBwxvcUFgSnFBpA4XwgJA7n4Qar3v3aHePqeA2MaPfr,188.166.51.63:1789,Amsterdam,52.35,4.9166,Netherlands,NLD,0.10.1
1679,GGGSd47LKebmX5vYtxQUex6TMyFs9tMahwDPDLDWJ5Qm,157.90.158.120:1789,Falkenstein,50.4667,12.3667,Germany,DEU,0.10.1
1682,H1tKStpfgTxJxRa8pxkTLsbDxoziUFmhPRZVD1s3rXWY,188.166.44.178:1789,Amsterdam,52.35,4.9166,Netherlands,NLD,0.10.1
1685,4A8sv7Rcv1HvTqMaYZNqzc7bYgTnhQyueenpgV6xmGdi,75.119.151.46:1789,Munich,48.1372,11.5755,Germany,DEU,0.10.1
1687,7x3aTUeC2VqucHaoRr5CAzAnfvUfotqDVbjvf7Du9kr,178.62.214.117:1789,Amsterdam,52.35,4.9166,Netherlands,NLD,0.10.1
1689,tfi6PpEGYzSzpBtXEdt1kDUwiPeHCiZ72XNfeeqWDQv,116.202.12.250:1789,Falkenstein,50.4667,12.3667,Germany,DEU,0.10.1
1696,FKnVG7536Qej5HHZL6ZSrDDv1rqfZAaw241kkGTNzM3M,159.89.191.2:1789,Amsterdam,52.35,4.9166,Netherlands,NLD,0.10.1
1698,Gwo6iuz4yLHEb4sJad6iQSkcHn1H33T8hBsgY9EPjCvV,185.92.220.90:1789,Amsterdam,52.35,4.9166,Netherlands,NLD,0.10.1
1704,5dFSmkZT677QfHhFW2PF32NtLVJMTNTNTkFkCL6XdKPw,217.69.2.38:1789,Paris,48.8566,2.3522,France,FRA,0.10.1
1705,JXb8MWSpu4wsEgNWFqY3KmQ8F83AfMoWzuSo27WLdgj,157.245.65.77:1789,Amsterdam,52.35,4.9166,Netherlands,NLD,0.10.1
1707,Hbyb8PJrc68cARam7Kv53Dx76TwMxWRipH5vhL7TfgfZ,135.181.101.253:1789,Berlin,52.5167,13.3833,Germany,DEU,0.10.1
1708,4CVHbEvivrvC5upW7CeAz7CKJDzUJjx4BbcBLfmZsXWG,165.22.192.238:1789,Amsterdam,52.35,4.9166,Netherlands,NLD,0.10.1
1709,FSoGvpxnQ9qpx9R9R3EiVwUGZa3pndLFincwRFqM6NHi,[2a01:4f9:c010:ddc9::9]:1789,Berlin,52.5167,13.3833,Germany,DEU,0.10.1
1710,GQJnjd1WcuotZtpDYKg4x6reMUQfFCUEpSRARbqbpTVD,136.244.118.90:1789,Paris,48.8566,2.3522,France,FRA,0.10.1
1714,Ea3LWxx2GTKGQEsXTNH8FbAKDd3gCjrPZ8BoGxtyZKsX,95.179.133.185:1789,Amsterdam,52.35,4.9166,Netherlands,NLD,0.10.1
1716,3TV3YWdSC2Ju1ExGpk98jhJcH3MEf86F74GVurUXjrbS,209.250.254.47:1789,Amsterdam,52.35,4.9166,Netherlands,NLD,0.10.1
1718,D1hBXocx5T5EyqVFGhh4ovHNFVhXiSjdQzCpXpwAEdrV,178.62.212.181:1789,Amsterdam,52.35,4.9166,Netherlands,NLD,0.10.1
1720,45srhwJG9wJZe6mEsf4343pceq8psPPhpgVHWu6jnjwo,78.47.73.76:1789,Nuremberg,49.4528,11.0778,Germany,DEU,0.10.1
1721,BNKafamCmuFKWSojWE4Py2oETgwCVB5ADsDQhsdDsvFc,178.18.252.248:1789,Munich,48.1372,11.5755,Germany,DEU,0.10.1
1722,MnWuWa5v9aj2rxqUahBNMxacDjpnsMpfnZBQBsJiF7G,172.99.190.189:1789,London,51.5072,-0.1275,United Kingdom,GBR,0.10.1
1725,Ew7CCaUUwFzDoXJrwAiTBvUST3jVZmBV3RibP8gWx2Mb,5.188.108.226:1789,Warsaw,52.2167,21.0333,Poland,POL,0.10.1
1727,ADTEZ8CMvcLRieBU5uVGojQAzK4MZdvmXGD8KY5LoU9o,162.55.47.183:1789,Falkenstein,50.4667,12.3667,Germany,DEU,0.10.1
1732,BESmeZCaZfrW5nN9oRJAsnmQLSknTjnPAQV6U7DkgFrH,159.65.192.8:1789,Amsterdam,52.35,4.9166,Netherlands,NLD,0.10.1
1736,79rwUN9qdRUJdqiQLdaKV1Xob4mwQZDiLJAgd2VBhBpu,209.250.248.92:1789,Amsterdam,52.35,4.9166,Netherlands,NLD,0.10.1
1738,FoCqMh4p2XLKoKA87pVAjVKj7Sp7CNUPKJhePYTNMmjM,188.40.243.158:1789,Berlin,52.5167,13.3833,Germany,DEU,0.10.1
1739,4YvneFSQGL7XzK7WoKSFLjP9HjkpT1AczfUeVvwkLWj4,[2a01:4f9:c010:82cf::10]:1789,Nuremberg,49.4528,11.0778,Germany,DEU,0.10.1
1742,GA21S36jJ8rAaiY7KMm358bMeyhMC2i29YMHziPFXaUr,134.122.53.6:1789,Amsterdam,52.35,4.9166,Netherlands,NLD,0.10.1
1744,AQvykRNdRU9V73Xq3dbC2NJ8xQNhvS62FcRB8E7moDP1,165.22.80.67:1789,Amsterdam,52.35,4.9166,Netherlands,NLD,0.10.1
1749,4FTAcfGsyFUnV9rpYWHfdRqSVaD679iSZXmAEA68soVj,207.180.249.85:1789,Amsterdam,52.35,4.9166,Netherlands,NLD,0.10.1
1753,ChjpRCt7VLPboVmtu3hSg8VVG5KebSZx3RxGXHcCbvFa,174.138.7.153:1789,Amsterdam,52.35,4.9166,Netherlands,NLD,0.10.1
1755,BAcwnoH5gHAHRHvvBWJKucCNkyPMENqg9M4drw2fnpVn,159.65.24.193:1789,London,51.5072,-0.1275,United Kingdom,GBR,0.10.1
1758,AkR5APcWm7Ffd2VEjfVD5s6chYNGbbPYd7JNvheUxCwf,[2a01:4f9:c010:b922::2]:1789,Nuremberg,49.4528,11.0778,Germany,DEU,0.10.1
1762,E2w5KP1nBCGvnmyHExHJw3nuurwTer4wcD7RVCLmvxXp,162.55.38.28:1789,Falkenstein,50.4667,12.3667,Germany,DEU,0.10.1
1766,9PD5d4ew37cMXSHpXxb9yJMuQivZkRh42svmMXZwa79h,167.172.34.27:1789,Amsterdam,52.35,4.9166,Netherlands,NLD,0.10.1
1770,6zUtgxkfZWdf9Z36mzyWSaMyqn2W34sc2ej27QcNAN6r,68.183.11.20:1789,Amsterdam,52.35,4.9166,Netherlands,NLD,0.10.1
1772,Ei4pMRRfUw2t3fCK5fVbuB8ZdgFtKk59ecZNE7zYDkxK,75.119.150.40:1789,Munich,48.1372,11.5755,Germany,DEU,0.10.1
1774,9zekzqKHFVc6e4d5h9EernoiERNGVk5MyeNJKLmLFFS4,188.34.193.141:1789,Nuremberg,49.4528,11.0778,Germany,DEU,0.10.1
1775,Bp4t9y8TNo9LdMfJunsa8BaejWgdDt3FLEPADFpWQBG,95.179.166.207:1789,Frankfurt,50.1136,8.6797,Germany,DEU,0.10.1
1779,GubBpG9DJC7jaKrdUGobG1nxYbW9kzMUZ3HhEYoRfdYQ,165.227.170.98:1789,Frankfurt,50.1136,8.6797,Germany,DEU,0.10.1
1780,8VVYR6hcDcq9zwYSfmWMrzA1qDdakuvxgtD5uTFe65vi,161.35.144.95:1789,Amsterdam,52.35,4.9166,Netherlands,NLD,0.10.1
1781,8eJay7AyXSb4rmbzwdnmzhraeN1CnANGFxk5XF5PDMZd,195.201.118.93:1789,Nuremberg,49.4528,11.0778,Germany,DEU,0.10.1
1784,FY7FZNmsL6Ayed6BKD2ep2W15nyRQDUBr2N4tSUaJyLD,178.62.89.95:1789,London,51.5072,-0.1275,United Kingdom,GBR,0.10.1
1786,2NhT6FJHrt9NhFEs4dzdozfbWBog9JPx4tR8NdJVaHmz,[2a01:4f8:c17:1015::7]:1789,Frankfurt,50.1136,8.6797,Germany,DEU,0.10.1
1790,BJHMyqGmUgvUpp3Y2MdcHUYJfZsmC7bBJKzXEBBbKr9v,128.199.50.208:1789,Amsterdam,52.35,4.9166,Netherlands,NLD,0.10.1
1791,7EjGg13QsfRTTZF55gM1HSfqYnPdoKcd9gFAu2pfVAWv,168.119.224.105:1789,Nuremberg,49.4528,11.0778,Germany,DEU,0.10.1
1793,DnEDCpvBENb7aVBw8Qd4U9xB2AFC6sC5xg1xG3seTfNc,162.55.179.183:1789,Nuremberg,49.4528,11.0778,Germany,DEU,0.10.1
1795,6DC5hCRCNcoWZHifRYqEDNGVroJiz4TxxWNGQsk4t6SC,95.179.254.8:1789,Frankfurt,50.1136,8.6797,Germany,DEU,0.10.1
1797,2DKp6J3m7vcbnRoevLDjnGwVz3YMfFH4i5g3jeF7L2Sj,146.56.161.115:1789,London,51.5072,-0.1275,United Kingdom,GBR,0.10.1
1801,3Td3XB8C4ZHAua2PXoknhc5aCnVpXKUDtqQJK8R3XX4A,78.141.200.223:1789,London,51.5072,-0.1275,United Kingdom,GBR,0.10.1
1803,2g5cbBRd5dh2AyHKABk6AqR6PQ6dUwD3KYpXiWekyEwJ,[2a01:4f8:c0c:6464::3]:1789,Nuremberg,49.4528,11.0778,Germany,DEU,0.10.1
1804,Cp2pn1gyq7Fn76cP23Dt9Zp9thcEDZCtViRkTUqqbYpN,188.166.33.175:1789,Amsterdam,52.35,4.9166,Netherlands,NLD,0.10.1
1807,HKvE7hkh2kms1byMyr7vLtj67daLmfV8kt71YUEJJyv5,[2a01:4f8:c0c:6464::1]:1789,Nuremberg,49.4528,11.0778,Germany,DEU,0.10.1
1808,AHjSjgYNdjtNi8qTdR5RuDYJsVFYxbqda9wmBkHv9HRr,199.247.16.58:1789,Frankfurt,50.1136,8.6797,Germany,DEU,0.10.1
1810,EAT9gTQtwoioj4xDyUMxhe61yRbdLHyXNgzqau92oy57,194.163.131.128:1789,Düsseldorf,51.2311,6.7724,Germany,DEU,0.10.1
1813,AWeQNq9xeL2jVLrVZ6K8DXUsHFA5JWREhdVENmnrG5mC,217.69.15.172:1789,Paris,48.8566,2.3522,France,FRA,0.10.1
1815,2mYVJ9TVu3ZaLiNxPXuvTWZThg64GPcYKJdxwDgxdAZT,78.46.194.209:1789,Falkenstein,50.4667,12.3667,Germany,DEU,0.10.1
1819,4GAMAUQ3kUwCCK773483JJSTdDRjbdrWDo2mZYhFWyFk,[2a01:4f9:c010:6912::14]:1789,Toulouse,43.6045,1.444,France,FRA,0.10.1
1820,D2RniUp1yB842rnDRXuntxrEfkLiEXoYTHfmgV69tANs,192.248.178.217:1789,Frankfurt,50.1136,8.6797,Germany,DEU,0.10.1
1821,8bn6eYh853mS65W2H3D2sjbKyuouAGHURnZ9b8f5KPPs,199.247.6.215:1789,Frankfurt,50.1136,8.6797,Germany,DEU,0.10.1
1824,9ednsCeAYqdmFUKFE1sTeTA4RSySH1gTVfVY69M3TiTa,157.245.72.39:1789,Amsterdam,52.35,4.9166,Netherlands,NLD,0.10.1
1825,2nsZPEatHmi2VeA4sWBRKFcRzdCNFg1iEc3jcLxSG3Gx,95.111.251.126:1789,Munich,48.1372,11.5755,Germany,DEU,0.10.1
1826,HpapdigwMsmpdHAufZ1VnQvH4SeoAMoG4nhbJ9fK9kMC,192.53.123.99:1789,Amsterdam,52.35,4.9166,Netherlands,NLD,0.10.1
1831,4JCa5CRPN9TVoi99odADzdheDmiyocBQFdQcwfnKvYf6,159.89.15.166:1789,Frankfurt,50.1136,8.6797,Germany,DEU,0.10.1
1832,8w3CzgebWijpBgMVpPGRaFPaNQHy7yajiQbNVzQRL194,161.35.18.91:1789,Frankfurt,50.1136,8.6797,Germany,DEU,0.10.1
1833,BTSMaSzrHutf4bkvLYqFKd9RGbdYs1P6zpHt7EwBDtUe,5.188.93.248:1789,Paris,48.8566,2.3522,France,FRA,0.10.1
1840,DFkZyhbZnDp3UVsjGbtLFJ4pq4HCKa4JeZRHY4Lt4UN2,159.69.125.255:1789,Falkenstein,50.4667,12.3667,Germany,DEU,0.10.1
1842,5aq3bq4MQxJjxE5KP5qhGM1ePVBcsb3bk544yjJUsijp,78.141.214.137:1789,Amsterdam,52.35,4.9166,Netherlands,NLD,0.10.1
1846,6JBGLYNwTiCxNMumSDWXEQxcDoHUjp15iSdH8c1mBBhJ,[2600:3c02::f03c:92ff:fef8:4e96]:1789,Frankfurt,50.1136,8.6797,Germany,DEU,0.10.1
1857,5vEd6QBFdc4osKD3N2ohXwy2b8oSzbrEME14B3DWx83F,188.166.59.5:1789,Amsterdam,52.35,4.9166,Netherlands,NLD,0.10.1
1858,EC5MvPzC6ZRvdEEJVKamMjxzmMtsmzUVEhDYJEBzbCpB,157.90.122.209:1789,Nuremberg,49.4528,11.0778,Germany,DEU,0.10.1
1863,D48H6wV6KucKYmmmriu2Su4w8QHs7BTpWgw7LtvX4jGN,134.209.254.216:1789,Frankfurt,50.1136,8.6797,Germany,DEU,0.10.1
1864,7xJjiMom6i8KbX7g8toekYAXL7K6Ndztny8axqqnhiKB,45.77.136.174:1789,Amsterdam,52.35,4.9166,Netherlands,NLD,0.10.1
1867,A3wmkCvF8DsKo1sELF4z2LJeY42NCsrRW66peRyZNQgL,167.71.75.2:1789,Amsterdam,52.35,4.9166,Netherlands,NLD,0.10.1
1870,2eAdYGCjv5CRMeK2kd6D83ynRo66wwirGDRrpsZp92XM,64.227.79.51:1789,Amsterdam,52.35,4.9166,Netherlands,NLD,0.10.1
1871,3uo5uD8w1XyAbvX5L2W6Bcj9BCpySo1eXri1xMhHUSXp,[2001:19f0:6c01:2f69:5400:3ff:fe67:a578]:1789,Frankfurt,50.1136,8.6797,Germany,DEU,0.10.1
1872,Fz9dWBq2P6rBEhxtJo34zLqkh52ckNFR3HktvmK88RFz,162.55.162.118:1789,Falkenstein,50.4667,12.3667,Germany,DEU,0.10.1
1873,3QSe8nKXfPzLcXFU1RYHfoihtyZNhdN5siCikrPkWcYK,[2a01:4f8:c17:ed4a::1]:1789,Falkenstein,50.4667,12.3667,Germany,DEU,0.10.1
1874,HHskZy3XCcnGoAXLKawuiz3egkLRERFyB6dpKYL86ZZU,157.90.148.32:1789,Falkenstein,50.4667,12.3667,Germany,DEU,0.10.1
1878,4wFC8R3ci6iaR7F5RmKTffnxNFQx8BcLvmhFqcWGTMPU,78.47.17.216:1789,Nuremberg,49.4528,11.0778,Germany,DEU,0.10.1
1884,dJAmmzrRG68mgvZr4125sCuXZRJ6HtAtJyGgjgGJxmi,78.46.145.86:1789,Falkenstein,50.4667,12.3667,Germany,DEU,0.10.1
1885,C39N4aMftbhhkHBBfEYnp8Cf7K54BXfy8xvjAG6NEEXY,116.202.20.44:1789,Falkenstein,50.4667,12.3667,Germany,DEU,0.10.1
1886,GUB7PKiVK7c7zpjuBSr3HMs4UdEPGhuEEJiQ6SgQCPtu,45.32.155.140:1789,Frankfurt,50.1136,8.6797,Germany,DEU,0.10.1
1888,EwGUzA1VH4bnrUSNEWGX4g4dibPgBEKfDKux3PtrLQVK,178.62.253.201:1789,Amsterdam,52.35,4.9166,Netherlands,NLD,0.10.1
1891,9H5GD2f4krT41wc6gCQkciTT6xjch2vuVPNUfrjuvJob,178.18.242.154:1789,Berlin,52.5167,13.3833,Germany,DEU,0.10.1
1893,Ag6arCcNEC2SP4dCHDdgEo5jvLeKgDhZ5BspiJpEpuFZ,159.65.28.95:1789,London,51.5072,-0.1275,United Kingdom,GBR,0.10.1
1894,6hPHCywgEiMV6E8TvxEznkPdRj4m76Fep9NPFbXJFoSi,49.12.77.10:1789,Falkenstein,50.4667,12.3667,Germany,DEU,0.10.1
1898,Fmi8pGpQZNHdBw8wbjjHbmQrGV8PR7jzVkFRqe4TJBFC,167.99.218.220:1789,Amsterdam,52.35,4.9166,Netherlands,NLD,0.10.1
1899,AiMJ7dyaauGQu3TiZAMHHsiJRLQjCbJNYNxLSbmBdDju,165.227.129.159:1789,Frankfurt,50.1136,8.6797,Germany,DEU,0.10.1
1900,BwM4UHuVYCe3XG9ZmUFdExxnHs8QykAwLnkHrNQ3KXkc,13.36.172.44:1789,Paris,48.8566,2.3522,France,FRA,0.10.1
1905,EHtb4No99VLd7JyrNRjydKQ3CVnmfvYZFqZwxXd9VZdV,80.240.25.243:1789,Frankfurt,50.1136,8.6797,Germany,DEU,0.10.1
1908,3ouFSa4p9qSnGkCMJnSAm81Q3UdwEQWZDZQDhEybR3zv,95.179.160.70:1789,Frankfurt,50.1136,8.6797,Germany,DEU,0.10.1
1916,DhqYr2sEZ4a4ceQFELuaJmgst1LTKgjhszQyzvCssXRi,78.141.217.141:1789,Amsterdam,52.35,4.9166,Netherlands,NLD,0.10.1
1918,EZQuZatr7apWAKWKdqmv5KrbzRJQQxbLwCwrmkKAERCC,188.166.43.216:1789,Amsterdam,52.35,4.9166,Netherlands,NLD,0.10.1
1919,6a25N3nY7xE6cQmiBrZzoeC3r9v8ivuu2mDSbbxfQtbU,[2a01:4f9:c010:8f92::10]:1789,Berlin,52.5167,13.3833,Germany,DEU,0.10.1
1921,BxUAKAyTr7d2qwWqLEWrFxZUuKEPpwLuBHAWf6QDbqfc,45.32.235.47:1789,Amsterdam,52.35,4.9166,Netherlands,NLD,0.10.1
1923,HDepzZjxhX1mBzDj4dcdi2wpKHgW3hgvS7PZ1cp1FiH1,157.90.246.239:1789,Falkenstein,50.4667,12.3667,Germany,DEU,0.10.1
1924,4gz1UpfMHGuur5MfU5138rfnpo6vaF1Mhh8gQ1FMiXd4,[2001:19f0:6c01:1b8b:5400:3ff:fe65:611d]:1789,Frankfurt,50.1136,8.6797,Germany,DEU,0.10.1
1925,EacybDnsohVCRRezDZVsTJXmhHEGW9Vczn7oKHMosYyr,142.93.137.57:1789,Amsterdam,52.35,4.9166,Netherlands,NLD,0.10.1
1928,FYwcwx4RpSTebQSUaVbZDwMmx1NzwaJBYt3x6CE6aqxR,68.183.8.167:1789,Amsterdam,52.35,4.9166,Netherlands,NLD,0.10.1
1930,5z16m8xc7B9NrHBuSctsZQLrEBUq9zonSj1PTK4vcG2t,167.172.168.119:1789,Frankfurt,50.1136,8.6797,Germany,DEU,0.10.1
1931,AXR8a6ofZQgxswFJDYH96JUfcRuLMo3ZcjYaJZd6VDca,134.209.83.113:1789,Amsterdam,52.35,4.9166,Netherlands,NLD,0.10.1
1934,H52jhgrqXHdVxESSEZrbQM5g7iZR9LrRCdT568GTABhS,78.47.14.50:1789,Nuremberg,49.4528,11.0778,Germany,DEU,0.10.1
1941,3vSv7nAH5Kio8D4KUZaE7UduWRY3xk1QppxERVQji1eV,173.249.5.56:1789,Nuremberg,49.4528,11.0778,Germany,DEU,0.10.1
1946,8rEaE1dNwShqsAWg7DLhjPxgF9WbGbatE1f61EPPG3Gn,68.183.5.94:1789,Amsterdam,52.35,4.9166,Netherlands,NLD,0.10.1
1950,2ebrTMXDD5DLfQ2hDit84nuVLEJdtE8qsQExS3jVzuhy,192.248.190.242:1789,Frankfurt,50.1136,8.6797,Germany,DEU,0.10.1
1952,G5uVsntDq8oxomP2EqkFkd9Jir8dZojPUwNJ6fzu93XT,192.46.223.154:1789,Nuremberg,49.4528,11.0778,Germany,DEU,0.10.1
1958,2tkva9AekSJ79xWzKgWkoZ7QZ13mNDagVCbBE4YKQmLT,[2a01:4f9:c010:82cf::13]:1789,Nuremberg,49.4528,11.0778,Germany,DEU,0.10.1
1959,ETWfLT4guJ7iamLWCztg7MpVL6G7MyxYSzGxkeYCuZeU,134.122.74.103:1789,Frankfurt,50.1136,8.6797,Germany,DEU,0.10.1
1960,E8LV1WaSefGVtVeQTr3M48irM1kG4F1ZDB66AEdfd8qf,104.248.89.73:1789,Amsterdam,52.35,4.9166,Netherlands,NLD,0.10.1
1969,Cr3zw3FcL4heRg7LqyahunzP6XfxZY2No85bTWpxHsdD,188.166.22.247:1789,Amsterdam,52.35,4.9166,Netherlands,NLD,0.10.1
1972,CjSEYup4hJuRgvXk2v7vei2Z2rJJ3zULxvvWny162BHA,159.65.205.231:1789,Amsterdam,52.35,4.9166,Netherlands,NLD,0.10.1
1973,HaGV8TDGYmajD7PoQ89nmfVCF4gWAAcvHPSyqL4Tzd53,188.166.32.83:1789,Amsterdam,52.35,4.9166,Netherlands,NLD,0.10.1
1982,75p7tBkLsbHLEVLc1bNG4FL4gsF6v21e1tHtho1k2ZH1,139.177.194.110:1789,Amsterdam,52.35,4.9166,Netherlands,NLD,0.10.1
1987,FKaYZpaPEEi9dat3RVjGgMwe94eRoWaLT6dZ3S5mnPnS,80.240.20.110:1789,Frankfurt,50.1136,8.6797,Germany,DEU,0.10.1
1988,CBPGMfpRcEcf1pbcPG47C9Hy9rZzHv8Ctm8LLoYuCARs,64.225.65.191:1789,Amsterdam,52.35,4.9166,Netherlands,NLD,0.10.1
1989,EuZZAUUErA9wmH5kz7BCWEVtgrshrzzsohNC2ZBvtvPa,95.179.241.184:1789,Frankfurt,50.1136,8.6797,Germany,DEU,0.10.1
1991,3YY32VSBWiMxfC2r8Yq4ta2PC1tGk5sj4s2LJXq5eEeW,64.227.76.86:1789,Amsterdam,52.35,4.9166,Netherlands,NLD,0.10.1
1993,BHCWD6er3rPAoakPBPNkshqyBys6gFBaZjVddcdBn2aj,104.248.198.236:1789,Amsterdam,52.35,4.9166,Netherlands,NLD,0.10.1
1994,25PNv4SzzpAiLDVdHAhgnnyf81pPc4mLjAUn4KhwwAyv,78.47.35.145:1789,Nuremberg,49.4528,11.0778,Germany,DEU,0.10.1
1997,FkDSHTiHFyqTUAFSpQs6uok1Lzck6J5YvLRDSMX2vTF4,188.166.13.4:1789,Amsterdam,52.35,4.9166,Netherlands,NLD,0.10.1
1999,7ki6JY1Y8WRZYTgoTmP9xddAFDBe4q12Zi2Ua7XtawQp,134.209.91.219:1789,Amsterdam,52.35,4.9166,Netherlands,NLD,0.10.1
2002,8nTwMdkv56YozqkJMMnJpr7fuP3uMBZLJxLpdSVxeneh,45.76.82.145:1789,Frankfurt,50.1136,8.6797,Germany,DEU,0.10.1
2005,2NoJqo21dHL4Khaqpy7Hvq15KChj6mJTdbuuBLLUhQUU,89.163.217.51:1789,Düsseldorf,51.2311,6.7724,Germany,DEU,0.10.1
2007,9scSMyZrKAEN6iGABhQLC9UPrkTEKjRMLphBezQEvogT,116.203.134.248:1789,Nuremberg,49.4528,11.0778,Germany,DEU,0.10.1
2008,ASzbhWodo1WuieEjveYphbL8RPoWcJmsAP5Ez8kuEwf,[2a01:4f9:c010:ddc9::10]:1789,Berlin,52.5167,13.3833,Germany,DEU,0.10.1
2010,8wFzY6aDMZBy77cDstdeRFCWoy1VBMjUP6EDgjMdCi39,165.227.226.236:1789,Frankfurt,50.1136,8.6797,Germany,DEU,0.10.1
2011,7FYW3TJbuH6VWz3PyCHMkGfzN3oiGWSfxKkZjcgR7ywy,167.99.214.149:1789,Amsterdam,52.35,4.9166,Netherlands,NLD,0.10.1
2015,3LzkoeX57hVzBqPHfHtqaw7brmEFakKhVmmEPjX5dgNn,178.18.252.245:1789,Munich,48.1372,11.5755,Germany,DEU,0.10.1
2019,Gz39GWiN3q7o4jiifZpXEUGnmThrb1dzXZh4sPXTHmqu,188.166.173.1:1789,London,51.5072,-0.1275,United Kingdom,GBR,0.10.1
2021,AtNxHcNCKgLre3ff3KhhJohJyQFMo98BNrGG9Jqdyr1s,161.97.97.126:1789,Nuremberg,49.4528,11.0778,Germany,DEU,0.10.1
2025,4HmxLavCXHsyUwXLMqLdhsqKTkQrWiBR31m43xcM6zFT,157.90.235.130:1789,Nuremberg,49.4528,11.0778,Germany,DEU,0.10.1
2029,7cJaGdFuX7onQL9uLuAYNZFMVR5Fz7kW2qCWimedzu7c,178.18.253.33:1789,Munich,48.1372,11.5755,Germany,DEU,0.10.1
2031,8raBJoU9dT7j7hm84ihPxLwWQocDnKAFhT9RjG6gr6X5,161.35.219.47:1789,Frankfurt,50.1136,8.6797,Germany,DEU,0.10.1
2033,148sYydraGZtp8at6Yr6pWpJfKvQAVyNrdQMrbFUDvC2,75.119.151.140:1789,Munich,48.1372,11.5755,Germany,DEU,0.10.1
2035,JcGy3JmhCmL8q9cqiUdECw7Z4T35i5TjvfFQhTs951K,49.12.106.139:1789,Falkenstein,50.4667,12.3667,Germany,DEU,0.10.1
2036,6xkKDAqKh7iuJhVc74Hg5Gs15siTgspxYeePb6fZod7i,104.248.95.14:1789,Amsterdam,52.35,4.9166,Netherlands,NLD,0.10.1
2043,92XzNkFgzas2ngY5n65VEfsMQQhoyiqdmJyByYrtupBC,62.171.152.67:1789,Munich,48.1372,11.5755,Germany,DEU,0.10.1
2044,GRjuXoscv1XMzMpcJAwJyXqVed6RXafNwTTxL2uCUnE8,199.247.17.50:1789,Frankfurt,50.1136,8.6797,Germany,DEU,0.10.1
2051,4hbJ4MNquWnrwKdSguAR4NbwnFciuTyenuh93NSpHT9P,108.61.197.182:1789,London,51.5072,-0.1275,United Kingdom,GBR,0.10.1
2052,3KQLUzE3PLPcbs5wLYDeDKuRXZDyhrGumgpKirAFfoDv,95.179.166.153:1789,Frankfurt,50.1136,8.6797,Germany,DEU,0.10.1
2063,GHZa37mspUXUH7Ph7YM2bsEgQBiuw4Ugo9P5rSXHEn5F,46.101.195.106:1789,Frankfurt,50.1136,8.6797,Germany,DEU,0.10.1
2064,GrdYmSNDqGGSBv49GwQAeZK6PbYxpAVH339eYDTV7rYJ,45.76.47.3:1789,Paris,48.8566,2.3522,France,FRA,0.10.1
2066,5GVpr35XXZapuipgNJF9FTMXzsJH4UU6nz8zahktUtAs,178.62.240.154:1789,Amsterdam,52.35,4.9166,Netherlands,NLD,0.10.1
2067,7rTJFYrLgg6AUxM96KfYW99U8bQEcRsYRHrvwWGUNTaQ,178.18.252.254:1789,Munich,48.1372,11.5755,Germany,DEU,0.10.1
2070,7QUEYSYjv7cHKnsXZG9qdJDVYysbnAyeTBtNwkKrVh6g,178.128.248.182:1789,Amsterdam,52.35,4.9166,Netherlands,NLD,0.10.1
2071,Hf6bNVg7hVV6zGxAbmKmyqM8qdPjGEPYiKKcHnnbz1Tj,46.101.114.36:1789,Frankfurt,50.1136,8.6797,Germany,DEU,0.10.1
2075,ACnyZaoJ24jSvaV1Ns5YrGLj1tX8WV4VHSRBxXGCBmt7,174.138.3.6:1789,Amsterdam,52.35,4.9166,Netherlands,NLD,0.10.1
2076,ALPs3YAF1HWbB9T9yZnz3aTxRrArrdyd3ADKBLBkiZjK,134.122.60.35:1789,Amsterdam,52.35,4.9166,Netherlands,NLD,0.10.1
2085,9LySnc7uWrvnN2wX2NBo38G4Q4nx7xLDr93BS5fVMbZ7,89.163.134.88:1789,Hamburg,53.55,10.0,Germany,DEU,0.10.1
2091,3Pk1pUzs5CT7mVsCowmsBY4N5uSSpaDyzmGG19sBRLUE,178.18.253.39:1789,Munich,48.1372,11.5755,Germany,DEU,0.10.1
2093,EcB4mzr59p69TK65sbRTi2dnsrbmLQt4qLjiUKSszzhp,162.55.180.207:1789,Nuremberg,49.4528,11.0778,Germany,DEU,0.10.1
2094,95bNWc4acvWKy8M74gYg7VnDmmT1WtPmK6wiUgCczMVP,45.77.60.235:1789,Paris,48.8566,2.3522,France,FRA,0.10.1
2096,5srcwSsPKp4avq1RATiu1wwtR4SGKwWN9jxxB7vojgqf,188.166.59.130:1789,Amsterdam,52.35,4.9166,Netherlands,NLD,0.10.1
2097,429HyVrhhebCBSC2sdJathTLy6kQHqrNqEVuh9aN2ChA,188.166.22.228:1789,Amsterdam,52.35,4.9166,Netherlands,NLD,0.10.1
2099,7yk2mK27EGEfiE3XV82cC7i3nBFfNfY1XwmxXhZs7DrP,167.71.72.43:1789,Amsterdam,52.35,4.9166,Netherlands,NLD,0.10.1
2100,GZYsMwKuzx9UZDWSJV24Drw97wBvhQV4z93RGK1RTjsp,159.65.25.231:1789,London,51.5072,-0.1275,United Kingdom,GBR,0.10.1
2102,28FPoQjmAfo5aCqyNdwUB59z1XZtoGwv9uqDoPn6qrBV,178.63.126.117:1789,Berlin,52.5167,13.3833,Germany,DEU,0.10.1
2103,FX8S5FpgxAALZ1pabvWhuy53PGVBQGjcv9rWtKyxf4en,157.90.79.58:1789,Berlin,52.5167,13.3833,Germany,DEU,0.10.1
2107,HALgLw3HjF2qpUrvbFYTn3qQSs4orD8go8GSP1f1yV4x,134.209.195.215:1789,Amsterdam,52.35,4.9166,Netherlands,NLD,0.10.1
2108,7Rp7jtmJNAyVkCsbmByxgtMYTyCp48wW2WuorUWwrzB8,139.59.176.252:1789,London,51.5072,-0.1275,United Kingdom,GBR,0.10.1
2110,2FkZP3JFKEeGgreMgCmn7x3DYF3Z7dhnsqHVjL4oxxUV,139.177.195.17:1789,Toulouse,43.6045,1.444,France,FRA,0.10.1
2113,7QLQAcTCpBQq7EZwd8dmCuVEJPeJ2PdesdQtnfFqcqk3,136.244.88.231:1789,Frankfurt,50.1136,8.6797,Germany,DEU,0.10.1
2114,EMyx4vfPfgnCkCwMuCWC5LU6DgkqQeZHdPEvwi77GdQy,159.65.93.45:1789,London,51.5072,-0.1275,United Kingdom,GBR,0.10.1
2115,9yMaRSUc5pdZnfT4thKzou6vjvkizmsgzDA2DGncPbLE,157.245.75.23:1789,Amsterdam,52.35,4.9166,Netherlands,NLD,0.10.1
2118,CoadWUxyhAcLFDoMBNZRsUh5FkVACUQVwFywccgpvMps,161.97.151.106:1789,Munich,48.1372,11.5755,Germany,DEU,0.10.1
2120,G6HeL1aGY8gfP4aXw76bPn4WmFdxi5ZdWBXdvBWbPKS9,192.248.187.90:1789,Frankfurt,50.1136,8.6797,Germany,DEU,0.10.1
2123,5mEZByWYpQ2ychMBW57yip44ZxqDW7DHtPbXvtpMmNLD,168.119.180.93:1789,Falkenstein,50.4667,12.3667,Germany,DEU,0.10.1
2124,2ubGxh9kanCeBp2nRCLCDWaNYCxWZi45sjRPd7zp916o,167.71.78.130:1789,Amsterdam,52.35,4.9166,Netherlands,NLD,0.10.1
2129,5tJM6YVULp7kj7vmoJZ6vh6ruAPFVgM9gA1k16v4UX4L,161.35.147.230:1789,Amsterdam,52.35,4.9166,Netherlands,NLD,0.10.1
2130,EagaKDaEqxLoXksqP8ZKiFHLg2RvfgZFMgxWYUHGZUtQ,178.128.251.7:1789,Amsterdam,52.35,4.9166,Netherlands,NLD,0.10.1
2135,Ewm9DJ19pfB3TRxZLgbacLidVmktucKnxCYyGNDfF2r8,159.65.29.189:1789,London,51.5072,-0.1275,United Kingdom,GBR,0.10.1
2140,4DJN1bzT7DcHUBKv8FhRh4L6iCm7emXWdSekcKh6vt7f,93.186.194.84:1789,Düsseldorf,51.2311,6.7724,Germany,DEU,0.10.1
2141,ACNdYmefM8L35gqRJxmziHUE5scSkR8acnsysFub75sV,149.28.65.38:1789,Nuremberg,49.4528,11.0778,Germany,DEU,0.10.1
2142,DJZmmgBGGHErEB2ZfuSZnYPhTVvkWkmVaLEM6LMTN8po,95.179.191.50:1789,Amsterdam,52.35,4.9166,Netherlands,NLD,0.10.1
2145,2cvcFKPnsS5hTjMX6o9VMuAuXsvsfnFgSARCSf7haxnp,128.199.33.175:1789,Amsterdam,52.35,4.9166,Netherlands,NLD,0.10.1
2148,A3XNk4DfBV2iPrxAB7xndPWxAEFqTPm4AgyN2pEwYkVd,65.21.5.81:1789,Falkenstein,50.4667,12.3667,Germany,DEU,0.10.1
2151,nSZvyBz3hKUAYDP6PPq5m3znRtHL7CAfXYfpAt7gd1S,157.90.224.83:1789,Nuremberg,49.4528,11.0778,Germany,DEU,0.10.1
2153,F7SQ68moH52sedPMthmg9H6TM23emG4D42vWhTY8W5sm,45.32.154.27:1789,Frankfurt,50.1136,8.6797,Germany,DEU,0.10.1
2156,BoCCZn2UtZ3ni4RodENw5MkhQF9Hha7X8xvy2MRYo6ZX,45.63.43.90:1789,Amsterdam,52.35,4.9166,Netherlands,NLD,0.10.1
2161,2z2B6s2RRbhC7WJSAd1zbyiihUMZwf58vdqHyWLd2aMe,64.227.73.204:1789,Amsterdam,52.35,4.9166,Netherlands,NLD,0.10.1
2165,BcK1e3BTybYiU68aScsx4M3qUG291rg8T8EXoatp7DC7,168.119.240.226:1789,Falkenstein,50.4667,12.3667,Germany,DEU,0.10.1
2167,59ki8a5M4bEA4gczXoS7rYpQVvkZyV8ZBSZh8mr8Cy8a,[2a01:4f8:c17:ed4a::2]:1789,Berlin,52.5167,13.3833,Germany,DEU,0.10.1
2170,5QCPMb22hMsR53QQRiYhJRAggbamRQnCAwMjxxbJqnho,188.166.105.33:1789,Amsterdam,52.35,4.9166,Netherlands,NLD,0.10.1
2171,7gce7nZUa8wSY2UtcLfeMMP9AAcNK1thpnzusTrxf5FD,128.199.38.244:1789,Amsterdam,52.35,4.9166,Netherlands,NLD,0.10.1
2173,HgGXxQUYxzNamQ733fZNmhWA5GP1aDZxmPwWNNs6tqhg,209.250.251.128:1789,Amsterdam,52.35,4.9166,Netherlands,NLD,0.10.1
2175,FtYpVFR8LLjxDkCQQBLTVsGWiaCJJuHKAQr7MQPbxe6z,65.21.59.57:1789,Kyiv,50.45,30.5236,Ukraine,UKR,0.10.1
2177,7vdZAMLWF1yQj1QEoXtMUzM5XwHQp7XR2SwMnQuj5Yax,45.63.116.166:1789,Frankfurt,50.1136,8.6797,Germany,DEU,0.10.1
2181,9XgQHbHMfkQ6cJvUUPmA6NmfH4fuYcM9ZGBzbBfMJ1X5,142.93.226.165:1789,Amsterdam,52.35,4.9166,Netherlands,NLD,0.10.1
2191,BrV67Rp6hDkzuEQXABvmxBbq3yZPDBRXiesXXHVUP9Td,143.198.231.204:1789,London,51.5072,-0.1275,United Kingdom,GBR,0.10.1
2195,5XSo7bG7VQuo2DW3QqNB5ojCsdKYjpEnvBZ9e4LHPFcK,[2a01:4f8:c17:d55a::16]:1789,Nuremberg,49.4528,11.0778,Germany,DEU,0.10.1
2198,CxERH9Y3K6vHCY2itwPw6vpQF29pcGf6SJwmPy5G6eyt,46.101.49.16:1789,London,51.5072,-0.1275,United Kingdom,GBR,0.10.1
2200,6jKvF5f2iSCVoX8wxDN7NmrrNFnJ4ZeRef7TDMmNHSWv,64.227.71.138:1789,Amsterdam,52.35,4.9166,Netherlands,NLD,0.10.1
2201,APbLgEmVTsE3PzprE513om5kva91FyZvqZXMdVvEjXzx,167.99.215.107:1789,Amsterdam,52.35,4.9166,Netherlands,NLD,0.10.1
2202,3wbvb6snDfXscqNLVAoquEhHPiHvPyJMHEcw8VEnuXz1,134.122.66.134:1789,Frankfurt,50.1136,8.6797,Germany,DEU,0.10.1
2204,qZWE8VRivnPmhzcJVMoieZMcD5z5P5DUo77aeg1yYgr,45.14.50.3:1789,Amsterdam,52.35,4.9166,Netherlands,NLD,0.10.1
2207,3WanJqtBU8tnxzkfY9Wa5r2opQdS6tUvx56m4Qg2hw8L,159.65.27.24:1789,London,51.5072,-0.1275,United Kingdom,GBR,0.10.1
2208,HwQCXQdHbtLzAngFpC5Ao8AszQhCAxBADabCyCJGjKLE,136.244.100.195:1789,Amsterdam,52.35,4.9166,Netherlands,NLD,0.10.1
2210,E8toKdjyQpf4riTgGewkhtFbqbpBGhggUv21ELeJ3BNm,161.35.94.47:1789,Amsterdam,52.35,4.9166,Netherlands,NLD,0.10.1
2214,33MhgGowSKnavKvJ3GfCdcsXqzEJJcQm2CuquDdbFLsQ,161.97.159.29:1789,Munich,48.1372,11.5755,Germany,DEU,0.10.1
2215,G91q1HXr5DVvhS7ZyTvT2dhkbyyfrXQ6FPEBroegJKYX,[2a01:4f9:c010:8ef8::7]:1789,Berlin,52.5167,13.3833,Germany,DEU,0.10.1
2216,5FtKZ4gjxPBmvBMcuKDNmtvMGbHYMnUgyZ9tV2KudBdo,138.201.156.198:1789,Falkenstein,50.4667,12.3667,Germany,DEU,0.10.1
2221,Dau6tEAuqF5wc3n2neQmZArjRpk9o48GaNLNexdewDSc,188.166.44.138:1789,Amsterdam,52.35,4.9166,Netherlands,NLD,0.10.1
2222,21hyNx8TdXDLJLvRM4X82CS2SBpAmHKBZYP2zQ2BV88c,159.65.124.122:1789,Frankfurt,50.1136,8.6797,Germany,DEU,0.10.1
2224,6gKvMMjvG8FYjEr9che2Lcgd4ksgJGhRaSkEEWxHcJUQ,167.71.71.205:1789,Amsterdam,52.35,4.9166,Netherlands,NLD,0.10.1
2230,8o2nN88DmsVYr1giyc9V9pyHixAhyiXRcYhQVfEBJf2m,167.71.14.55:1789,Amsterdam,52.35,4.9166,Netherlands,NLD,0.10.1
2231,DPzY5ECwSfJGH4JFmJr8rUkuAeML7txgm213MTt2Esu9,188.40.243.147:1789,Berlin,52.5167,13.3833,Germany,DEU,0.10.1
2235,CMutCuUENU9N92Xkjs3WJF6hrcypFWSXUBDPoExhow5M,5.188.93.69:1789,Paris,48.8566,2.3522,France,FRA,0.10.1
2241,DaNpVEJjkRTwonS1VvCYPPyz2y9LCP7UqXu7QNxK79hC,217.69.0.34:1789,Paris,48.8566,2.3522,France,FRA,0.10.1
2242,6hvUnV8DqMBiVvfBxHUY59QVqrCTr57WNKFPiUYxG7Tt,188.166.39.221:1789,Amsterdam,52.35,4.9166,Netherlands,NLD,0.10.1
2249,8gf4SLyy6WG91VEJQ2PuhN2PdndB94XGKeG93zitEphq,206.189.13.35:1789,Amsterdam,52.35,4.9166,Netherlands,NLD,0.10.1
2250,6bRxYJ9o7evWcJsVc53HEjVtCQao41GwARAyLT4juM67,140.83.60.1:1789,London,51.5072,-0.1275,United Kingdom,GBR,0.10.1
2251,ACpjCR5PbJovZWPFMrGow1XTJkFpdEQs5rRRcoxh8Fek,64.227.78.167:1789,Amsterdam,52.35,4.9166,Netherlands,NLD,0.10.1
2254,J52opweSZjqeBfunvHThnyD9spg8b7oKPjWxUHbxTNNS,188.166.110.117:1789,Amsterdam,52.35,4.9166,Netherlands,NLD,0.10.1
2259,8FeF6ve5NohupxMWEbyAKL23cb8zk4ykBcDHgMaheMRL,[2a01:4f8:c2c:5bb2::19]:1789,Barcelona,41.3825,2.1769,Spain,ESP,0.10.1
2260,74c78HSsPysjPPQzwAnEskTVvFkKXRarJNr1SK2DDZaV,206.189.4.245:1789,Amsterdam,52.35,4.9166,Netherlands,NLD,0.10.1
2266,BP9NSDkpok4o155J3PAtEAPjRYRmyniGcGozcQctBXiS,178.128.199.227:1789,Frankfurt,50.1136,8.6797,Germany,DEU,0.10.1
2271,DRzEegqomTU6F2KN2KhJCvAr4noGNpMdH86Tyk4Xn32e,[2a01:4f9:c011:3c18::8]:1789,Amsterdam,52.35,4.9166,Netherlands,NLD,0.10.1
2272,Gmg8sUvFr5aWdrGHxpDzdA2G8jPzVYTJzgXk2oLXYKpw,139.59.164.71:1789,London,51.5072,-0.1275,United Kingdom,GBR,0.10.1
2277,AAaVmTiDUhZsDGZFRyz3iPuHSjUTBnpPizCniPd5Msf,136.244.90.225:1789,Frankfurt,50.1136,8.6797,Germany,DEU,0.10.1
2278,2mvH4BEWynfHBF5Bp9mSHYQRm1Y4CCNWb9pS7ejSGfh9,136.244.95.52:1789,Frankfurt,50.1136,8.6797,Germany,DEU,0.10.1
2283,7vNYVkNY2eqtmfEQGaur9aLGWVRwvt5G7uB5jntVyBtK,178.62.244.122:1789,Amsterdam,52.35,4.9166,Netherlands,NLD,0.10.1
2286,Ha8kBfxs2Fgg9LwVYFacnktmmoR5av1NqimJvs69dpsY,142.93.173.30:1789,Frankfurt,50.1136,8.6797,Germany,DEU,0.10.1
2287,8yRjW7ekq7WpLwoSPfhCWnLZ1pPLECyUuMhMBNnD7cww,159.65.87.166:1789,London,51.5072,-0.1275,United Kingdom,GBR,0.10.1
2289,CNENkuaJFR4mohuGdzp1ySqC4Nw4Wt5Ukg7xmVwf6Gvi,188.72.203.34:1789,Haarlem,52.3804,4.63,Netherlands,NLD,0.10.1
2290,7115AUEanJBGkSUWb6L7DrwPFpG3wTX3wECGnX5oMxGD,178.62.227.156:1789,Amsterdam,52.35,4.9166,Netherlands,NLD,0.10.1
2299,7VdMLXkXii1D4eqUJa2N5Tstj1xVqNrTbtPDQgLf2N4Z,168.119.120.33:1789,Nuremberg,49.4528,11.0778,Germany,DEU,0.10.1
2301,7Rbz4zZTGWw62aAyQcveddB38B3f96d1Fr4He1CUb4Pe,178.18.253.34:1789,Munich,48.1372,11.5755,Germany,DEU,0.10.1
2307,6ZTgoQ45q87b2cEJqWAHWE3jgdCdVDD8k3hGMuwfnbki,108.61.198.80:1789,Amsterdam,52.35,4.9166,Netherlands,NLD,0.10.1
2308,3HtKc5oRxQwV4YETwXe1HeGoJUM8Xg2DwFyCn4ZAPrjt,188.166.1.132:1789,Amsterdam,52.35,4.9166,Netherlands,NLD,0.10.1
2311,EzoFJZbNEUR7rVW5TwkAQMRaMo6puKL7Uw55QGaW5YEj,45.63.43.214:1789,Amsterdam,52.35,4.9166,Netherlands,NLD,0.10.1
2313,9t7w9eCrZE1TUoFcUCctPQ1iCS29GyhdZBHJDGrAEVvV,167.172.169.192:1789,Frankfurt,50.1136,8.6797,Germany,DEU,0.10.1
2315,2PTVnbDcFsKQjmkHUihvHMhRn8FVVQpgb9t2xGPGxjvy,23.94.101.195:1789,Amsterdam,52.35,4.9166,Netherlands,NLD,0.10.1
2320,595wjyryAD7UFrXmArYhbPUKRydFMAUu5R51y61khUY6,134.209.200.29:1789,Amsterdam,52.35,4.9166,Netherlands,NLD,0.10.1
2323,Ez71V1HmxP41EtyWdepiHVYFWpeoKqa3mahUnwK7c4QW,46.101.215.4:1789,Frankfurt,50.1136,8.6797,Germany,DEU,0.10.1
2325,9KMM43AMfvjjrNW656SDcxN23b5yzB3Zo4TgDLNDKZZw,206.189.110.106:1789,Amsterdam,52.35,4.9166,Netherlands,NLD,0.10.1
2328,Dny1zMGsRxvniLD2ZDG57QWU1EiQQPyKtE4weKGrMbw8,[2a01:4f9:c010:6912::19]:1789,Frankfurt,50.1136,8.6797,Germany,DEU,0.10.1
2336,2PpeqvGodVZ6KHQPoht7cwa87AiWvEgssoV4FJnUTR87,[2a01:4f8:c17:e25a::3]:1789,Barcelona,41.3825,2.1769,Spain,ESP,0.10.1
2339,9bhXejZVgbywornsSaooofXr7VZH6pYbYjXeiWZDZqQf,188.40.243.154:1789,Berlin,52.5167,13.3833,Germany,DEU,0.10.1
2341,FHRo2HAqJnRDdZqexBLGE87Urzw7YH5pbTeAhCHRMTrK,161.97.71.34:1789,Nuremberg,49.4528,11.0778,Germany,DEU,0.10.1
2347,Ays497QQZrubMNXoyzJwqfwNTTGRjAcvmZBW3eWqkFeJ,49.12.39.158:1789,Falkenstein,50.4667,12.3667,Germany,DEU,0.10.1
2351,BgCVCEShyjCxiV7G6ACPB8wB3ZbijV9KqphCtuakbF2e,188.166.63.185:1789,Amsterdam,52.35,4.9166,Netherlands,NLD,0.10.1
2353,4powUHDqu5HiiSYdemQtF71F6TRrqKMPp3xo4TojHX5a,188.166.118.38:1789,Amsterdam,52.35,4.9166,Netherlands,NLD,0.10.1
2354,8E33MSsuWfEkrekh3qbMAdJTCExkove3dkfcE8NAMxL3,217.69.13.5:1789,Paris,48.8566,2.3522,France,FRA,0.10.1
2355,5L6DjcttT7ygcRzFDYTTgbcmpdfdZbsViF716i8mf1a8,178.62.240.227:1789,Amsterdam,52.35,4.9166,Netherlands,NLD,0.10.1
2359,7cJU5VxeZ3QTYbFBQ9TJyL3tsbHaSXEsN3DRVPRbqFcH,130.61.93.131:1789,Frankfurt,50.1136,8.6797,Germany,DEU,0.10.1
2360,4u9aopPVLypWUvwtNqk83q4GEEEoFUxdx7xBHorPZCsY,178.62.223.93:1789,Amsterdam,52.35,4.9166,Netherlands,NLD,0.10.1
2361,CxuF2MU4L5GxTdx7NmoGSY64RbVnG2J1X9S6EkwgrQjt,88.198.75.233:1789,Nuremberg,49.4528,11.0778,Germany,DEU,0.10.1
2365,76iQuXwPSMhBuPHxoVyZqLaCuKxws85uuPbSZGdGjb6x,139.177.179.169:1789,Frankfurt,50.1136,8.6797,Germany,DEU,0.10.1
2366,9jaXVrxHgdiFksSFaHg9AZJxXc3y4G8twMNpSApH9tsu,144.202.15.141:1789,Nuremberg,49.4528,11.0778,Germany,DEU,0.10.1
2367,29MWayDEKE5j8joP7veb7XrCko6M44F72cdLLYP3kh4q,162.55.160.66:1789,Falkenstein,50.4667,12.3667,Germany,DEU,0.10.1
2368,GpxoJ3RK6ZAvTGJ4kTJrGcPUxwjGmcj6oS2CsYKcUZbi,174.138.4.161:1789,Amsterdam,52.35,4.9166,Netherlands,NLD,0.10.1
2371,D1fbfKGBJcbCZ3iq4yetr7VtbsgBYPFbxAgsJuiMBfVk,116.203.115.11:1789,Nuremberg,49.4528,11.0778,Germany,DEU,0.10.1
2374,5VGnpjWcSXpXpbAuxrBXiBSoTHzhN63K3VVddNzoxQL8,134.122.55.176:1789,Amsterdam,52.35,4.9166,Netherlands,NLD,0.10.1
2375,CBgALpavbtg7SBJ5xo7Ce3JLwhEbHdtCE7vN7JxW9HMm,207.154.210.26:1789,London,51.5072,-0.1275,United Kingdom,GBR,0.10.1
2376,6nnmsfkgvo35WMrog1DzH9KE6qjCRm2j5hCpoAsk1eXL,188.166.96.42:1789,Amsterdam,52.35,4.9166,Netherlands,NLD,0.10.1
2377,ESD5PVtkQhWi7RCbwWsD8MAvTxNwrGRSp7kRurwghvjF,167.99.220.91:1789,Amsterdam,52.35,4.9166,Netherlands,NLD,0.10.1
2378,D6h79ZvTfRJNJCMQsUgWAoPnqmWTe1du4AdNMKEaambt,134.122.61.101:1789,Amsterdam,52.35,4.9166,Netherlands,NLD,0.10.1
2379,6vfT5SoC6EXaviZw6UeDrTocvyQzXSDFZYmn7XvdkSon,[2a01:4f9:c010:ddc9::12]:1789,Berlin,52.5167,13.3833,Germany,DEU,0.10.1
2382,B4dNfVR6hDesDcmP9hQqtc8y24Jt9vz8mTDTw8P2dGTC,[2a01:4f9:c010:8ef8::27]:1789,Berlin,52.5167,13.3833,Germany,DEU,0.10.1
2387,DWdNUVXiJ73ZvMbQf8gxYp96mM3RFXg8uUgCYNu98ksp,108.61.173.185:1789,London,51.5072,-0.1275,United Kingdom,GBR,0.10.1
2396,FDBstmcQzaRX8Jc7yn2ubirpTvasLeZUbsocDA6QXDav,46.101.75.90:1789,London,51.5072,-0.1275,United Kingdom,GBR,0.10.1
2398,EoFYPV6KurxRqBnK67VxHhgRUpquYKf8UxPjGLr79YrC,207.154.203.119:1789,Frankfurt,50.1136,8.6797,Germany,DEU,0.10.1
2401,8k2y7zyaSJbTAdb51yCQvdXSz6Mj7ogLWkc2AssazQQC,206.189.10.31:1789,Amsterdam,52.35,4.9166,Netherlands,NLD,0.10.1
2402,DAqaDPJepGY4hUzBup4Aj3TWRDXztFj9skh8JXbdc69w,167.71.47.29:1789,Frankfurt,50.1136,8.6797,Germany,DEU,0.10.1
2410,Gyqvps34pQNPWk7RSbEWHJCwBkQkDhekZM5gNuamp77n,167.71.9.204:1789,Amsterdam,52.35,4.9166,Netherlands,NLD,0.10.1
2411,291kkftqE2KXMRPMHJgHFxeP9izTFytjzx8bhasr21CN,64.225.67.228:1789,Amsterdam,52.35,4.9166,Netherlands,NLD,0.10.1
2412,3KuSwRHELWjdXt8m6gWAZ55bCb1U26A2mXd1UGaLtmyx,104.248.207.108:1789,Amsterdam,52.35,4.9166,Netherlands,NLD,0.10.1
2415,F8tDcPgaHK9K8ksDtKvzUYRyfiy8MdYtkN5V35BguyzC,116.202.24.198:1789,Falkenstein,50.4667,12.3667,Germany,DEU,0.10.1
2423,Ezckqv1CEgvq8Ui5rtW2pWM4qsjxgnDLmtdgxXuCkm4f,49.12.98.66:1789,Nuremberg,49.4528,11.0778,Germany,DEU,0.10.1
2424,3ZLgqPkBmyPTPYi71vG24dpC7FeQNukG6dqBYuMAzrG7,206.189.11.60:1789,Amsterdam,52.35,4.9166,Netherlands,NLD,0.10.1
2426,HaVNoRZyCvBKuLbHY5MhGTUkYPCptBQhGfFKU9mTFPKF,207.154.200.137:1789,Frankfurt,50.1136,8.6797,Germany,DEU,0.10.1
2427,8LFDi54WsL2MjLhebqzZV8qRFX5c98er1fmEL32fBDUs,80.240.26.71:1789,Frankfurt,50.1136,8.6797,Germany,DEU,0.10.1
2429,mnSUrmVjrytbhBJ6iABzJTTgPw11oLhvvVac7iyzzFR,45.76.35.212:1789,Amsterdam,52.35,4.9166,Netherlands,NLD,0.10.1
2430,2y483fo68DSaXpy4wbsN82xB8MZteHNoBRJBXtGdyvLJ,165.227.237.98:1789,London,51.5072,-0.1275,United Kingdom,GBR,0.10.1
2436,8ZSruwnV8tETPvYUWXFbDib7ZY1nQR3mTzs3MeDsYzA8,46.101.240.194:1789,Frankfurt,50.1136,8.6797,Germany,DEU,0.10.1
2442,DuiACE7U9yN5RuzUjF7zPpZyrVpiR7NzmyJrnaY19ZZ8,138.68.191.28:1789,Amsterdam,52.35,4.9166,Netherlands,NLD,0.10.1
2443,GhAUeveE7uSo6n1okqZ4Y2ugTykCNiE8qhTt5QZhT6Ga,188.40.243.156:1789,Berlin,52.5167,13.3833,Germany,DEU,0.10.1
2444,7aiBKTd5WCfyJoVm8eYLm4viWssw4orbiCShi45TiZD,159.65.169.55:1789,Brighton,50.8429,-0.1313,United Kingdom,GBR,0.10.1
2447,8rZxkK7yvUkwrU3vZFgzoqmnSFVk8C33WnPFim49FHVE,134.209.224.21:1789,Frankfurt,50.1136,8.6797,Germany,DEU,0.10.1
2448,5yJmX7EvcjRfsqbgJdoGupmFhSjvX5Z44PcaHbGjssjG,45.32.156.43:1789,Frankfurt,50.1136,8.6797,Germany,DEU,0.10.1
2451,2RhVrZW9ZEFx2uCkTnxL5p6gBDuLUm6fVSamGgS5Q89b,[2a01:4f8:c2c:5bb2::5]:1789,Toulouse,43.6045,1.444,France,FRA,0.10.1
2457,9mYaXXvEjENaJ5BFi84Ktr52JGa51FDB3WZYWWcfE5zX,49.12.107.159:1789,Amsterdam,52.35,4.9166,Netherlands,NLD,0.10.1
2462,3jrRwTu2UNXuAsDGhjT1yiKhUmNPR8UePux3tvN5iedX,45.76.84.45:1789,London,51.5072,-0.1275,United Kingdom,GBR,0.10.1
2467,8TJqQBXHxxuJP835UqK1YajZbvprfEJSUHLk5nJRiBr4,209.250.250.119:1789,Amsterdam,52.35,4.9166,Netherlands,NLD,0.10.1
2469,Esm6NWNWGwegirAzvbKJp9jSfabn1UjV9mnNo7ouQ21W,167.71.68.92:1789,Amsterdam,52.35,4.9166,Netherlands,NLD,0.10.1
2473,7KXNViVwDENd4bhNK37P8PrTo63DqL1iKT9QMs5jWMoM,206.189.4.65:1789,Amsterdam,52.35,4.9166,Netherlands,NLD,0.10.1
2479,PhJsW2s2raPgWiFs7zy6jKJwKM83x6s6yE1UYtPops5,64.227.66.200:1789,Amsterdam,52.35,4.9166,Netherlands,NLD,0.10.1
2480,C1zmdmvmHGjex8SxqEv4sSnZd81hXJ9P6qW2JBfiJvE3,62.171.158.119:1789,Munich,48.1372,11.5755,Germany,DEU,0.10.1
2481,5sWvVaBYoo5wVBSRSETSFn8YAXHBS5B7DWEc4ms9Z4cD,162.55.35.48:1789,Falkenstein,50.4667,12.3667,Germany,DEU,0.10.1
2482,5cm5fgm6j8DRzNivrF7nH7esqFvc7Mvrfhz3kmQHb9jg,188.166.108.122:1789,Amsterdam,52.35,4.9166,Netherlands,NLD,0.10.1
2485,ADuoNvY6ABiZ71tzTKv8dzAZ6SG1pm6WdU8sNXrZa3vh,217.163.28.27:1789,Frankfurt,50.1136,8.6797,Germany,DEU,0.10.1
2486,5pNtJCxu4x52gU8JEp2rQixtNGh1p2LHvi1iqR5bphr6,209.250.255.172:1789,Amsterdam,52.35,4.9166,Netherlands,NLD,0.10.1
2487,GKB32hMKK19nPEW2LBPyMEeyFE6hCsovDb7TiifpaSHk,68.183.14.146:1789,Amsterdam,52.35,4.9166,Netherlands,NLD,0.10.1
2491,GtRjP7aw9xVvquqnTDQ4kwBTwvtbUXWhdpobyqXgWfri,140.83.59.200:1789,London,51.5072,-0.1275,United Kingdom,GBR,0.10.1
2493,5UEX7HUjCQejgzfudwBHdn56VFS4uNYt3zzWn6vu3KCm,167.99.222.80:1789,Amsterdam,52.35,4.9166,Netherlands,NLD,0.10.1
2495,3XSqmsZLf9umneEJJuGTCRPzFvF6FxfpTqnjg9agD8Xc,[2a01:4f8:c17:da3a::1]:1789,Falkenstein,50.4667,12.3667,Germany,DEU,0.10.1
2499,3Y4zcz8dyoQuU1j7snSfkV3VGZtbn5J2naCwyfcoQW1N,157.90.26.144:1789,Nuremberg,49.4528,11.0778,Germany,DEU,0.10.1
2502,3mNoyPHnNogGyB6sQPUea1f1JyQSVRve5oCLw5rFSAGT,165.22.195.14:1789,Amsterdam,52.35,4.9166,Netherlands,NLD,0.10.1
2503,ESPBxdfHDPimVfe7DDLX7ewwAxFeRp7ghxJtKCazMaup,[2a01:4f9:c011:3c18::6]:1789,Amsterdam,52.35,4.9166,Netherlands,NLD,0.10.1
2505,EkkWvdePy7sqfaphYz2kyKUT95AMccP5yidkkkZw77vZ,165.22.205.32:1789,Amsterdam,52.35,4.9166,Netherlands,NLD,0.10.1
2507,CF9c1X2MBLV2N9mdhfYGQyEWkHjXGdxdL4FKccpkKFWy,46.101.218.94:1789,London,51.5072,-0.1275,United Kingdom,GBR,0.10.1
2510,DVaxnxNaP6yQFFv6Gm3dSXpPRGVDcAMGrWF7KckxCUpv,199.247.23.43:1789,Frankfurt,50.1136,8.6797,Germany,DEU,0.10.1
2512,Hj9yq1AjD8urJG7rK4mxTJVzu7Kyf2LgUpUrevMKvMYS,5.188.108.156:1789,Warsaw,52.2167,21.0333,Poland,POL,0.10.1
2514,31cC34NHZUc9pfc5CtbQQt2W6WjcZmNb2FkJJE3wed9J,157.245.79.66:1789,Amsterdam,52.35,4.9166,Netherlands,NLD,0.10.1
2517,FZDQKSV5RGH3isfgubx3TS6H3dqTxvj8Xaf1U3ckhT48,188.166.86.208:1789,Amsterdam,52.35,4.9166,Netherlands,NLD,0.10.1
2520,3t4qSUi7fochzgw5d1VvRTZvnrq8QzCeU6nQoJS5LTMD,78.47.45.208:1789,Nuremberg,49.4528,11.0778,Germany,DEU,0.10.1
2524,9VQrhog6h4D2VSJQCiFPdXtHm5snYCyZxzmk7XMddRkh,135.181.150.181:1789,Kyiv,50.45,30.5236,Ukraine,UKR,0.10.1
2528,Bu6QjiFLzXPsbXv5xnQfCRWxNmTTswkJmMX3ukqnFYi3,178.62.229.147:1789,Amsterdam,52.35,4.9166,Netherlands,NLD,0.10.1
2533,6oe7eEVH5XT8u43tB515BczaEbThoy55oh91FyhVpgGE,157.230.116.254:1789,Lviv,49.8419,24.0315,Ukraine,UKR,0.10.1
2534,7sEXESuXh6tcvirejGUFGfrn2Ft7T3uAGjGcuQ86TYyN,188.166.33.79:1789,Amsterdam,52.35,4.9166,Netherlands,NLD,0.10.1
2537,AXN8M2DLBYhwigbgne4Af1WCtbAP7kEthCUAiFnNdjFv,62.171.158.122:1789,Munich,48.1372,11.5755,Germany,DEU,0.10.1
2538,3ScN67D3H7nnXW2WxfLf5YPmU2vnynykdwPTbe9PYUzE,136.244.98.113:1789,Amsterdam,52.35,4.9166,Netherlands,NLD,0.10.1
2539,5EZGHQkCKRgYwzoGkYvHVKWqTysBG357gbkSRFzRZXR3,178.63.126.123:1789,Berlin,52.5167,13.3833,Germany,DEU,0.10.1
2541,7gtoEzSTwz1D3rXQRATT4of12erGLLj8FUZqxZEKXfpj,188.166.83.150:1789,Amsterdam,52.35,4.9166,Netherlands,NLD,0.10.1
2542,FV6W3eckH7sLLE6eNWRPMGahiX56jUm3orNMP1Knn615,[2a01:4f8:c17:c4e4::1]:1789,Nuremberg,49.4528,11.0778,Germany,DEU,0.10.1
2544,5LvaXwanTfr1USRDc2VpjRLjXeTvsWeMBnnrwFZXieMr,94.130.184.244:1789,Falkenstein,50.4667,12.3667,Germany,DEU,0.10.1
2550,6WBUsvg9wsmPUJBQ97EScbH1nohSs1kCtdhEnfShqR6v,161.97.133.129:1789,Düsseldorf,51.2311,6.7724,Germany,DEU,0.10.1
2554,335RmfZzVsE2NkbkuBQHJEegBEExXakGwuXhCxyHrkcK,64.227.71.106:1789,Amsterdam,52.35,4.9166,Netherlands,NLD,0.10.1
2555,HQEVGCVeQaYaJUxUoZj6pCfbziqrYsDDzhtsF73aGM9U,75.119.150.42:1789,Munich,48.1372,11.5755,Germany,DEU,0.10.1
2556,6EnygeQ2FrDeffH9b8Ai7cbnfAegASg7z7Mhp4jUM8Pq,78.47.109.188:1789,Falkenstein,50.4667,12.3667,Germany,DEU,0.10.1
2558,Ch5W9Uicvo5tfpc5Ax9pjnG1Ufci1nmpC1QBgoZjDttD,172.104.184.30:1789,Amsterdam,52.35,4.9166,Netherlands,NLD,0.10.1
2560,EvfCjcFAGproGCXtxPZeoN6u9i9u1NBAjbMHAwEsXwkc,138.68.92.83:1789,Frankfurt,50.1136,8.6797,Germany,DEU,0.10.1
2561,8Roz7GSGnLch6B1z7kdiMPvgMZr8445Sm6vmBhB2aCr9,165.227.175.211:1789,Amsterdam,52.35,4.9166,Netherlands,NLD,0.10.1
2562,8Vzug3KX8u4vkVCfKT4u7qj5ZTCbanANmSHH6C24gPK7,62.171.159.119:1789,Munich,48.1372,11.5755,Germany,DEU,0.10.1
2566,3qmXhcBpQuvJgcpWm3xwvdv7sCVAWEANZwQYnzmGnByd,91.243.86.33:1789,Warsaw,52.2167,21.0333,Poland,POL,0.10.1
2567,BaM3DWpQ8nXT7sXx8DbU6V7rR37kDec2T76JaC23Y3Me,161.97.138.3:1789,Düsseldorf,51.2311,6.7724,Germany,DEU,0.10.1
2575,Chgy5zq53t6MkU43xRw4SqS9wGtiEsk6eutjPczf8Tqx,64.225.65.229:1789,Amsterdam,52.35,4.9166,Netherlands,NLD,0.10.1
2576,ANK7bEqmies5FKjAgYmBNr7fYWiQKChqAd3g4qaV2tHR,136.244.116.86:1789,Paris,48.8566,2.3522,France,FRA,0.10.1
2577,54TpgeTjxTdJ5UoP6NBf2Ed4ar9A4Kcjp7DpTAReWGXo,188.166.113.36:1789,Amsterdam,52.35,4.9166,Netherlands,NLD,0.10.1
2579,FTKYN9WLy27DUaT6qF5LkwTbepAUWVNkHWtzoxT3qva3,[2a01:4f9:c011:3c18::9]:1789,Frankfurt,50.1136,8.6797,Germany,DEU,0.10.1
2580,66ymzx7CDKfSZcmZzyXESx9AT6hAz9JQV4CwzadWs4Jx,206.189.14.155:1789,Amsterdam,52.35,4.9166,Netherlands,NLD,0.10.1
2581,nAQ3nMnPQnWita4ygRVzsKCavFzegSwLRxRBM4kj31L,[2a01:4f9:c010:ddc9::6]:1789,Toulouse,43.6045,1.444,France,FRA,0.10.1
2584,FfHz73bjffV3bEcNpmSq6wvNmcCDLs2TH9g11g72Fvse,188.166.17.58:1789,Amsterdam,52.35,4.9166,Netherlands,NLD,0.10.1
2589,2UpCgmZxT2wpBJZdpwhm9cm3ihkA5RzrQNzL7GqFRtuK,[2a05:f480:1800:b2:5400:3ff:fe67:85e7]:1789,Frankfurt,50.1136,8.6797,Germany,DEU,0.10.1
2591,7A4FMALKSMfNLynv193ed2qTjj5z3Vr7doxpYpWvdDiF,167.99.40.118:1789,Amsterdam,52.35,4.9166,Netherlands,NLD,0.10.1
2596,CidjXgiJtN1nHP3AMk3pGVaf9x7TVAaQnVuYxdykVrek,162.55.39.48:1789,Falkenstein,50.4667,12.3667,Germany,DEU,0.10.1
2599,8fPicTQgZAK3V43eMivirwt76sNGu5fXTMNM3yy2YpYG,178.62.217.186:1789,Amsterdam,52.35,4.9166,Netherlands,NLD,0.10.1
2601,4tke6pb8TJ81QPSTTWXa6xs4J7utNDTVbVNcGY9kQ8ms,138.68.138.66:1789,London,51.5072,-0.1275,United Kingdom,GBR,0.10.1
2603,BafLagBGKXDJhUkixxJ3HYW1bvkxSihc6AZNBmJDionx,195.201.39.42:1789,Gunzenhausen,49.1147,10.7542,Germany,DEU,0.10.1
2607,CXqMcU3TxwCP9eEpZM8gXXhPKedsfg9J6Ft5KBNFdCm8,138.68.180.39:1789,London,51.5072,-0.1275,United Kingdom,GBR,0.10.1
2608,6iRPuPd8J5X7E6omgZPp46qbnPpfxWShYaR86frf19AT,165.227.142.167:1789,Frankfurt,50.1136,8.6797,Germany,DEU,0.10.1
2612,AVoXNkYbG6ehNWw3cPUWm2LWmoMAzGUvzAoJP81ErXD2,[2a01:4f9:c011:38ae::18]:1789,Amsterdam,52.35,4.9166,Netherlands,NLD,0.10.1
2613,kMEQ9xjSayv8Fyc6acdoi3QbQLXFpDzXafR1W6SC7MB,178.62.93.148:1789,London,51.5072,-0.1275,United Kingdom,GBR,0.10.1
2616,8CbJdVCwv6LrK7GrGwWRU9wetyN4zX8bnCowPvN7Qgq9,[2001:19f0:6c01:27a2:5400:3ff:fe67:71e7]:1789,Frankfurt,50.1136,8.6797,Germany,DEU,0.10.1
2617,2o3zHYC8YsgY6iohChzXYbnkMcBJqx547riHpFtvrXEx,194.163.129.224:1789,Berlin,52.5167,13.3833,Germany,DEU,0.10.1
2619,GmHmyYSCrFeAVudQSJo2KAoDBj8FLEzAMXUkXXrgfbnV,[2a01:4f9:c010:82cf::18]:1789,Nuremberg,49.4528,11.0778,Germany,DEU,0.10.1
2620,5cBgnPJgAUi24Mxk8qtwgdEifGjekWLvKe3FGcSUCq3R,188.34.198.55:1789,Nuremberg,49.4528,11.0778,Germany,DEU,0.10.1
2622,9X3sEBpGw7kXyLkwv6Z4Xjr8pBgB8vmTYCUbXxQ1b127,157.90.29.150:1789,Nuremberg,49.4528,11.0778,Germany,DEU,0.10.1
2630,BwSDrvmc972cN2tbZjwXYUoYNskraK8sVHkdeGeJmNqJ,104.248.202.45:1789,Amsterdam,52.35,4.9166,Netherlands,NLD,0.10.1
2632,BgvLrhDDptXshmt2V9RcN5ekoRBjW7k7z2x1Z8vgaQ9E,188.227.107.126:1789,Amsterdam,52.35,4.9166,Netherlands,NLD,0.10.1
2633,Bu2isMKt4eW1MjnBuiSMvzLki3Niy7JziJ6iYjfZSKnt,188.166.6.234:1789,Amsterdam,52.35,4.9166,Netherlands,NLD,0.10.1
2634,ApkwP7YAVB3yReDzyYqvd2WLt53ny6ZPzYECrZx9tTqP,165.22.195.166:1789,Amsterdam,52.35,4.9166,Netherlands,NLD,0.10.1
2635,DH1Ln3gc4oUTqrhKbKur7SVCvv7BuWTrsYiyMAcQroHi,165.22.203.159:1789,Amsterdam,52.35,4.9166,Netherlands,NLD,0.10.1
2639,Gyk4Acr8n3QSxSSx8uGP3CuSDAvav9AvXRc8rMtaSHCu,162.55.161.114:1789,Falkenstein,50.4667,12.3667,Germany,DEU,0.10.1
2643,AYeGqWgrwW9o3NjDqEtqdbhL63PC5MyR9cbujL7outX1,162.55.36.255:1789,Falkenstein,50.4667,12.3667,Germany,DEU,0.10.1
2644,YDp42kTDFFvUMEd2h87LkvuiWKbDiZCg1P2DiLNoNd1,188.166.4.175:1789,Amsterdam,52.35,4.9166,Netherlands,NLD,0.10.1
2645,EFu5ohxTSi1Y7bzQ8wStfuazsHdjQfm4SbmqTDP766xw,134.122.58.84:1789,Amsterdam,52.35,4.9166,Netherlands,NLD,0.10.1
2646,Er4iDW9acoqAAY7K1NM6ta3JKnkPvsw3tWTkbR2JWKzs,167.172.181.248:1789,Frankfurt,50.1136,8.6797,Germany,DEU,0.10.1
2649,HZyBviF2Mim7EcHep64QKG75uX3AP6qtDEhHm8NSMER5,[2a01:4f9:c010:59db::3]:1789,Amsterdam,52.35,4.9166,Netherlands,NLD,0.10.1
2652,6dErV7VGHYHX8qAx53bzVRMPKtAoUk6EkDcDJVhHxVp2,168.119.63.55:1789,Falkenstein,50.4667,12.3667,Germany,DEU,0.10.1
2657,CcpEhyY5rPPy6uAqkKKUK5XUiELRGMfu6EHg9JfxJSih,134.209.233.57:1789,Frankfurt,50.1136,8.6797,Germany,DEU,0.10.1
2666,2nHnwGgEiGmt9QT1aWmt2bMRT4pwLEPyQH9DLkiJB7w9,178.128.243.184:1789,Amsterdam,52.35,4.9166,Netherlands,NLD,0.10.1
2667,GCi8an9QK1auaYaB7ksMJwwRubADqo12Znc6fuyKPtZt,[2a01:4f9:c010:6912::12]:1789,Amsterdam,52.35,4.9166,Netherlands,NLD,0.10.1
2668,74PbYTUnjvU2NG62Kpp1y3FmsMXhUhBg69mCbFkDCQTh,138.201.186.164:1789,Falkenstein,50.4667,12.3667,Germany,DEU,0.10.1
2669,4AUk1pPSxwfWW1ruVEKcP6riLuYPdEasgqp2VmfqTq3d,167.172.39.153:1789,Amsterdam,52.35,4.9166,Netherlands,NLD,0.10.1
2671,4BU3NDKuQzdRoc1VAsh71tWQfBdY99j6H274nbpVhMGj,78.141.192.222:1789,London,51.5072,-0.1275,United Kingdom,GBR,0.10.1
2673,P4RBoGpZMjJH2zJzxTKrUxiJ1DsWwK19LfnGhirZF1a,138.68.72.58:1789,Frankfurt,50.1136,8.6797,Germany,DEU,0.10.1
2674,HgLSjmGSP4vjXH3ZV8n2w5wmcWwPYFRVZ7vXchphgDgV,64.227.66.15:1789,Amsterdam,52.35,4.9166,Netherlands,NLD,0.10.1
2676,GM1rqskbttza13dpigr7mA3DxFZBq2hbKmtScn75MeWX,159.65.56.114:1789,London,51.5072,-0.1275,United Kingdom,GBR,0.10.1
2679,AYoRFLud7KBEnU7NQYRLrs6Vny4cjQ7wYYHrrLFL95kb,164.90.173.120:1789,Frankfurt,50.1136,8.6797,Germany,DEU,0.10.1
2682,8k6T6rrt77GrXgbHj4X19PVW7X5yhN2yLryyHkmxh7uw,167.99.215.116:1789,Amsterdam,52.35,4.9166,Netherlands,NLD,0.10.1
2683,5vRzTKoNKqzACsGau6yjNsDQ96swjd5maeoPgaV2RugC,206.189.56.211:1789,London,51.5072,-0.1275,United Kingdom,GBR,0.10.1
2686,Hhnrz4JL1t9Nio7fhucnmuJBS7V2xyJJn744opReciZQ,188.166.55.203:1789,Amsterdam,52.35,4.9166,Netherlands,NLD,0.10.1
2687,4nyKoXPvqCHoY3LJcU8j6HUTeAeohDEotvEqCgonuArv,88.198.179.183:1789,Nuremberg,49.4528,11.0778,Germany,DEU,0.10.1
2688,Fj3UHyrzyNTnL8ooN75cb8qRiQ2Ro9S7EbJDaTfPCUYx,94.130.76.82:1789,Nuremberg,49.4528,11.0778,Germany,DEU,0.10.1
2692,9PPfQ7y41FEeGxpE7VET7eopDxtAQhdyhwyte6iTKSge,159.65.203.224:1789,Amsterdam,52.35,4.9166,Netherlands,NLD,0.10.1
2694,7CkB6B9YjMqU4Ga4LN52erpoaKbGtemxDDPdni7iLtN2,188.40.243.155:1789,Berlin,52.5167,13.3833,Germany,DEU,0.10.1
2700,xYLoy986VgFTETXKH3JXuqdMMhCbZDpakBxsNWSXv91,206.189.11.125:1789,Amsterdam,52.35,4.9166,Netherlands,NLD,0.10.1
2703,2ttzD1Hrga3zMd8jUxPumgN1wQo6a9i5LLJdckHwqMax,68.183.218.76:1789,Frankfurt,50.1136,8.6797,Germany,DEU,0.10.1
2706,BxgGdnQSojN46QymPPYmhB7tjjCTYACXEuw3NNcHRXva,[2a01:4f9:c010:59db::4]:1789,Barcelona,41.3825,2.1769,Spain,ESP,0.10.1
2708,NxoViNrFYcPMw4W48mffBXiQqxfXtyEY8Ub3s8EQdC7,[2a01:4f8:c17:d55a::12]:1789,Barcelona,41.3825,2.1769,Spain,ESP,0.10.1
2712,6cLSfxmfKo5bKjKPzhgjaam5EP7dJEN7cdwWh2SSJVky,188.166.70.105:1789,Amsterdam,52.35,4.9166,Netherlands,NLD,0.10.1
2714,qMofKqUWV3Hz2DGcKbaB4UnY9xzJsnuqtTQbPy4Bfbc,139.59.208.250:1789,Frankfurt,50.1136,8.6797,Germany,DEU,0.10.1
2718,7uEW3mUinf4GVjwnRQ4nc8LoBd5zgj2cBiapvniojuJQ,95.179.153.191:1789,Amsterdam,52.35,4.9166,Netherlands,NLD,0.10.1
2725,Bq11hzEh5jFuX2vc7ADHC4mZ2hHXi98g6tnHNBit36xi,167.99.36.133:1789,Amsterdam,52.35,4.9166,Netherlands,NLD,0.10.1
2727,HjNNamX9aYTjLDinPZYjfHPuQr5GPKwP3FB4711Pa9aQ,136.244.96.85:1789,Amsterdam,52.35,4.9166,Netherlands,NLD,0.10.1
2733,6iRUTNDXwUDT3FkUiX9esT3iNsXXpqEERBnJT1KYbo5a,95.179.243.116:1789,Frankfurt,50.1136,8.6797,Germany,DEU,0.10.1
2735,7FkcTBWn47d9iURg85y9wE5vvMPCjy9RkVxneuKTMgNh,68.183.68.25:1789,Frankfurt,50.1136,8.6797,Germany,DEU,0.10.1
2736,8E1DudRDR8N55Z2DHPdK9US6JDbEQwYGiSNHK6yUf8Q2,79.133.120.10:1789,Paris,48.8566,2.3522,France,FRA,0.10.1
2741,DGEuaU2X8ztteNRT3yjXcv1esRZwEVjQfXyBa91Zdf6q,[2a01:4f9:c011:38ae::8]:1789,Toulouse,43.6045,1.444,France,FRA,0.10.1
2751,XZ6Zrnaqt8c6tPDYUFpWAzthJnM9e28mNTNL9QptquK,94.130.168.5:1789,Nuremberg,49.4528,11.0778,Germany,DEU,0.10.1
2752,85XVifnHCzVq9HFi6K9MyzGa9bf118W9MVNzJNPmHjva,162.55.47.218:1789,Falkenstein,50.4667,12.3667,Germany,DEU,0.10.1
2755,6DvHCpqiJ7oBZcpLk6g79eYnBSd9Qf8nmiCEqHVRXANd,128.199.56.16:1789,Amsterdam,52.35,4.9166,Netherlands,NLD,0.10.1
2756,EF8Km6wgaiv6e7dHawLZC6bj9XUhuekMyw4y2c2BLMpW,188.166.24.66:1789,Amsterdam,52.35,4.9166,Netherlands,NLD,0.10.1
2759,EfgzFtLf9EYYKvnz7shVwKXYYA4yBGAUhHy47QHDvsk2,135.181.149.63:1789,Falkenstein,50.4667,12.3667,Germany,DEU,0.10.1
2760,AkVCS3gKEvrKd7yKvHftb75RSziKbH4VG4hrep5S7RM2,188.166.79.228:1789,Amsterdam,52.35,4.9166,Netherlands,NLD,0.10.1
2761,9TE3fz78BCzKQMwyqDpYgqPvTRhaP5xW3iiSor9SiRVK,62.141.38.26:1789,Frankfurt,50.1136,8.6797,Germany,DEU,0.10.1
2763,AqWzMPTbdnqKgRtSbkaQCatKVDfVjDeyB3iV2PCRCrmj,161.35.146.130:1789,Amsterdam,52.35,4.9166,Netherlands,NLD,0.10.1
2765,9hMAwTChSd85NGGwQ87ri7fcMGYisQSH47k9hXUiCagn,134.209.89.14:1789,Amsterdam,52.35,4.9166,Netherlands,NLD,0.10.1
2769,Fko3FDxsH2N61NaB5pQafFBpNWSuvdHuN6oq6yYm6vxh,[2a01:4f8:c17:2601::15]:1789,Toulouse,43.6045,1.444,France,FRA,0.10.1
2773,FyQkbDsC3B45aU7PZLVQCr5ryDagYUdKin21pgz8acjX,144.126.208.171:1789,Amsterdam,52.35,4.9166,Netherlands,NLD,0.10.1
2774,F8dMdwkKYybwDFoYyZgHPTfq91w81AmKuv1vvA8yGHfY,45.76.83.30:1789,Frankfurt,50.1136,8.6797,Germany,DEU,0.10.1
2777,2fBhXgrFDvQmBwBRhduh7WcXNunTKPGinuEmdThC3gXT,[2001:19f0:6c01:bda:5400:3ff:fe67:9605]:1789,Frankfurt,50.1136,8.6797,Germany,DEU,0.10.1
2780,58UM5whSAK9n3z6eZVWEPzk4Lwmh4CQsMbYQs1dD9ZVC,79.133.120.13:1789,Paris,48.8566,2.3522,France,FRA,0.10.1
2782,J4apFvyHAU7W5DGBEk272LwoVZkxCaQxdFDmxyDLgLR,209.250.245.213:1789,Amsterdam,52.35,4.9166,Netherlands,NLD,0.10.1
2783,fsLr7i7djajXLgDvf7LqpyHWtmhQvWhZzaRnMWFcvHt,[2a01:4f8:c17:c4e4::18]:1789,Berlin,52.5167,13.3833,Germany,DEU,0.10.1
2786,WJ7o3X1DJ6F4TtNWsPocjw67FJoT4pMkN6hwr4g73aC,178.18.248.0:1789,Munich,48.1372,11.5755,Germany,DEU,0.10.1
2788,ETCSZuHPAvhQNZuZtP184Ed8aD5CDr6gyS4ES6x3k7YQ,161.35.90.228:1789,Amsterdam,52.35,4.9166,Netherlands,NLD,0.10.1
2790,HPnbZYLeJEj3R6QPAkTDios8KjTLViNgXkjCRpau2r1P,206.189.100.242:1789,Amsterdam,52.35,4.9166,Netherlands,NLD,0.10.1
2791,3ntmBfqom9vScad3btuz3Tbh68a3AgCPQmWqvpzqXfRS,167.71.7.151:1789,Amsterdam,52.35,4.9166,Netherlands,NLD,0.10.1
2794,4sFfP7ZrrkNkRc9QNFoVJ8FeJuCHXaQKv27CbsYGZQR2,78.47.184.127:1789,Nuremberg,49.4528,11.0778,Germany,DEU,0.10.1
2796,GQvT2MSp3f3xsG7p8ztHgC9reFKEjRWDAPYZ6dTp8iPg,136.244.68.230:1789,London,51.5072,-0.1275,United Kingdom,GBR,0.10.1
2797,2u6d3k4iE9QTbwme8DFYp1oxbMkdH9xvJKZ1xHGWtHZL,49.12.40.96:1789,Falkenstein,50.4667,12.3667,Germany,DEU,0.10.1
2799,Bdn3cTiTVHVp3RcTqLkGgP5k3ejpxDu2kMVAk8WnHPzb,78.47.132.122:1789,Falkenstein,50.4667,12.3667,Germany,DEU,0.10.1
2801,E5EDJhWPA5jJMWNHymgWyvX9d2mjavJhqLQb3BYx5YLJ,188.166.124.169:1789,Amsterdam,52.35,4.9166,Netherlands,NLD,0.10.1
2802,6yMcwdD4ZUh8DsgBbZZtZguka1zqnJFmiKvgNzJsD3S9,138.68.163.136:1789,London,51.5072,-0.1275,United Kingdom,GBR,0.10.1
2803,Hwxw3fT7z3PY2uqUXEbYxE2Z7TFys5J8h5BeDfzh8ZMP,138.201.185.11:1789,Falkenstein,50.4667,12.3667,Germany,DEU,0.10.0
2804,9dy12wA2Ki4oh7vwTz5YPzJQxy7LH7FC4BtuUocHToHQ,178.128.252.226:1789,Amsterdam,52.35,4.9166,Netherlands,NLD,0.10.1
2806,4jkzY3Hwq37c3Q95G65X2Lc5moFpPB8wyCEYXfXTxxPP,80.240.25.219:1789,Frankfurt,50.1136,8.6797,Germany,DEU,0.10.1
2808,HiBv4Eu4EMva9AAHsMZ14hu6f9Ld6znyukdzEoQ4TjKx,157.230.20.187:1789,Frankfurt,50.1136,8.6797,Germany,DEU,0.10.1
2812,SWw3RMW4fhkJpEBsRb5CXdBhN2vxUVrqV8tpoVEtPWV,178.18.253.41:1789,Munich,48.1372,11.5755,Germany,DEU,0.10.1
2813,6BiY22U5LnQAgs9rrsV5YK68VA6T69RYu4UbbvS1SpVK,209.250.236.141:1789,Frankfurt,50.1136,8.6797,Germany,DEU,0.10.1
2814,AecJ4Hgyzj6zbqLdPDr6kuTVLjxQrV99FVaigsXgAYok,45.76.87.211:1789,Frankfurt,50.1136,8.6797,Germany,DEU,0.10.1
2815,DB6QRcxoJgST6sbs714y1qEuBmSaUGYLRYsVSPCXimku,[2a01:4f8:c17:2601::5]:1789,Amsterdam,52.35,4.9166,Netherlands,NLD,0.10.1
2818,2thovw48EEUpD5GFL1rEsfDdj4gnWpq3KGxWb9LQuy1G,188.34.200.203:1789,Nuremberg,49.4528,11.0778,Germany,DEU,0.10.1
2820,2tC9S7NhjKE7NeVLLvDiC7tNUpUFVgANRCCd71tM5siR,45.14.50.33:1789,Amsterdam,52.35,4.9166,Netherlands,NLD,0.10.1
2821,GEGWFZUi6mLLb2xpmaFQZEd6y9y2TiSXw38oitiF8Kqj,128.199.55.136:1789,Amsterdam,52.35,4.9166,Netherlands,NLD,0.10.1
2825,7TXmevANjt9hS9zJuF6feMFvUTQnZpi5kSpBSjXAE95A,140.82.55.46:1789,Paris,48.8566,2.3522,France,FRA,0.10.1
2826,9EUcWouGPbSjH1CE2tQJWUfdD3eUn4cq9XWkg8hA6nYW,157.90.249.245:1789,Falkenstein,50.4667,12.3667,Germany,DEU,0.10.1
2827,HeErED2MHM4Mw2mCjz4r3zrVjpVv5BZdWPPrcU23nAo9,162.55.188.194:1789,Nuremberg,49.4528,11.0778,Germany,DEU,0.10.1
2834,GZ82uMaxh57RHq5qzFShHUbuPzeNXkGiqAmLs82HRFQr,136.244.94.75:1789,Frankfurt,50.1136,8.6797,Germany,DEU,0.10.1
2838,ikV2fWGEw6dB1vYS8Qq341mma2mU5oCWLpzPPrGNgk9,64.227.69.120:1789,Amsterdam,52.35,4.9166,Netherlands,NLD,0.10.1
2839,9tu3wHeYuF7A7QHpwiwP9trD2MiqKvkGpF2gvEaieDEt,206.189.96.106:1789,Amsterdam,52.35,4.9166,Netherlands,NLD,0.10.1
2841,5bEEKsSajiCaGkLpQj6d4BEWzg3Fs6PpMCRKk7cu5ebc,167.71.77.18:1789,Amsterdam,52.35,4.9166,Netherlands,NLD,0.10.1
2844,H9Wwj4HSXuSYZUvpAAEd3qrwiQe5SexcejD9PgesHvzH,206.189.11.85:1789,Amsterdam,52.35,4.9166,Netherlands,NLD,0.10.1
2850,QMo5QnAm7vuPoU5Vq3ERDqbMf8QdAY3gdg5dwEe6TRm,199.247.26.165:1789,Amsterdam,52.35,4.9166,Netherlands,NLD,0.10.1
2852,7ZtBo76We1ggmwECUJdZnQaT835ME4XajoLTQQTfQh14,167.71.7.58:1789,Amsterdam,52.35,4.9166,Netherlands,NLD,0.10.1
2853,4rrXoh5JJXMdcMAuKUbYwx3ersUSxvweHd6kSfEDJozQ,95.179.241.65:1789,Frankfurt,50.1136,8.6797,Germany,DEU,0.10.1
2854,3n1TZhYhAqaPWKKZbpKbHhAprvn8TT4yrAFCmv8McSdw,91.90.193.192:1789,Geneva,46.2,6.15,Switzerland,CHE,0.10.1
2856,Cvty1oP6e7vSi4cNKMWhuMDcs3RBA8pGXPXHA1eJCWhy,188.34.193.150:1789,Nuremberg,49.4528,11.0778,Germany,DEU,0.10.1
2858,4x4EqzmVNQYscPrLvALTmAAwxJAMjZUxcYEGbsAvbEe5,167.99.213.245:1789,Amsterdam,52.35,4.9166,Netherlands,NLD,0.10.1
2868,AS3ngd8u2uVeymWWYMPcbZBFKbrSa1BeHJzb3QF8xnB3,178.62.205.153:1789,Amsterdam,52.35,4.9166,Netherlands,NLD,0.10.1
2869,C4gQEswqTSJ6vUW2hLqQgRjhfB2BQLTidFCckCb3AKqG,188.40.243.150:1789,Berlin,52.5167,13.3833,Germany,DEU,0.10.1
2874,4VPD2Th8pfWik4f7aFhLftZNJGQpb7odGq2hAh6vJmxy,167.99.241.220:1789,Frankfurt,50.1136,8.6797,Germany,DEU,0.10.1
2877,F1gbjhXQMsCuDp9m4BkBcuECQ2xu18YKNCUFFGiWg8pm,167.71.68.176:1789,Poltava,49.5744,34.5686,Ukraine,UKR,0.10.1
2880,44xZ79V6SfjxtBFd4KM5rW1PbB3zscXP8QDWfSwmRmQv,78.47.63.157:1789,Falkenstein,50.4667,12.3667,Germany,DEU,0.10.1
2881,CCKDUHcssXjf8dmCbuLgsnoMv6LcfycusjZ7y6gn1fWj,161.97.93.76:1789,Nuremberg,49.4528,11.0778,Germany,DEU,0.10.1
2892,2c3dRMKgrjLdqDT8pmZpSWaCMEzw3XRBiLrKWH8H9oGe,[2a01:4f9:c010:6912::17]:1789,Toulouse,43.6045,1.444,France,FRA,0.10.1
2895,BjDd3Z3xbXAkytFkJApNyp1KvbHxz6Cke27KJbpgdTCz,167.172.33.65:1789,Amsterdam,52.35,4.9166,Netherlands,NLD,0.10.1
2898,7fEYfRb6j3stdigYBkZ16SNd2s1hjiVvcsyYR15EEqqj,45.79.251.62:1789,Frankfurt,50.1136,8.6797,Germany,DEU,0.10.1
2900,4xQ9V4KzF7mngjCFMxwV7oG71knudLbX1sGS35oxTLhi,78.141.196.65:1789,London,51.5072,-0.1275,United Kingdom,GBR,0.10.1
2903,7jJUEaxVJCJfiQJaWDFmYnKzwbarTSfYVc9T3taYubea,78.141.213.215:1789,Amsterdam,52.35,4.9166,Netherlands,NLD,0.10.1
2905,DsWSeZexA4zFskbszXxWiTXdD8nkSDdVWSWyjv4zft4s,159.69.21.208:1789,Nuremberg,49.4528,11.0778,Germany,DEU,0.10.1
2909,7CVmGYVMYBXM1doWSGc3cB4fZv5uWAUcAsm1U9cnsmbz,95.111.230.218:1789,Munich,48.1372,11.5755,Germany,DEU,0.10.1
2912,4d8epk2qaXvzdrL8yfyHLB6yk8xy2Mfjgg5RhAbHr5EE,64.225.66.184:1789,Amsterdam,52.35,4.9166,Netherlands,NLD,0.10.1
2913,8o5fQLfv3pMD2FbRGAWVtzALcBE9wGJoswuB18m3ythk,68.183.14.132:1789,Amsterdam,52.35,4.9166,Netherlands,NLD,0.10.1
2916,7BF6QP1kqDpvo8MzX33arM3BNQbJME9vvFRXBqpmaEDY,108.61.173.212:1789,London,51.5072,-0.1275,United Kingdom,GBR,0.10.1
2917,woggJr77a7PLF4DTdyYzTLZkokSFY1zQEXkwbQxXqzp,178.62.238.229:1789,Amsterdam,52.35,4.9166,Netherlands,NLD,0.10.1
2921,Re4fMfB9ii3y4WdWM5UqFev5ov4dZcBBrPXyvCCxqTQ,139.59.179.31:1789,London,51.5072,-0.1275,United Kingdom,GBR,0.10.1
2923,5YCLZYw6gUkRVyfXjbak3gsV8uG5kt8eGyypXYauAkxZ,159.89.12.46:1789,Frankfurt,50.1136,8.6797,Germany,DEU,0.10.1
2924,2nNtyDjHxXK6JqPErkRS3ciQsQ9davDptuHxDh3W6VWg,167.172.34.80:1789,Amsterdam,52.35,4.9166,Netherlands,NLD,0.10.1
2925,4LSwhAjW8JG9pv6GJ7Tj4eXSCAjSe2o37eM7CChEquJX,188.166.30.220:1789,Amsterdam,52.35,4.9166,Netherlands,NLD,0.10.1
2928,9bQBxheZyKavhcJj5ms3GQei7LgzWagnwhbBVpEiak47,142.93.133.103:1789,Amsterdam,52.35,4.9166,Netherlands,NLD,0.10.1
2931,EpRv8P3ArEh4Ahmd8LTLWFZia5SfN2iDgsXKUXvCkHkb,45.77.67.53:1789,Frankfurt,50.1136,8.6797,Germany,DEU,0.10.1
2934,FH6bbJcPXNZ6JxQkLu2PiRUDUXDMbUB3ACokq71XDoWg,[2a01:4f8:c17:d55a::9]:1789,Frankfurt,50.1136,8.6797,Germany,DEU,0.10.1
2941,HSU55fTpAhDjZJCgte7f3T2WHENhAyX4zyqM98DVqSWK,95.179.248.139:1789,Frankfurt,50.1136,8.6797,Germany,DEU,0.10.1
2943,6DUq1chmGQgQ3qSUFeKuBM1H14qpVGjNNeCwnQWcWYYS,[2a01:4f9:c010:ddc9::17]:1789,Nuremberg,49.4528,11.0778,Germany,DEU,0.10.1
2949,HNZB9YAsTjCo9754DD4KcD4ueadoTHPuAhY4VMwGVtdd,188.166.77.92:1789,Amsterdam,52.35,4.9166,Netherlands,NLD,0.10.1
2950,5DspTiwEYdVa7nqL1pJtyRfGvUBVmmQ5suyPH528wPk4,207.244.246.123:1789,Falkenstein,50.4667,12.3667,Germany,DEU,0.10.1
2954,HSNS1FJZUBNbjRrTdEpGNz7mMnuxsSQs6YuYoERNG5dA,157.230.126.192:1789,Frankfurt,50.1136,8.6797,Germany,DEU,0.10.1
2956,Dh4hV7xH3f646DrinAJwqrmyjF3H95w6mFrCyUhfS9PB,[2a01:4f9:c011:38ae::19]:1789,Nuremberg,49.4528,11.0778,Germany,DEU,0.10.1
2957,F9XTPSGKrcFTSWhwF8nPaUdc5RH9rDa3TFaaLAuGhB6G,157.90.235.150:1789,Nuremberg,49.4528,11.0778,Germany,DEU,0.10.1
2960,C87Nv6XUvZggCnqAECUtC3ZxHD5DE4cRbtxjjbv2WHbo,[2a01:4f8:1c1c:c929::16]:1789,Amsterdam,52.35,4.9166,Netherlands,NLD,0.10.1
2963,54zLBoU3h6feV3fCYQDrGGyHZiwSk3WT4ev4RwbxkkXw,199.247.31.37:1789,Amsterdam,52.35,4.9166,Netherlands,NLD,0.10.1
2964,FBoBVc7vjeh8SxMio85snixK6BPrS3j68NcoVcKzukPK,[2a01:4f9:c011:4518::10]:1789,Nuremberg,49.4528,11.0778,Germany,DEU,0.10.1
2966,8BWZqSMwhi8yMwJv2GC5qmSusYbNEmt3o9kYVXxjgd53,45.32.144.50:1789,Paris,48.8566,2.3522,France,FRA,0.10.1
2970,BfGGBv73tvWspNCE7gviXm5bXpPXUavFxR8H1cdTMieA,83.229.6.35:1789,Milan,45.4669,9.19,Italy,ITA,0.10.1
2972,5cQbxxVRQaDUAoqR7xrWStk1pet8Q71qiD3S8DbfwgEf,78.141.204.60:1789,London,51.5072,-0.1275,United Kingdom,GBR,0.10.1
2977,E81jZcMKdsmhSdorjg8ux6PuBQsFM26RyEbKvmyV8kzi,[2a01:4f8:c2c:5bb2::7]:1789,London,51.5072,-0.1275,United Kingdom,GBR,0.10.1
2984,EMVrxRfJur5RfAV1bJXuqk89y3VdE11sgaPjBtijVGhM,157.90.121.127:1789,Nuremberg,49.4528,11.0778,Germany,DEU,0.10.1
2987,Bd1JvHAKXRLyGev21s1RJ37PvFAs8W6JdjsL6dvf2zoT,199.247.7.106:1789,Frankfurt,50.1136,8.6797,Germany,DEU,0.10.1
2988,223rBrMVnTgQqLKup1Q6A4JyotdtF4WDjxfg1Ztnm6uC,178.63.126.122:1789,Berlin,52.5167,13.3833,Germany,DEU,0.10.1
2991,9YxAwFQB3dZLj43c5DyR2yrPGjZherqAuZazHeVWjAy2,78.47.36.173:1789,Nuremberg,49.4528,11.0778,Germany,DEU,0.10.1
2996,F8cjrwerVDEpps636GVTwzA8zQdiMEcJRrBkCVE8KchH,89.252.21.36:1789,Kyiv,50.45,30.5236,Ukraine,UKR,0.10.1
2999,3F9mUTdfT5ZvQdCpmM3miY8hwfd1AYRmxDKZE2SaC1n7,[2a01:4f8:c17:c4e4::9]:1789,Amsterdam,52.35,4.9166,Netherlands,NLD,0.10.1
3002,EmafdsgiNrqJpVCR4LCGC9FFmXgrhhcSG6ezoMsk4YUa,142.93.135.54:1789,Amsterdam,52.35,4.9166,Netherlands,NLD,0.10.1
3006,9oe43MDEtPC2H8zZMKDjJAv3DovR36W5N1WunqLM6gzp,134.209.241.117:1789,Frankfurt,50.1136,8.6797,Germany,DEU,0.10.1
3009,Fbai6irrHj9X1CGVFRwin5xCwTmNjKsLwUimcV2GGD6m,75.119.155.227:1789,Düsseldorf,51.2311,6.7724,Germany,DEU,0.10.1
3010,Er4D7VgB4nZJHrCwDnV85CUFUWm61aAsnjLn5NghjzYL,75.119.151.65:1789,Munich,48.1372,11.5755,Germany,DEU,0.10.1
3011,2YPscnP5zUGQNb1dYDpynNq3kEkE1CpgoTRPXKf1feqK,168.119.224.100:1789,Nuremberg,49.4528,11.0778,Germany,DEU,0.10.1
3012,27gdajokLZ2mso92VSCBZogifS8LzbF1UJCXWKx4zDeR,159.69.145.14:1789,Nuremberg,49.4528,11.0778,Germany,DEU,0.10.1
3014,6c3foNxfRx4Zv4xpmpuo1KJC9REhVjmc3HhJmhQRGgYy,104.238.171.114:1789,London,51.5072,-0.1275,United Kingdom,GBR,0.10.1
3018,6o91XzExaZyrjUSn49g6nwL3MbLYzosG24AkZwRuLcRv,68.183.14.25:1789,Amsterdam,52.35,4.9166,Netherlands,NLD,0.10.1
3023,9jWt5bfvACALf7wb5GBJBN2QEHkGNA6iDv6C7GM11dpB,188.40.243.153:1789,Berlin,52.5167,13.3833,Germany,DEU,0.10.1
3025,4MREFAKXxengDu8p54AvHpddmfzvadCeb8uw3uefvhNh,206.189.9.189:1789,Amsterdam,52.35,4.9166,Netherlands,NLD,0.10.1
3028,HJZ7p2QuX29CbgiodKpvhW2tECqd8pquLcUa2Hy3odnY,142.93.233.232:1789,Amsterdam,52.35,4.9166,Netherlands,NLD,0.10.1
3030,9fcXLHehiwypAjuiRgusFSHVrJAn35gqn9YfZwjw7fZ1,78.141.238.188:1789,London,51.5072,-0.1275,United Kingdom,GBR,0.10.1
3032,5debYF2ZhFzkPwXfWq2M4u8GRaiSX4qffGeY9nqainYu,178.18.253.40:1789,Munich,48.1372,11.5755,Germany,DEU,0.10.1
3034,ARiWecQFiHvbtyj4q9PhNAKCLbV3i1aqpnGo5WZMB6mH,89.163.149.124:1789,Düsseldorf,51.2311,6.7724,Germany,DEU,0.10.1
3035,72zJzRp88AhZVYd2LHDfbmJ59aWKVYm3MUzgHVJZyVNp,188.166.119.39:1789,Amsterdam,52.35,4.9166,Netherlands,NLD,0.10.1
3037,2KCf3PAZZJXuDQMeaCW828xEiCbBb9hb3edjgTw2kSms,78.141.245.144:1789,London,51.5072,-0.1275,United Kingdom,GBR,0.10.1
3048,5o4YjJAFbQ4o5J8hBkig8Cz9eQez4nxSzEQdZ3vxH79Z,95.179.240.9:1789,Frankfurt,50.1136,8.6797,Germany,DEU,0.10.1
3049,6SFu3kKhvZi3ELhxZTBr25a7Xt3UYHEoj7YxW9MYAQwV,45.77.137.145:1789,Amsterdam,52.35,4.9166,Netherlands,NLD,0.10.1
3052,Fv8yRJmTucFYNnkX9UrX8YUyuKdJzDaNKchZEBs2R4hm,178.18.253.37:1789,Munich,48.1372,11.5755,Germany,DEU,0.10.1
3055,6MqEE8sH7uM9QXZQe29WT6vGZowAy1oZwbRZUr6vm5zf,178.62.227.247:1789,Amsterdam,52.35,4.9166,Netherlands,NLD,0.10.1
3058,BtTrMvYwh1vZqFDyjqyTCosaXGREyVHYNFW7qUgUpibf,46.101.204.178:1789,Frankfurt,50.1136,8.6797,Germany,DEU,0.10.1
3061,2SuvpzZLL1AwdZ7QcMLdmcnozAm91ZuqDaqMx5gR3h1w,95.179.220.242:1789,Paris,48.8566,2.3522,France,FRA,0.10.1
3062,43QAQY6xUf7FP8QR4gFg41GCaZdHMvrzMx4hQC7Lhvkm,45.32.252.106:1789,London,51.5072,-0.1275,United Kingdom,GBR,0.10.1
3063,DR3qQRXsutf9KgnPf44txHUsQVYWSAZBSeKaHkKqc4Yc,78.47.144.204:1789,Nuremberg,49.4528,11.0778,Germany,DEU,0.10.1
3070,4ksDzE8oB9V54oos549c3RkKL2CJLEodA2zr492cwJd4,134.209.242.36:1789,London,51.5072,-0.1275,United Kingdom,GBR,0.10.1
3071,5tJis1EBTd8zSNeXUdMQjSY3oH85F8vdWQceQTVnwY3D,[2a01:4f9:c010:8ef8::4]:1789,Berlin,52.5167,13.3833,Germany,DEU,0.10.1
3075,44kcyMxYkUr6r65aQAxHuBrU6a21ndzHbNfgxNytPLKU,93.186.194.83:1789,Düsseldorf,51.2311,6.7724,Germany,DEU,0.10.1
3077,6u1WG6x4csbT8iW4vXij5XDvgQSUb9vYpmwJ9i1PVoQu,[2a01:4f8:1c1c:c929::3]:1789,Nuremberg,49.4528,11.0778,Germany,DEU,0.10.1
3078,5nBDHkAJLzH6vgwZi1Khje4JtM8RxHCGT9KDeNrMDM3x,159.69.220.154:1789,Nuremberg,49.4528,11.0778,Germany,DEU,0.10.1
3079,31rv7YfWb1XSQ2yM18ri7Td4Kb2bqb1Ww5QtrkYXRgVc,188.166.59.188:1789,Amsterdam,52.35,4.9166,Netherlands,NLD,0.10.1
3082,A1Y6Unr17VHfF6QiCUMyjRkRFjxEthPv8aEzYLBFr3TA,206.189.11.179:1789,Amsterdam,52.35,4.9166,Netherlands,NLD,0.10.1
3083,Fsumo4EhGcVA3nAs5j7Qpd1bhjFMRfJ4s77kFRuLRPk,167.172.35.200:1789,Amsterdam,52.35,4.9166,Netherlands,NLD,0.10.1
3088,9xodrSyuWwmiS65PKETuC6ukpnqzNHYPaHMQTGSdDkZo,128.199.55.72:1789,Amsterdam,52.35,4.9166,Netherlands,NLD,0.10.1
3089,FdSW2roXdyJxvbPtN8BPwLY3DvR6596Ubqg78HZx6Lm2,134.209.87.254:1789,Amsterdam,52.35,4.9166,Netherlands,NLD,0.10.1
3091,2F4iZmYFbMHi9Gs9wkFx6AC51d4vQd1U7GMhdirbFj75,[2a01:4f9:c010:ddc9::7]:1789,Toulouse,43.6045,1.444,France,FRA,0.10.1
3098,HSbiTyQFKf7GnXfuv9FQ71kyZw68vMniZCepuUiW3s9p,95.179.228.221:1789,London,51.5072,-0.1275,United Kingdom,GBR,0.10.1
3102,A1nJEQ2kbifyhyo38mYhBeEcnyhGWh6wmwXWL5AGw9TR,95.179.201.72:1789,London,51.5072,-0.1275,United Kingdom,GBR,0.10.1
3104,2CHczMQv7zqLPrbP72v7QMAc83p8debiMYmAZEFickmN,75.119.137.138:1789,Munich,48.1372,11.5755,Germany,DEU,0.10.1
3105,E1YtNxdqXdawDy2KrL8e4BaQiCEavKZ4RDxBUAfqr8MZ,94.103.82.26:1789,Amsterdam,52.35,4.9166,Netherlands,NLD,0.10.1
3107,67YtjEqiqcXikdzs7odQ1oXUFib3dNXvdBqC3mD2MZBK,165.227.237.186:1789,London,51.5072,-0.1275,United Kingdom,GBR,0.10.1
3109,BPHLr9ECZyez921V7nMKaMdf5gmHhBKphoqhQrdCtFeX,188.166.67.9:1789,Amsterdam,52.35,4.9166,Netherlands,NLD,0.10.1
3110,3CA1ghCSnHU23Zm4392LAqWeYE52R2aaYVZsrjWHWNy5,159.65.25.220:1789,London,51.5072,-0.1275,United Kingdom,GBR,0.10.1
3112,DvFg6B4sBHDHUa4nsGVysC1N9r1K363H9UiAJbsiP9NB,165.227.233.8:1789,London,51.5072,-0.1275,United Kingdom,GBR,0.10.1
3113,CPEGNThs8HPBiKM8zptrHEW3ahEgeqkRLeopDFU47RMi,78.46.223.8:1789,Falkenstein,50.4667,12.3667,Germany,DEU,0.10.1
3115,J5hekfvvpQNxut8MoupZX8Dy7Tgqn5tjU79q2bmU9K1z,188.166.122.87:1789,Amsterdam,52.35,4.9166,Netherlands,NLD,0.10.1
3118,ED1U9Qkmoic5EZA18Wnkrw5bsU9GmUjdsApAmtKLf4Cz,217.69.2.174:1789,Paris,48.8566,2.3522,France,FRA,0.10.1
3119,EbEYEhbouQfCmUvZvBrc8FVcLPJZikvj4q3N2shDTFGY,134.122.86.62:1789,Frankfurt,50.1136,8.6797,Germany,DEU,0.10.1
3121,J9AzgQTATBuwQTEwoCoyagdR25U7s6VG4QHnWqJZRvzd,178.63.126.112:1789,Berlin,52.5167,13.3833,Germany,DEU,0.10.1
3123,8R6thcoc2MaXTbtvu7n12gMQogCzhCMNVk83xgcReyxa,157.90.144.211:1789,Falkenstein,50.4667,12.3667,Germany,DEU,0.10.1
3124,VDPCx3zp4mbiWh39kXyAMa3iMijVoEqkwTsG3qEv5W1,161.97.165.199:1789,Munich,48.1372,11.5755,Germany,DEU,0.10.1
3126,J1iU8BCbjrAKPkX32pBAUhZgqpTg2YhHn4AyMVuQnhpW,172.104.144.120:1789,Frankfurt,50.1136,8.6797,Germany,DEU,0.10.1
3128,2kR9SmNCzEMZYHPPRCQwHgVoeriJGiD1DXENKc11Dzax,178.18.253.2:1789,Düsseldorf,51.2311,6.7724,Germany,DEU,0.10.1
3133,9V9Jb4CJC8zXe3Jqca6tUmszCFPZrrsxiK73trJ4c3UX,167.172.185.25:1789,Frankfurt,50.1136,8.6797,Germany,DEU,0.10.1
3139,8RYqiUiFYbX3gbPnMyhwhf2ujyCKTH4hn3gqePR5DUBc,95.179.133.251:1789,Amsterdam,52.35,4.9166,Netherlands,NLD,0.10.1
3141,D6fWxX7fpcJf1SFaaqLg5HJPvzRHdEG4P7GC3bSqWxCj,[2a01:4f8:1c17:489e::4]:1789,Barcelona,41.3825,2.1769,Spain,ESP,0.10.1
3146,9HqAKNTNiLsnu8sBd4mzJTgv63joJZUre33CHdoN2pB1,206.189.111.155:1789,Amsterdam,52.35,4.9166,Netherlands,NLD,0.10.1
3150,D7UsnMj5ZW268m54UpqWindMuKTk9EThPpirpxMAmrRq,[2a01:4f9:c010:ddc9::27]:1789,Frankfurt,50.1136,8.6797,Germany,DEU,0.10.1
3151,HBhGwoDC2s6ZaGabTfSYFUcaJjFYSCTjPBV1xM13TQ19,78.141.235.70:1789,London,51.5072,-0.1275,United Kingdom,GBR,0.10.1
3153,9gokEy3GdJYUdUzbxVTg9LEbaV1sQ9Rq2rmS3UxawPJR,[2a01:4f9:c010:ddc9::16]:1789,Frankfurt,50.1136,8.6797,Germany,DEU,0.10.1
3154,DgKhid8NaLJ5o47tE6XozFHBhe7Kq6i2xcrWtJ9wSH4o,157.230.96.168:1789,Frankfurt,50.1136,8.6797,Germany,DEU,0.10.1
3155,BfszptRHC51XVHTD5WemRaqEGwS8RewF24s8nhyMwpk1,5.189.134.151:1789,Amsterdam,52.35,4.9166,Netherlands,NLD,0.10.1
3156,7RpfKpqYvK9Jwa8zfC9L9toFeWjRfrXyksZxKXZZfxaV,188.166.59.12:1789,Amsterdam,52.35,4.9166,Netherlands,NLD,0.10.1
3157,7V1MsS899coAZj3JVnjejimXUThf1jrabZqbdieKik7u,78.141.222.224:1789,Amsterdam,52.35,4.9166,Netherlands,NLD,0.10.1
3160,FDjKyNATkkhKuzL3Lydv7VuG8xzL2rKJaWMB3axv2YnH,174.138.7.113:1789,Amsterdam,52.35,4.9166,Netherlands,NLD,0.10.1
3163,33ZniGjeM1bESmwqp9iQy3nmkgYvX9KPXu9CkKELY8Nr,159.69.10.47:1789,Nuremberg,49.4528,11.0778,Germany,DEU,0.10.1
3165,61q1fx5vT3ThwUqfeFqtobg5kDuGLwfhHeLjsNh7g9ym,173.212.254.193:1789,Nuremberg,49.4528,11.0778,Germany,DEU,0.10.1
3174,74AqzGkiEfMxNrhTD4NbMucH5XrY7NeZKqiWGrSD9NZe,78.47.200.4:1789,Nuremberg,49.4528,11.0778,Germany,DEU,0.10.1
3176,CUcVFpCsWoCfyV2jZ7D98bjTi3u61pT2gPniwHsJXXbt,134.122.87.66:1789,Frankfurt,50.1136,8.6797,Germany,DEU,0.10.1
3178,84Nnka74jaZnx799BFYNCKZuEX9jKLCRykzpMhQCXuZo,104.248.17.127:1789,Frankfurt,50.1136,8.6797,Germany,DEU,0.10.1
3183,7QvsYa14Y2G5W7if5x5Xe4juQtNDejHCervKBbXvyrGA,157.90.243.89:1789,Falkenstein,50.4667,12.3667,Germany,DEU,0.10.1
3190,C1B3qjf7kp5u7aQmsUkwbC7oAXTzoBtNAYGtmANqjLWw,136.244.118.204:1789,Paris,48.8566,2.3522,France,FRA,0.10.1
3194,HinS6srL69NnnmdmbqB3UQpNpQvFCrtgChxdrP6vZhS,95.179.183.43:1789,Amsterdam,52.35,4.9166,Netherlands,NLD,0.10.1
3196,CbFxfHNEVFczNfjjxhawPMBjtUXtWVZdD2XMJ36REN7W,188.34.193.144:1789,Nuremberg,49.4528,11.0778,Germany,DEU,0.10.1
3199,5FxKceYYA2K2eWMr6csEpGyoTsPBD49vfAVd5BWaB8m9,188.166.146.69:1789,Amsterdam,52.35,4.9166,Netherlands,NLD,0.10.1
3200,3Tofx2LrwBtaVXjf1F7E9HKeW7HXQRTsuZVAv2cSfPfq,134.209.82.204:1789,Amsterdam,52.35,4.9166,Netherlands,NLD,0.10.1
3203,7G3t7Q4RdpDC6zB1T8jtrfEpGtv91SbAqD2siQNUnnge,134.122.63.2:1789,Amsterdam,52.35,4.9166,Netherlands,NLD,0.10.1
3209,4CNtxkojnizriE3a888cbQef2wuTw4TR1j3xwAavxQGr,157.90.79.51:1789,Berlin,52.5167,13.3833,Germany,DEU,0.10.1
3210,AVZFzDdEk8xZQNgR8R4euXkDHntpTTtL4LTWBGoFQjeU,188.166.118.221:1789,Amsterdam,52.35,4.9166,Netherlands,NLD,0.10.1
3213,22sAtRD9eUM3ZiHbQFzvezSFfsTKRYFydK4abZETurkz,79.133.120.14:1789,Paris,48.8566,2.3522,France,FRA,0.10.1
3219,GVo83qs7i1wEcADB489aMqRE3Gw8QsPxXkREJq37dRQM,188.166.76.161:1789,Amsterdam,52.35,4.9166,Netherlands,NLD,0.10.1
3222,GxpDnnb3ZE8an63Jwk4oqCMAu1nEVW1QVXFE2v4VdMbj,167.99.241.115:1789,London,51.5072,-0.1275,United Kingdom,GBR,0.10.1
3225,AFsVadJVzmDYkq4zsVsQ3xZK9upo9NwA9qXtcxRZeh76,157.90.238.39:1789,Nuremberg,49.4528,11.0778,Germany,DEU,0.10.1
3227,HxuBoC2wD7PFrchroVjRSdqCdLytwXcsPGbPAqCRwWv2,68.183.12.151:1789,Amsterdam,52.35,4.9166,Netherlands,NLD,0.10.1
3228,C82zqFxrfSsRRL5fjVxGKD8cybwBh85jfb35HTJGCRfn,5.188.108.88:1789,Warsaw,52.2167,21.0333,Poland,POL,0.10.1
3231,5zWtEdgxHtoz4rZj2VTk4F9etejbzR9WcXK5V8qnix8c,[2a01:4f9:c011:38ae::20]:1789,Berlin,52.5167,13.3833,Germany,DEU,0.10.1
3232,JDPh7dXgqNLymxPGD9gXdznqJDiDu6tb4rft1KSkdaHq,[2a01:4f9:c011:38ae::1]:1789,Nuremberg,49.4528,11.0778,Germany,DEU,0.10.1
3236,AKkMXAucCJoTZTpxqbqcdqs8CRwf277Y8GAK4g4EiY2U,188.166.56.187:1789,Amsterdam,52.35,4.9166,Netherlands,NLD,0.10.1
3242,93cahGmkJPfkDZPHjcamRBoKn4y7niCMV7FAnt3YBdiK,46.101.93.175:1789,London,51.5072,-0.1275,United Kingdom,GBR,0.10.1
3243,BRyfxGQvHaoUyPzgmjY6bLoHXybRyn86LXyAB2aSp2Yq,45.63.97.35:1789,London,51.5072,-0.1275,United Kingdom,GBR,0.10.1
3244,Fn1frWhW3rMy9YymJJ88fKPAARfxKqcm51qho96kWC4z,217.69.2.148:1789,Paris,48.8566,2.3522,France,FRA,0.10.1
3246,4FRcaFhVTRqGLfrmojYbTgwwVypYBnaYk6C9fPJQqMLr,46.101.57.54:1789,London,51.5072,-0.1275,United Kingdom,GBR,0.10.1
3249,4uCBsg2bFPYqcCPndooj78nunLQncxYW7UDAhvGEtWdG,5.189.188.128:1789,Nuremberg,49.4528,11.0778,Germany,DEU,0.10.1
3250,GqjXSRRd6LQgjaYMBxa1TRxu2qEwCxHJiVRmyjtNgffz,116.203.100.39:1789,Nuremberg,49.4528,11.0778,Germany,DEU,0.10.1
3253,2u1nzc7BTu1S5Sw6eRPnRgkVmQYCA8jvGLsS5cdj1D2R,116.202.99.111:1789,Nuremberg,49.4528,11.0778,Germany,DEU,0.10.1
3254,CMGbShfkiPV7fjjgeXWTHpSk4FbieRxL8Mxu3U9cSJGB,46.101.223.121:1789,Frankfurt,50.1136,8.6797,Germany,DEU,0.10.1
3256,DLN2yYJJWQh7AJpWfet6TDgiNUdhqgf6KNEoq1ZPjFBS,162.55.181.69:1789,Nuremberg,49.4528,11.0778,Germany,DEU,0.10.1
3258,455rY3rXA2q3BHaDjYL5pKeQbS7Jpn7E1K86JJBqQQQy,161.35.152.112:1789,Amsterdam,52.35,4.9166,Netherlands,NLD,0.10.1
3260,6K9XpR8WT8R1LufPtBEZeRkc6NSBve9iBrthhGBhtKYd,178.63.126.114:1789,Berlin,52.5167,13.3833,Germany,DEU,0.10.1
3261,DWxpCcA48372zPj9n1e66uusVLhGd2nhbgDmbV3SsS9h,217.69.9.235:1789,Paris,48.8566,2.3522,France,FRA,0.10.1
3263,5vnLukR53XAtYk9NSA3v6Ksxyma3VbMetCjfpfy6GXEF,161.35.153.175:1789,Amsterdam,52.35,4.9166,Netherlands,NLD,0.10.1
3268,J7UHmDrhi4DpP5g6sboPSh82qz4F3fynkT4Nm3CxVGLY,162.55.189.64:1789,Nuremberg,49.4528,11.0778,Germany,DEU,0.10.1
3270,BiZKT17uM45MEsKZcvWKcRyzoVce6qgQ6nGwbvFzYE6p,64.225.71.177:1789,Amsterdam,52.35,4.9166,Netherlands,NLD,0.10.1
3279,DwoCacqpAbFpfEH5cii2YtungP1Gx8uBF65iHarzKRS8,165.22.199.169:1789,Amsterdam,52.35,4.9166,Netherlands,NLD,0.10.1
3283,HGwMANkD7yw7hKg33Dz55aDcjHS2AFhop4uStrrHR2x5,161.35.81.232:1789,Amsterdam,52.35,4.9166,Netherlands,NLD,0.10.1
3284,7toQ5Z68KmpbyuBKqFTEBiZg5Sw8SrxZxxHWaCAyPHZC,199.247.21.210:1789,Frankfurt,50.1136,8.6797,Germany,DEU,0.10.1
3285,3zYbveFf37HuW3YxDagbbo7t1XXVq9jNemzZW7cpBTPY,65.21.57.221:1789,Kyiv,50.45,30.5236,Ukraine,UKR,0.10.1
3286,D7qthYhB8NxvtE7ELMWLe1K2SJicGZ71BGKYPERifuAy,188.166.74.19:1789,Amsterdam,52.35,4.9166,Netherlands,NLD,0.10.1
3289,DPe2gCepK6MfPXqT1Nh9pPhSCVnZwqMnFhotyDwcphQ2,136.244.64.84:1789,London,51.5072,-0.1275,United Kingdom,GBR,0.10.1
3294,8YEyXEPSrQUqthzMBQ3iX8qL8ghtf4LvFptBiPt2xDgt,164.90.165.88:1789,Frankfurt,50.1136,8.6797,Germany,DEU,0.10.1
3299,8nAXfXzFMW3FrFYesPXmmk65LnNbKoWv3JAs6TEoRr14,116.203.252.43:1789,Falkenstein,50.4667,12.3667,Germany,DEU,0.10.0
3311,BxHwHP7knUFus7Eq4zSPdiFb4SumUfNnHSjWCajH6Phy,178.63.126.120:1789,Berlin,52.5167,13.3833,Germany,DEU,0.10.1
3320,G6h3Tmutf2MHU4KPXPcQkuD1uwtoT4XXS8M75oh8kbeu,95.179.209.204:1789,Paris,48.8566,2.3522,France,FRA,0.10.1
3323,CF8feTArZBRH6FsidD2K9QJ8fHJMpiErKjNKWPfqHDM,[2a01:7e01::f03c:92ff:fef8:6fcd]:1789,Toulouse,43.6045,1.444,France,FRA,0.10.1
3326,4uhKYbupchbmFx8RpvhvD4tZJR4p7coYnCUFEEvCbwc1,157.245.70.176:1789,Amsterdam,52.35,4.9166,Netherlands,NLD,0.10.1
3328,6vqaY6GAq1nivnXW16cZPjD6Yd91CYwN6E6d7VvW3Ytq,165.227.233.190:1789,London,51.5072,-0.1275,United Kingdom,GBR,0.10.1
3330,9YEv9szSGCgd2vYyvV71AsrEAdwaBEDDcGdXqsi76WyX,161.35.89.165:1789,Amsterdam,52.35,4.9166,Netherlands,NLD,0.10.1
3331,91Dj8ppPJwWwtJH48baWYduU7ofpWLtqFoeGeLcsEmzu,78.47.117.222:1789,Nuremberg,49.4528,11.0778,Germany,DEU,0.10.1
3335,9CorZ4cMUR6dGMPoN2XTzWd2ewHgrFBfzhUSj8Jw3n1c,68.183.10.138:1789,Amsterdam,52.35,4.9166,Netherlands,NLD,0.10.1
3336,EpKTPW9k92vnh1DgfT2R6GF6f9RZXekoARQm9iN42VD9,31.44.3.17:1789,Amsterdam,52.35,4.9166,Netherlands,NLD,0.10.1
3338,6ypEknpxVUH3HE6C5a957TahUUzNTv2ZGA7PSmpKNzhL,173.249.1.80:1789,Nuremberg,49.4528,11.0778,Germany,DEU,0.10.1
3340,4iDzo3dTMi6Jbm22G9Dk23Uh63RR71vJLkGUVt2ac238,139.162.216.9:1789,Frankfurt,50.1136,8.6797,Germany,DEU,0.10.1
3341,CHF3hBGJkiFmuzboeS6nGD4Q7Za6R43DFxbu1xsSeusK,149.248.59.107:1789,London,51.5072,-0.1275,United Kingdom,GBR,0.10.1
3344,8hC2SojqxzEQP8gspuHthG57NtDSguhW8siHdHatyKed,188.166.85.27:1789,Amsterdam,52.35,4.9166,Netherlands,NLD,0.10.1
3345,BWToexYZPtxU9QjXXoWfJGEveJST8zQvZF72RThkc5dG,[2a01:4f8:c17:6ad5::1]:1789,Falkenstein,50.4667,12.3667,Germany,DEU,0.10.1
3346,28pxv9R5a4DRsnJ971f7XXJM4dtp6TcAhuhiMGNACYcs,188.166.116.42:1789,Amsterdam,52.35,4.9166,Netherlands,NLD,0.10.1
3350,GS2yWEpsv2rrE23BhUYsBHZuEcG54T7L2Ci2KFAcDj3s,[2a01:4f9:c011:3c18::5]:1789,Nuremberg,49.4528,11.0778,Germany,DEU,0.10.1
3351,5NsqVPfSN9PU4WqehgXxQcBu3TrU3CPh9zBuU7KQ9QQe,108.61.178.27:1789,Frankfurt,50.1136,8.6797,Germany,DEU,0.10.1
3352,3ezghuf7rDoCeMtUMCFtum72KPm6XUgpt95oF8niQLk6,195.201.28.119:1789,Nuremberg,49.4528,11.0778,Germany,DEU,0.10.1
3354,5RNo1aYrPzaGbcP9VSULXdKjVhjyfPcTtmZwMbFyWWBV,88.99.184.0:1789,Amsterdam,52.35,4.9166,Netherlands,NLD,0.10.1
3356,Dv9VCFL9jBRUvSwhJkZLox612wvkhdtbUvwRa2DCbGkG,[2a01:4f9:c010:ddc9::11]:1789,Berlin,52.5167,13.3833,Germany,DEU,0.10.1
3360,GK2yVYqSC92XDP2NfkZ7tPvqybQ1BuaeqwShUG6NZPXS,[2a01:4f9:c010:8ef8::17]:1789,Nuremberg,49.4528,11.0778,Germany,DEU,0.10.1
3361,2mMKHvVZDrhRMa7qsTpcUrrP5XYTJ2NMRu6Fz1GBbpsf,128.199.58.154:1789,Amsterdam,52.35,4.9166,Netherlands,NLD,0.10.1
3364,AsVC8Goeg3y2hNtVc1VR2wDrrpVpZkuTiYmgdnYsCN7M,104.248.201.23:1789,Amsterdam,52.35,4.9166,Netherlands,NLD,0.10.1
3365,AFesEDGpb3JYP15Xc3cCJmD1HJ3UAJPRZXrTNSkFKWju,167.71.66.218:1789,Amsterdam,52.35,4.9166,Netherlands,NLD,0.10.1
3367,Faiy8JWeaMLqxfSzeicjP2SmP49qpXzjcz6z3bzbAhQ4,31.172.65.183:1789,Kyiv,50.45,30.5236,Ukraine,UKR,0.10.1
3368,EHi3Zf31eyBAnVH6ACryXy9cvpHX5JWHQbsuFvRzUrLc,104.207.130.98:1789,Frankfurt,50.1136,8.6797,Germany,DEU,0.10.1
3369,Ag32gM7uN3WP6zuWTVBE5HXXAHNGdV77ktNdC2QkYX7h,78.141.244.214:1789,London,51.5072,-0.1275,United Kingdom,GBR,0.10.1
3372,J7eqmuxDHBeCvKk9S3JhrSgjKiR3PDPhUhBuJGsbHyoy,46.101.233.196:1789,Frankfurt,50.1136,8.6797,Germany,DEU,0.10.1
3377,F3YQwXgjrjwpqxUMxJbF3XNZHRUDKtrFadRE2PQS8D1e,206.189.9.182:1789,Frankfurt,50.1136,8.6797,Germany,DEU,0.10.1
3380,72kPqnVmLhHPAinYWksE5JLdTyR6fAsYWcqrVa8kCJwe,162.55.186.157:1789,Nuremberg,49.4528,11.0778,Germany,DEU,0.10.1
3381,5aW5ddD7SkxSHYHskjb2EkURNWU2QgNzsu1PRrXPkAkh,162.55.167.163:1789,Falkenstein,50.4667,12.3667,Germany,DEU,0.10.1
3383,AHrxjDQTutXf2jc4XRBGzk78TPMLpXZUB1fDypu41Sfu,188.166.26.222:1789,Amsterdam,52.35,4.9166,Netherlands,NLD,0.10.1
3384,AZPyuzeSaybJyFdrPe74yxCiNzxfe1HGYzxs5QhuCQrR,159.65.25.155:1789,London,51.5072,-0.1275,United Kingdom,GBR,0.10.1
3385,7nTPY5KeoadsEpkV2hLszTvtTrFkwCA5zpyLGGhfXHQy,138.68.175.245:1789,London,51.5072,-0.1275,United Kingdom,GBR,0.10.1
3389,6qgrShUN2YWKrrnqiz1NJzjNYFx1UjmsnTYhpgAeQ1na,49.12.107.141:1789,Amsterdam,52.35,4.9166,Netherlands,NLD,0.10.1
3393,Hw4aZVTHWJ7rRQb2N8V9U3NomcCWzFPSTZ4ufFZ5zhi4,135.181.155.196:1789,Frankfurt,50.1136,8.6797,Germany,DEU,0.10.1
3398,GA3Fm7KFfUhTaDqJm2mWT4cFNXfXGLf8JBM5jstkAzKj,142.93.133.255:1789,Amsterdam,52.35,4.9166,Netherlands,NLD,0.10.1
3403,4XyGm4ct1izHwa4ru3t9C16RhS9KWeHGLdzpfczxrA2t,68.183.13.83:1789,Amsterdam,52.35,4.9166,Netherlands,NLD,0.10.1
3404,8GJnbXNeghaByHP5o1fAEsb8KiiFRuVUxWa3gnvLRwRB,104.248.87.46:1789,Amsterdam,52.35,4.9166,Netherlands,NLD,0.10.1
3407,DLJYPrvog3pkNFoAwxv2JPvBddEtV49YB6YDyiAUEGhQ,65.21.50.86:1789,Kyiv,50.45,30.5236,Ukraine,UKR,0.10.1
3414,EczoETdwpGeu9LNaxES21Vhwj99Qe9P6QRV3yNYGW8Ci,159.65.56.113:1789,London,51.5072,-0.1275,United Kingdom,GBR,0.10.1
3417,Hh4M4bUSSoL6jaBZR2rStkMKrSSNjqChUoJqRj5DgF9m,136.244.117.85:1789,Paris,48.8566,2.3522,France,FRA,0.10.1
3420,9bZnmN35nuUSMt5M5LoZH1Wi4VjPbGvaEJ1ApRcyVT97,136.244.106.250:1789,Amsterdam,52.35,4.9166,Netherlands,NLD,0.10.1
3423,CzCY95AJt5MTdsGnYzUf7HC6ueeT6RgwZ5tdYE9KUkgZ,78.141.208.45:1789,Amsterdam,52.35,4.9166,Netherlands,NLD,0.10.1
3427,4ioRhEEtQQapHmXYFY6KK2Jhs6ZeGbvwKxrfmQp4dup3,68.183.211.32:1789,Frankfurt,50.1136,8.6797,Germany,DEU,0.10.1
3430,EV1UJaoQEHX8zsD2eFJx2FCCofTp7eeLzq16bW9aHwge,68.183.0.233:1789,Amsterdam,52.35,4.9166,Netherlands,NLD,0.10.1
3432,HddanyHh7MwGYPzo3CkrNX8hLNNsPsk6vdGcwzhYcHp1,144.91.97.12:1789,Nuremberg,49.4528,11.0778,Germany,DEU,0.10.1
3433,NzpfdmqPv2QxDj888tEpA76BLTbtgkB7AXcUpS6pfMG,167.99.223.132:1789,Amsterdam,52.35,4.9166,Netherlands,NLD,0.10.1
3434,HJAgoZXU5SKAX9jGNEsLK9kSPThfAnfPq7UTGsY9R5Bc,167.71.50.46:1789,London,51.5072,-0.1275,United Kingdom,GBR,0.10.1
3435,E7gq3taGKXwqUod6N24yAgxdoackWr2uPTrpEhskhSZa,108.61.190.237:1789,Frankfurt,50.1136,8.6797,Germany,DEU,0.10.1
3437,59YygfFcMxLV5o4xYNbRUtDwEfq2ZPYFnbtNqk7rL9j3,178.18.253.35:1789,Munich,48.1372,11.5755,Germany,DEU,0.10.1
3440,HYAB3ycPHKTMqyvXonqQDm5iqPA74244LirjxXDcaya3,159.69.38.92:1789,Nuremberg,49.4528,11.0778,Germany,DEU,0.10.1
3441,8ciqKmtKJEgdGMFRZZVwBoCYs2qVupFsWfCzJLdhnkfv,167.99.41.133:1789,Amsterdam,52.35,4.9166,Netherlands,NLD,0.10.1
3443,46kuXaNUK5yNVHs367VzcjsZYvTaCjJfQnLvwHxYUs7t,206.189.111.44:1789,Amsterdam,52.35,4.9166,Netherlands,NLD,0.10.1
3444,BHhYwMQqLsqJo2TetSBV6BSD2P4YMFVKc5SR32kahtSC,142.93.228.255:1789,Amsterdam,52.35,4.9166,Netherlands,NLD,0.10.1
3445,DZjhGrTtaYrPYoeBZrpdfMGbq9YHjFocxWdFHqfzD3Ph,178.62.225.32:1789,Amsterdam,52.35,4.9166,Netherlands,NLD,0.10.1
3446,FRrs3SPSDezv1U1iQsiBsjDVyXPRUozA2qqofEhSoYk,68.183.14.241:1789,Amsterdam,52.35,4.9166,Netherlands,NLD,0.10.1
3447,4r2YH8SvEwds9vpQxnT99y9NNAL8KFkqQ1X1oLGQmizY,178.18.252.252:1789,Munich,48.1372,11.5755,Germany,DEU,0.10.1
3449,FnYhhgjdrscQ4Pd8AsNiPe7MaidFCUCupPydP9j9YeqN,217.69.13.145:1789,Paris,48.8566,2.3522,France,FRA,0.10.1
3453,6aq6aFqzt8LPrZ81JQQKbKbk6YWLXJYs9Gs6PynQE8sr,[2a01:4f9:c010:ddc9::25]:1789,Toulouse,43.6045,1.444,France,FRA,0.10.1
3461,46bka49AvzwT2CbodzuYrjFsEVLsvcF3WRYauqUCxfHU,78.141.246.14:1789,London,51.5072,-0.1275,United Kingdom,GBR,0.10.1
3467,39obhuijeK7QELCUUd3J3hdzYLuRtACqWNnpEHNmnhNA,142.93.102.82:1789,Frankfurt,50.1136,8.6797,Germany,DEU,0.10.1
3469,FRzLzW3ja7DVw5x6wJ4MnHVoeqSG6CnKoDC7mxgabPZN,95.179.246.212:1789,Frankfurt,50.1136,8.6797,Germany,DEU,0.10.1
3475,AHjaTrGEjdifHJyo58eHY7p4cs8Rxaza3ZeFWRGykLcx,188.166.53.154:1789,Amsterdam,52.35,4.9166,Netherlands,NLD,0.10.1
3476,PUsf8e7Vs2iX99KggnyAEdAVDh7X415HkUfQk8bn2Un,162.55.61.53:1789,Nuremberg,49.4528,11.0778,Germany,DEU,0.10.1
3481,DEknYjMNSFoheynbCgZ4ngQXwoxj8uMQX2mhKbT8XAt7,95.179.136.45:1789,Amsterdam,52.35,4.9166,Netherlands,NLD,0.10.1
3483,5i8yHWcz6ZacauwHKKF41ReL1j6HmBL1M8q7NUL52vMt,161.35.150.34:1789,Amsterdam,52.35,4.9166,Netherlands,NLD,0.10.1
3484,9mX5d2bG814aSJtQUn2jfeKt4Xy4eTxLYRQkApi7uUJA,95.179.230.151:1789,London,51.5072,-0.1275,United Kingdom,GBR,0.10.1
3485,DLCuQFMr8eN66WWFvzRA5vkLkaJ6tz5JVdpSdEBxGGqu,116.203.179.89:1789,Nuremberg,49.4528,11.0778,Germany,DEU,0.10.1
3489,3yG6AvLhvwuWfwKwcZLKwtx5ygUSGLK7JhEs89siriV9,206.189.11.88:1789,Amsterdam,52.35,4.9166,Netherlands,NLD,0.10.1
3493,5GfYcenqvyeLScB6wrAJzxXQegibkFTZxsncRjgdZ9uQ,161.35.88.39:1789,Amsterdam,52.35,4.9166,Netherlands,NLD,0.10.1
3499,3ZKMZS6xNueijTJi6e4pMDrZzkUV8Zw78ApA3jSUpeQK,161.35.154.47:1789,Amsterdam,52.35,4.9166,Netherlands,NLD,0.10.1
3505,Evdq52TVeUiuHZKinyneQV8pD84ZN6U9cN513hwL2eEr,46.101.160.5:1789,Frankfurt,50.1136,8.6797,Germany,DEU,0.10.1
3508,D42VnAx6RYVLEAB18WLKPs9m4U8VDpyRw6pLrBiR7j24,207.154.213.203:1789,Frankfurt,50.1136,8.6797,Germany,DEU,0.10.1
3509,6BVoLWUDjdgSxxdhuBETXvqPLQQ7AhRRw7zt57hbDc1t,157.245.72.25:1789,Amsterdam,52.35,4.9166,Netherlands,NLD,0.10.1
3512,4UvufrCFDobrNrQWoYdeBhCgC4wKRYUEBtETUKfHd4mG,64.227.68.187:1789,Amsterdam,52.35,4.9166,Netherlands,NLD,0.10.1
3516,B6AraM4L4j9v1R5BHLGVcGmjE6Z7WzbqCbTH8cUFZuDs,185.92.220.74:1789,Amsterdam,52.35,4.9166,Netherlands,NLD,0.10.1
3517,6rMDoq1WyHXywZyYSBdgbLcdJ6r68KddRFQMiwqp2Xy3,95.179.252.82:1789,Frankfurt,50.1136,8.6797,Germany,DEU,0.10.1
3518,95dfMz7viyHQuyNV1ckrpZBrrSiuWFXopby5f28orLfx,75.119.151.136:1789,Munich,48.1372,11.5755,Germany,DEU,0.10.1
3520,3vLcsDgdDLqS8BZY8LX4mnFWxaxcSnedWXd4idyphjmC,116.203.240.156:1789,Nuremberg,49.4528,11.0778,Germany,DEU,0.10.1
3522,FDDhFXw1F1Y5FsyuJNfCWfZdgRioKnQ8ZjKtu5A9fujj,51.15.235.182:1789,Paris,48.8566,2.3522,France,FRA,0.10.1
3523,FTY7YZGcABqo5gJf3KjXU9VFEjh8oEmFDrEQZNuZfUED,78.141.217.46:1789,Amsterdam,52.35,4.9166,Netherlands,NLD,0.10.1
3524,6ashzb3zifk1wjwbEZKm9kuExewMVg47vhgPw7zPJRcp,161.35.149.250:1789,Amsterdam,52.35,4.9166,Netherlands,NLD,0.10.1
3528,EEKzpSwEAP9eKUxna4BRRFx1LfSKJyqhdfhcMy9zfqfU,[2a01:4f9:c010:22ca::2]:1789,London,51.5072,-0.1275,United Kingdom,GBR,0.10.1
3533,FfohAVQJarSinbZ3e27RTzzx3rDC3aFW6YuBEjuKAESt,157.90.245.151:1789,Falkenstein,50.4667,12.3667,Germany,DEU,0.10.1
3536,57gLizDbbFwzdVbYywYL8tFjbf7h62TMpUKchjQMxScJ,161.97.130.79:1789,Amsterdam,52.35,4.9166,Netherlands,NLD,0.10.1
3537,FFXCFFz1SWrmEpYfz63UpaWKtbLQ2V8NsaNLmo4soVMM,2.59.214.20:1789,London,51.5072,-0.1275,United Kingdom,GBR,0.10.1
3538,9iy8C1Mk9dVRnpnyQaramdoRCKJG33EhmKNZQ6wUjDkg,159.65.20.77:1789,London,51.5072,-0.1275,United Kingdom,GBR,0.10.1
3540,ER1ZCFof2ZEFZWPPQAAYTRVqH4DF67b5ZAtAFgJoNUMQ,[2a01:4f9:c010:8ef8::18]:1789,Toulouse,43.6045,1.444,France,FRA,0.10.1
3541,56pY2zJfou7tAmJBbVWpLsXh429XLDo9AWAukcMqjAiN,209.126.83.45:1789,Nuremberg,49.4528,11.0778,Germany,DEU,0.10.1
3544,C8mqv6TAZirLJ1Q9sceM78fNM7Z27Mb7paVMM2fQAmVu,95.179.247.33:1789,Frankfurt,50.1136,8.6797,Germany,DEU,0.10.1
3552,Gvz3yyZpsYjiShJJWrDduoQ6yoy4cehFrARCurWR7aok,[2a01:4f8:c17:e25a::1]:1789,Falkenstein,50.4667,12.3667,Germany,DEU,0.10.1
3554,GUCd3tJiKAGHUWTy6ewDC2mgHRVXYEa6HaX5PZkZTn67,209.145.52.146:1789,Falkenstein,50.4667,12.3667,Germany,DEU,0.10.1
3557,ywiopt3AZ3MJBcWF8QpHAZgTTvorota4UTECU1nqA98,164.90.172.149:1789,Frankfurt,50.1136,8.6797,Germany,DEU,0.10.1
3560,DoyUWLq8juARcqjNd5ZM36Vj2DNyQ4zDfjbz4v5E51QQ,134.209.95.226:1789,Amsterdam,52.35,4.9166,Netherlands,NLD,0.10.1
3561,FtLgjGHfoaaCYvZ56cPE2dw33a17UX3J3boBRq8toZ71,217.69.1.11:1789,Paris,48.8566,2.3522,France,FRA,0.10.1
3562,8QgakDpLfNqkBRm6EEEiZWruwUWUdWrpzGH94u4FQAF2,46.101.126.46:1789,Lviv,49.8419,24.0315,Ukraine,UKR,0.10.1
3565,CEP4HSnDB6mG53JEXASVbrnsLm9uvYKHVaWiBzc5W3cK,195.201.115.239:1789,Nuremberg,49.4528,11.0778,Germany,DEU,0.10.1
3567,A3DkRZrsEdryrw7s79YiVXaRgyoR6BKGKGbfaBCtsc8a,161.35.92.35:1789,Amsterdam,52.35,4.9166,Netherlands,NLD,0.10.1
3569,4tds1qw8iGHa6CkzmaiAvHkSd4TfHZRV7kPrjypFTg3o,116.203.40.76:1789,Amsterdam,52.35,4.9166,Netherlands,NLD,0.10.1
3571,6Q6cNst1aFXZ2eJDoYqnqgvQTrHbuon2P8JBj49XB16Y,209.250.243.196:1789,Amsterdam,52.35,4.9166,Netherlands,NLD,0.10.1
3573,JC2yR2TTGoUhtwFPUoH5PRihcEVsRgSQdHBYgmN5ErfP,188.166.19.220:1789,Frankfurt,50.1136,8.6797,Germany,DEU,0.10.1
3575,84o1E6PEXQSPXf1rsHSLhi5P56wbTb1RdUzPQggR4j9o,178.18.253.36:1789,Munich,48.1372,11.5755,Germany,DEU,0.10.1
3576,HAV25aUaZH7HspmpyQx8KKzHw5fXr7AwKqmwj3gTiu6Z,45.76.87.221:1789,Frankfurt,50.1136,8.6797,Germany,DEU,0.10.1
3578,6gzE3spj1wPv2vmg6LTAai5reJ9nDAUToY7DqHEmWomc,159.69.210.128:1789,Nuremberg,49.4528,11.0778,Germany,DEU,0.10.1
3580,D5W8F4rXGE6e3DhhP2rqivRkzbv9D4TFPBNADpedfij5,46.101.75.24:1789,London,51.5072,-0.1275,United Kingdom,GBR,0.10.1
3581,uSX2mHi47LtppGA3eowJK3ufVwgKG8pPtsDQRMP265p,159.65.112.220:1789,Frankfurt,50.1136,8.6797,Germany,DEU,0.10.1
3585,6ggRxbhMy2t94YRE4NtcHSYvvNRZB7zKvk8dvRUVZLsE,138.68.182.172:1789,Amsterdam,52.35,4.9166,Netherlands,NLD,0.10.1
3586,2X4JjCBw3h35ffmuJMujSnZ5RXeyy7KXLVEbMr3YMacA,142.93.132.127:1789,Amsterdam,52.35,4.9166,Netherlands,NLD,0.10.1
3588,6HWMh2H1eszwpEnDcH7VAEeZ7uPB1hnPkNWouibTa23,188.166.168.199:1789,London,51.5072,-0.1275,United Kingdom,GBR,0.10.1
3589,9sseSNAPvrjUC3aWpRjFw3GHtXxFAxbDE3ppdDNsVB5,178.62.244.95:1789,Amsterdam,52.35,4.9166,Netherlands,NLD,0.10.1
3593,GwqyF7QRcZrWBBFzmNnrkH6KU8bJRGqGRi4miAquQRPZ,159.89.0.84:1789,Frankfurt,50.1136,8.6797,Germany,DEU,0.10.1
3596,BdAikk2sYzV7jG8ggjkekkCAXbZCYNrN8JG8edfKByZD,138.201.187.224:1789,Falkenstein,50.4667,12.3667,Germany,DEU,0.10.1
3598,ExCi8czWWNgrkvcDkvMrnxHypRUt4bqDZatbyZnoggUh,[2a01:4f8:c17:1015::5]:1789,Nuremberg,49.4528,11.0778,Germany,DEU,0.10.1
3602,F21Z65DpnHBATUK6Z1BucxkVQj1DVp7DoGsQTQSQFDU9,95.179.209.49:1789,Paris,48.8566,2.3522,France,FRA,0.10.1
3604,7K8CtJTwWNTijAPuJcXkV5qkXFZmmKrWTmajwD4jeuwG,116.202.15.87:1789,Amsterdam,52.35,4.9166,Netherlands,NLD,0.10.1
3605,C6seBNxSegSpte1N3W3DrGxYzeUXDbddmgTDT2ABqdWw,80.240.17.33:1789,Frankfurt,50.1136,8.6797,Germany,DEU,0.10.1
3606,CFNbU1e17m1iB5SHXAarTtxb4Cxs1XauCMVgDxkcouJe,136.244.119.114:1789,Paris,48.8566,2.3522,France,FRA,0.10.1
3608,FJWu1nJcWWcvzMqFzp3qAL2MHBMjSUdoi1sNGN19cPNu,188.40.243.148:1789,Berlin,52.5167,13.3833,Germany,DEU,0.10.1
3609,Bk9K1sephVaDLhSatpDNdWevbrAYLSXSob9k8HNzoPCf,217.69.0.113:1789,Paris,48.8566,2.3522,France,FRA,0.10.1
3611,Aium9gdPcAgTnbuPEnfviHN3VVbCaDML6jN2E1grKuW3,116.203.32.218:1789,Nuremberg,49.4528,11.0778,Germany,DEU,0.10.1
3616,DyEHKD8Fcs1JeMZji51BkZxWTW6F48MQnfPMLav9DCG6,[2a01:4f9:c010:85e9::2]:1789,Amsterdam,52.35,4.9166,Netherlands,NLD,0.10.1
3621,k792uXut1YtWoxrDFF7z8sDJZ1Ba5rU5hZWrj1w4Nnw,[2a01:4f9:c010:8ef8::10]:1789,Nuremberg,49.4528,11.0778,Germany,DEU,0.10.1
3629,7Yzc41ELFPorL2J7p4HP1F554ToWL15hkpYh35dXQVZi,161.35.91.6:1789,Amsterdam,52.35,4.9166,Netherlands,NLD,0.10.1
3633,BQxHFBPfutQgpJyPT9ECxoqL7MX4Bb9qgLEnwufEv64h,46.101.99.116:1789,Frankfurt,50.1136,8.6797,Germany,DEU,0.10.1
3634,9if4gMG3y6tBcUXzTYJf28hXY3BT7QD6qqMDReVRvfPD,65.21.179.9:1789,Nuremberg,49.4528,11.0778,Germany,DEU,0.10.1
3635,AXHAiMSF3iJw1Tnp3cG5XwJEhkzgAiM9s3uKf5VbMqLV,95.179.135.100:1789,Amsterdam,52.35,4.9166,Netherlands,NLD,0.10.1
3636,BWNbBp44csCJs9Wv7CKodb13rGQHLo9YPMxoYeGdS8B7,206.189.104.215:1789,Amsterdam,52.35,4.9166,Netherlands,NLD,0.10.1
3644,A7T9rnUjqHaHAUfQQesCb1biUc52NRns5eERuBNPtGY1,188.166.115.106:1789,Amsterdam,52.35,4.9166,Netherlands,NLD,0.10.1
3646,B8P9gdKtUBSvewyoKyDTxySSxghd8o2qimr2qTTSCn2d,195.2.93.229:1789,Amsterdam,52.35,4.9166,Netherlands,NLD,0.10.1
3647,CvgtrnySKfjAGEMPXunLHwUy1cygu8tMuiZd5WEEizNG,199.247.28.206:1789,Amsterdam,52.35,4.9166,Netherlands,NLD,0.10.1
3648,7n2ZoKPoLbhV6BMzLxMy4t9t4WTRAfqGKBgD1HfogWSa,108.61.99.119:1789,Amsterdam,52.35,4.9166,Netherlands,NLD,0.10.1
3649,CCywzXfFCG8yP7Dr4Hf6Ukq3PV6gk53DjTq1yfurabMQ,[2a01:4f9:c010:6a29::3]:1789,Nuremberg,49.4528,11.0778,Germany,DEU,0.10.1
3657,6zUHS678cDvvQDeYHToQsPV742TsnZ9mrxhCn9nnjmVk,46.101.39.232:1789,Amsterdam,52.35,4.9166,Netherlands,NLD,0.10.1
3659,8AVhTadSPecVfovaGMvL5GXar4yjGyNCXWe5GsgTx8rt,95.179.176.161:1789,Amsterdam,52.35,4.9166,Netherlands,NLD,0.10.1
3664,79bk4Gn2rVGWJi8E3g3AdEK464aW6AqoHwvKi6jPgsoS,68.183.15.44:1789,Amsterdam,52.35,4.9166,Netherlands,NLD,0.10.1
3665,4HN9794Wk5KqfqqwcRVM4ohjUu8VVBofkdRVopuDjnsP,[2a01:4f9:c010:82cf::14]:1789,Barcelona,41.3825,2.1769,Spain,ESP,0.10.1
3668,DfdKnhk5Ruo2j7ppUGnwtJMbEqMdVVvCBZAG6BqZBC9G,162.55.184.172:1789,Nuremberg,49.4528,11.0778,Germany,DEU,0.10.1
3672,36r8QWDC26dq6NJKop2ieQrykE4ys2pv7CYxnFwxGwHQ,188.166.48.114:1789,Amsterdam,52.35,4.9166,Netherlands,NLD,0.10.1
3681,7twKRusxgdv3LLUkdbsjLJ3rtZ8hjhwTihAcSejF14V6,206.189.4.149:1789,Amsterdam,52.35,4.9166,Netherlands,NLD,0.10.1
3684,6FXZk5Riqdg3oMuTvWhVzyzvKMNn1sdTvPHPN3C1cLhG,164.90.173.111:1789,Frankfurt,50.1136,8.6797,Germany,DEU,0.10.1
3690,FvXmM8LmzkNvqaJezGkEsqNJmsfgt2uSmeNNDKrthCLW,104.248.207.58:1789,Amsterdam,52.35,4.9166,Netherlands,NLD,0.10.1
3696,4rnxKTPTq6qJHZ5cY7KxNmM9bXWs8f6vwyvoCcTiR8Ee,161.35.91.199:1789,Amsterdam,52.35,4.9166,Netherlands,NLD,0.10.1
3701,DYJCFgAbo1473TFGJKn987srmo9DZXCMzZRjSzB6dLWU,139.177.193.179:1789,Amsterdam,52.35,4.9166,Netherlands,NLD,0.10.1
3708,J9tQ6kMJkGVMUVXYqNVrfWm1y3oXLwLYQxQjavBz78nc,165.227.168.10:1789,Frankfurt,50.1136,8.6797,Germany,DEU,0.10.1
3709,JmywR2is7Q4xLRaBHN6AhBCcNz7b9eQi9SqBsMi5Sbg,134.209.203.158:1789,Amsterdam,52.35,4.9166,Netherlands,NLD,0.10.1
3711,6p5HS6tFSMVbCWeNJL8kEoQYvmawZhQwL5o2H4sALLhi,188.166.116.228:1789,Amsterdam,52.35,4.9166,Netherlands,NLD,0.10.1
3714,Gxr8AR2vzM8Q4aemuS2tuTFmGVHpSqJUu4Seh8yvbVoq,[2001:19f0:6c01:20ce:5400:3ff:fe67:88d5]:1789,Frankfurt,50.1136,8.6797,Germany,DEU,0.10.1
3716,7c8YE7L2kZEYBLnkAzDDPHt6dEUhk4MgYh5u5Lv7kDFr,209.250.255.163:1789,Amsterdam,52.35,4.9166,Netherlands,NLD,0.10.1
3721,AAgBaTUFHGqnCZtrPu62YrtwAAgzpMomY5ySQDnCeNsA,62.171.159.216:1789,Munich,48.1372,11.5755,Germany,DEU,0.10.1
3725,6xa4oxWLXfZavMEQeZi4PwMS4waFh75KRwTZPx4CgoUi,206.189.102.133:1789,Amsterdam,52.35,4.9166,Netherlands,NLD,0.10.1
3726,Qj5WF83dD1yzpyH3mgovJ4EbcJt4G2awZsL3ejCEvFs,95.179.158.136:1789,Amsterdam,52.35,4.9166,Netherlands,NLD,0.10.1
3728,4cfLw24srEd5kcQ14ZSiuLJyZFWjYbF78un8sz2Nz81x,188.166.89.140:1789,Amsterdam,52.35,4.9166,Netherlands,NLD,0.10.1
3730,9amUTt8rTBkMMnEQifGPSwfoimJDjKycq89bpWyNQJUE,194.163.131.126:1789,Düsseldorf,51.2311,6.7724,Germany,DEU,0.10.1
3739,J3VMsN8jNXnjy5ZgasJDnSifNXUMSG6XeTQ94Z8YDxZX,[2a01:4f8:c17:da3a::2]:1789,Frankfurt,50.1136,8.6797,Germany,DEU,0.10.1
3741,A9TYnUbsxdbxjC1TWLx4ibRhJ2ytTaSCiAeR51PKKrqz,178.62.193.25:1789,Amsterdam,52.35,4.9166,Netherlands,NLD,0.10.1
3742,4t9Se55CR166qM34qjfePvurYHemmuKRYVHFGPZWZCmF,64.227.79.151:1789,Amsterdam,52.35,4.9166,Netherlands,NLD,0.10.1
3745,AH4jffWzL7TGBd7GkSwbySUYp1S1Dgru41uJ5cPMd1ds,136.244.90.178:1789,Frankfurt,50.1136,8.6797,Germany,DEU,0.10.1
3746,6mr1i4RbU82Cbn9ciVpnXkk9xiiTMjFaUmfRdgr467w3,138.68.128.178:1789,London,51.5072,-0.1275,United Kingdom,GBR,0.10.1
3747,HJXfypL87KSY9miHQzKmc9NLDXjRAuYQLZLTshWq2Vxf,159.69.88.25:1789,Nuremberg,49.4528,11.0778,Germany,DEU,0.10.1
3748,ABw54p55Ehg1W7zDMaK4ixN6kCgShEv56cXDkMdcQcqF,45.76.46.145:1789,Paris,48.8566,2.3522,France,FRA,0.10.1
3750,9zHCRtzE3HMhWxhJnxRLTwfWb2rWCfsAu2cFSZEpRZvo,95.179.132.241:1789,Amsterdam,52.35,4.9166,Netherlands,NLD,0.10.1
3752,AFodd4ocBFEbSaRTRpqyHJ1ZXwbwSHLhzdebuGDuYgTF,135.181.149.64:1789,Falkenstein,50.4667,12.3667,Germany,DEU,0.10.1
3764,GXrnG17XfS8u3PcoY15VAzAJhGsXEYpucttjwMs5LdxE,65.21.104.130:1789,Kyiv,50.45,30.5236,Ukraine,UKR,0.10.1
3767,4aUtnx8ieEdeEEPnykpoXgHgknM8agc1kuq7EVbBRbkj,167.71.3.220:1789,Amsterdam,52.35,4.9166,Netherlands,NLD,0.10.1
3769,FfAoa4c91nMw2Nqmj8mAYJWndHQn9sVj7g6QYwH1eKXu,80.240.29.190:1789,Frankfurt,50.1136,8.6797,Germany,DEU,0.10.1
3770,BAXMCyEx7ZxujtC4kXGoj4iWBB7ErkttNHuRNbeoDMkZ,174.138.1.79:1789,Amsterdam,52.35,4.9166,Netherlands,NLD,0.10.1
3772,C1pWPAUHLeWs88NM1aHbmkqEwtkWReZzPujAUcSnn6wc,46.101.140.181:1789,Frankfurt,50.1136,8.6797,Germany,DEU,0.10.1
3781,BAguAKeDFdDnPUuTnYhokD74wyfqDmVn5M1gvrC5uHqQ,209.250.243.146:1789,Amsterdam,52.35,4.9166,Netherlands,NLD,0.10.1
3783,A2q9rjSf1KZpNcyoWULCVuKHHmq2uArRiWTvQnzNHGFw,178.62.235.26:1789,Amsterdam,52.35,4.9166,Netherlands,NLD,0.10.1
3787,6mofCnagrEjSdFWdJ5gpVsE1Cchw1jc8anVzSdErDidS,92.223.79.163:1789,Milan,45.4669,9.19,Italy,ITA,0.10.1
3792,Btev4E8CLLkdXHMPkHUwgX9uygYPQwcfLqLguarjkguA,161.97.162.64:1789,Düsseldorf,51.2311,6.7724,Germany,DEU,0.10.1
3795,54p2tNwikcf5mBiy2YeDSAkjZ1PvsgHC4VNkTnjjiyn4,209.250.241.94:1789,Amsterdam,52.35,4.9166,Netherlands,NLD,0.10.1
3796,jT9CZF5GMhBvGrDfkYeA8mHihpdFaJAPKkt7osYi9wd,[2a01:4f9:c010:8ef8::9]:1789,Frankfurt,50.1136,8.6797,Germany,DEU,0.10.1
3797,jxhvEyNEUrkDXd8gYzvqLyS3H5TsLeTcSLBNudX5KQz,159.69.110.30:1789,Nuremberg,49.4528,11.0778,Germany,DEU,0.10.1
3799,CqqF1jiKWfh6eVX1fgV6oWu6BcJ5PTNJ7uDS16HzTzba,80.240.31.3:1789,Frankfurt,50.1136,8.6797,Germany,DEU,0.10.1
3804,Cd8nsyazLzw3Ca6KqnhFYpSWdPTbHpVdKcaiGKcCw9Ho,136.244.93.92:1789,Frankfurt,50.1136,8.6797,Germany,DEU,0.10.1
3806,Y4m4ACPM4DHDu3CXSfYhcwRTkvrMT8nc2GjSwYs77Dg,134.209.87.64:1789,Amsterdam,52.35,4.9166,Netherlands,NLD,0.10.1
3807,7GmqwBEWDPwHJ93uEWH8gFJ5K39reB71CUAucSe3unLt,46.101.219.211:1789,Frankfurt,50.1136,8.6797,Germany,DEU,0.10.1
3812,5aa39jsmnvJ6TPRrRYUwkbm9hS8pqSUCxkxgNELjaaoD,161.97.90.150:1789,Nuremberg,49.4528,11.0778,Germany,DEU,0.10.1
3817,34FfUnZQDnWKzShQBtp9H8jqHtECeJKenXYguYXHFUV7,65.21.146.101:1789,Kyiv,50.45,30.5236,Ukraine,UKR,0.10.1
3822,4KemSf3gAMwaStG46EyVCiauzJmSKfRuz27BLnMTGXoD,144.126.217.230:1789,Amsterdam,52.35,4.9166,Netherlands,NLD,0.10.1
3827,8UeeBqbETPBA6jAiUy8kc5gwoStb5KtJUz3xqmip1QZc,167.71.4.109:1789,Amsterdam,52.35,4.9166,Netherlands,NLD,0.10.1
3828,4ur9yZypEEB2WyqW1xLXiudAnbxHRWk34YXyoaBX7L11,49.12.45.179:1789,Falkenstein,50.4667,12.3667,Germany,DEU,0.10.1
3832,Hiq2yQJKJPrieQCHS1tC9mdcmdicJ3AJVEE9gtF8dEoc,136.244.118.63:1789,Paris,48.8566,2.3522,France,FRA,0.10.1
3837,HDJzp7XwdvLc9vp6zgPWAQH9AUC3kdRqo6cp4Xbdsnpk,178.62.226.66:1789,Amsterdam,52.35,4.9166,Netherlands,NLD,0.10.1
3841,GEbxqh68YsnNrRmsKFWrQgpDpnsLgCS9EMZUY9xyJMYN,188.166.13.179:1789,Amsterdam,52.35,4.9166,Netherlands,NLD,0.10.1
3842,HXz5eZEzYbH83417BRkuwGEfmC7r3MErPbQ9aZ9eeijc,49.12.75.26:1789,Falkenstein,50.4667,12.3667,Germany,DEU,0.10.1
3844,7RzvVdtaD1NR4LDcZvXyEvhEhkeuGfYKrfFE6d5dVUSE,[2a01:4f8:1c1c:c929::9]:1789,Toulouse,43.6045,1.444,France,FRA,0.10.1
3846,8YqYjsG4NWjGnqUZxX89Yh862zjji6uRC2ayxW7KZo3p,128.199.35.159:1789,Amsterdam,52.35,4.9166,Netherlands,NLD,0.10.1
3851,6ZbBuDnb2uhJvgmkGVNFdRjGp8CGbFUwZomaUFyVBdEH,139.59.210.112:1789,Frankfurt,50.1136,8.6797,Germany,DEU,0.10.1
3855,69K5pHxstQy1yQb8gGCsCCsK6gUs9FAJwwdqG1hg23rt,206.189.109.127:1789,Amsterdam,52.35,4.9166,Netherlands,NLD,0.10.1
3859,DeGLb7xpRp3N3RuyFyXQpy3873YmQN4c4x6dSavwrw8e,75.119.150.14:1789,Munich,48.1372,11.5755,Germany,DEU,0.10.1
3863,DtkYHpRLKPoyKAAo5b2PxYoTcFhqBHZ9jUMCvSoXdUB3,157.90.229.53:1789,Nuremberg,49.4528,11.0778,Germany,DEU,0.10.1
3864,2W7fPiJwWM1R4RJmbd4ygdoq16PXLSbQjUxLJqbbBt9K,[2a01:4f9:c011:4518::6]:1789,Amsterdam,52.35,4.9166,Netherlands,NLD,0.10.1
3865,HMiyq6WYHWRrnTQN2ACJSqs2agbL5b8Yq4x6NAfF63eg,95.179.187.156:1789,Amsterdam,52.35,4.9166,Netherlands,NLD,0.10.1
3867,3TPkzSYz78tiMUybzuGVx8RJyBZFFhj3QpTtjQEP8uHU,75.119.150.41:1789,Munich,48.1372,11.5755,Germany,DEU,0.10.1
3870,9tXQMxxt7qciEq5chHWAojD2zPrNcanUwqLmBCsNjjqA,192.248.189.148:1789,Amsterdam,52.35,4.9166,Netherlands,NLD,0.10.1
3873,AgLhttzoZcASFQe28pyctZY4fckSbFWyX4mEjV4zioJy,46.101.3.104:1789,London,51.5072,-0.1275,United Kingdom,GBR,0.10.1
3876,A4Vq8RboAeHFSbqoboTUywexhX45xkbshj9R9op8jXX7,[2a01:4f9:c010:b922::3]:1789,Amsterdam,52.35,4.9166,Netherlands,NLD,0.10.1
3878,HpeSLENGNihasWVtt9ouC5cneHsh5JfVS85ur2BqZZx8,[2a01:4f8:c2c:5bb2::20]:1789,Toulouse,43.6045,1.444,France,FRA,0.10.1
3881,4rTcJEGYpHxEycptETPswf7tvKhTUwBxWvUUvc8r9qDy,178.128.241.164:1789,Amsterdam,52.35,4.9166,Netherlands,NLD,0.10.1
3882,FHiSp8Ksr1CQCF7PhW7SPTVd3DgCATMAr63GXocssU9y,174.138.15.182:1789,Amsterdam,52.35,4.9166,Netherlands,NLD,0.10.1
3893,9Rs7fpWJUBmiwVhbehe5qcXCbhfWVQXo5QYNnDwg3uv6,75.119.150.16:1789,Munich,48.1372,11.5755,Germany,DEU,0.10.1
3897,J1cyJGDCGYjbz9Rm7Fqtuj7nT9srSE6cgJuFM2z5c1md,95.179.195.85:1789,London,51.5072,-0.1275,United Kingdom,GBR,0.10.1
3898,E71qkbqQBEpr3ZsGorLwFKrN1gMsgfa2MMYjU1CCPNbD,159.65.19.86:1789,London,51.5072,-0.1275,United Kingdom,GBR,0.10.1
3900,dLE3dEtKYaKMyz5rdA8z75KyLwVcgyxxG4Lg1uZ3TFT,138.197.182.1:1789,Frankfurt,50.1136,8.6797,Germany,DEU,0.10.1
3901,2MFC9UZ5ZsNU5fQgMNt9edsuCkb36Fo2yxZHGNmkF8hN,[2a01:4f8:c0c:aa70::2]:1789,Nuremberg,49.4528,11.0778,Germany,DEU,0.10.1
3908,8KvtxzkdmGwtKghzRsxb3fYVLEcZKPJS2P1Y24VQmrUj,157.90.251.187:1789,Falkenstein,50.4667,12.3667,Germany,DEU,0.10.1
3912,F2YqDdXCmK2BYfqgEUiXiWS8jWbJMxe3ycTM7vbSzyc1,188.166.27.135:1789,Amsterdam,52.35,4.9166,Netherlands,NLD,0.10.1
3913,5DeazuCVsLJfcAYFzBc9LM18nUCREGNFGPQ1emSGBgtM,157.90.251.200:1789,Falkenstein,50.4667,12.3667,Germany,DEU,0.10.1
3914,7LyueGEa5PhWkFsYKjBD9pJCyWhovdx2PkQHmcQtVNYT,165.227.232.226:1789,London,51.5072,-0.1275,United Kingdom,GBR,0.10.1
3920,AqPgWv2paS3xGJPNis5HJyh9tWvRaE8ophAeUr5Bd2xV,188.34.195.184:1789,Amsterdam,52.35,4.9166,Netherlands,NLD,0.10.1
3922,fbugq1QkhVQ2bCV598axRsuckKTNFAfSGBo1wrx923E,68.183.13.222:1789,Amsterdam,52.35,4.9166,Netherlands,NLD,0.10.1
3924,6mmdw3x8fYTvGBT72AGnbwSF6bSykxmiMminyz4AWqzE,83.229.6.34:1789,Milan,45.4669,9.19,Italy,ITA,0.10.1
3927,CPgFWecHheGVCzZ2rC2tmiKoUV8yFgQBaFU2zHVhDe4b,[2a01:4f8:c0c:6464::2]:1789,Amsterdam,52.35,4.9166,Netherlands,NLD,0.10.1
3928,8fKuLKJuTT63hqK6i56EBb3CjnwUN1aRSWmRHpq9M5ru,157.90.25.137:1789,Nuremberg,49.4528,11.0778,Germany,DEU,0.10.1
3931,CwVCkdwT8h29A973qkezZmwjn7StkYC4Z33JwLppoQLx,165.227.161.64:1789,Frankfurt,50.1136,8.6797,Germany,DEU,0.10.1
3935,AprPF5X9Rym6WmMHWSW2HcEYMEcHe9JmZzFPSL63Cojw,78.47.247.153:1789,Nuremberg,49.4528,11.0778,Germany,DEU,0.10.1
3937,3xJPkxgz695J1rqb8ndVFk5cC3BMyBD28qgVBeMKTymV,[2a01:4f9:c011:38ae::12]:1789,London,51.5072,-0.1275,United Kingdom,GBR,0.10.1
3940,FcrKvfYgpJ2QMaE9Yc4pAW3T1cNvhD8XMHwBTJzkbv3H,45.77.65.133:1789,Frankfurt,50.1136,8.6797,Germany,DEU,0.10.1
3941,hvNU26p7dLBxEng2mx4xLa6mPabqaejQZbfsBYMZeA9,79.133.42.162:1789,Munich,48.1372,11.5755,Germany,DEU,0.10.1
3948,6SryoKLBXeFQKFXmCF4VkcT7EBHKUdU4okNZvcfBAcGQ,104.248.200.201:1789,Amsterdam,52.35,4.9166,Netherlands,NLD,0.10.1
3954,H1nUNGrBneRdig47zo2D2MmZ4ojF7LEvEpafGsisCaRm,45.63.116.231:1789,Frankfurt,50.1136,8.6797,Germany,DEU,0.10.1
3958,5dEZ3H2FVVCmAQKkdDmDGQjjeMRVND49HdgohzJK8nty,188.166.115.219:1789,Amsterdam,52.35,4.9166,Netherlands,NLD,0.10.1
3959,3z9z8ZimMCWApXZhPkY8jFHqNitwVUiPHZzeWvRwggxW,162.55.43.72:1789,Falkenstein,50.4667,12.3667,Germany,DEU,0.10.1
3960,AvwrhAnHKCtBcE3bZZP3QvyX13wdXQvdZWdf96iwtpwc,167.172.36.196:1789,Amsterdam,52.35,4.9166,Netherlands,NLD,0.10.1
3962,A4v4pABBnA9S8CYkEcCueLkVZBongCqpPhztUMvJoAC6,167.71.74.45:1789,Amsterdam,52.35,4.9166,Netherlands,NLD,0.10.1
3968,AUa4v4nqzCLw7YWSJj6LgyF5g9yDHUiqdQhQaxBrvnjr,116.203.250.250:1789,Amsterdam,52.35,4.9166,Netherlands,NLD,0.10.1
3970,ZdUqi8s7DT8XDqoGyR3tw3UuAWRMt1mwLpRp7CEg8Nx,209.250.252.32:1789,Amsterdam,52.35,4.9166,Netherlands,NLD,0.10.1
3973,4quLKXQih9WTDdrtRYmTndhqNounThVCZgdcaSBK6VTB,188.166.8.81:1789,Amsterdam,52.35,4.9166,Netherlands,NLD,0.10.1
3974,ChM2YakCJVcZEybVx6EYbjn86wttRgrR4vfPNM8W6oY4,199.247.17.132:1789,Frankfurt,50.1136,8.6797,Germany,DEU,0.10.1
3976,4HiidiUcQgpzGJn9x1yViV3dBAZWxHRcE4kQE96QGbj7,80.240.28.176:1789,Frankfurt,50.1136,8.6797,Germany,DEU,0.10.1
3977,B72i8CNSRBPkN2ro3PV94uoE5LyPwYWYHRsAayemwKRZ,152.70.90.25:1789,London,51.5072,-0.1275,United Kingdom,GBR,0.10.1
3983,5AuiXcUuD7uKbvi2hPXkMmMzMK6KtyaUtbQsUVhmutYU,134.122.120.218:1789,Amsterdam,52.35,4.9166,Netherlands,NLD,0.10.1
3985,ACr8xVpz9EmyePVyGNMrSbQxg53tBphy2eUG146em5k3,165.227.128.136:1789,Frankfurt,50.1136,8.6797,Germany,DEU,0.10.1
3992,8JyqrzDToARyzCoTGQSn2qHxg9MPwphRARvdwijYiyKT,178.79.168.235:1789,London,51.5072,-0.1275,United Kingdom,GBR,0.10.1
3993,6Z2tfMzu4cimMerbpaPh9G65B4rZxdbrqk4TkCAi1Ns7,95.179.152.227:1789,Amsterdam,52.35,4.9166,Netherlands,NLD,0.10.1
3995,BLaE4j5Z64ceq3iYHUgV3Gg3UXJRCPz2z38tbguNA4vd,78.47.20.245:1789,Falkenstein,50.4667,12.3667,Germany,DEU,0.10.1
4000,6r5QGdJN1JybuqWkTEmrw1yni9dTY4NfveVpfCnMmshV,209.145.52.232:1789,Falkenstein,50.4667,12.3667,Germany,DEU,0.10.1
4001,5DJDPzyohg5x1AEMBeLgCL268HgRPMFbN9pMpzkUpF9o,136.244.110.248:1789,Amsterdam,52.35,4.9166,Netherlands,NLD,0.10.1
4004,FgFN8GV6iTL8pb6RunLmuoH7hnQ3CWG14FHqMvz4bzvp,188.34.158.195:1789,Falkenstein,50.4667,12.3667,Germany,DEU,0.10.1
4007,J2UmvzhN4KrqvFmPjgjmJcTCiMJKo3JqHzN1cHD6o2nv,161.97.139.123:1789,Munich,48.1372,11.5755,Germany,DEU,0.10.1
4008,4BqbYQxXr8Ykz3Gxss2nepjb5wpWxvsBu7d4G1NDAB8A,140.82.58.255:1789,Amsterdam,52.35,4.9166,Netherlands,NLD,0.10.1
4009,2SVy4qFr3FQp6aQ2EnnTS7kqDFJDVpSvcygb2s395Kjm,165.22.30.160:1789,Frankfurt,50.1136,8.6797,Germany,DEU,0.10.1
4015,7GY3voFPsUCMYx2iWZoaDthZEMiBDBc3xMaZRiTiv9Py,188.166.62.13:1789,Amsterdam,52.35,4.9166,Netherlands,NLD,0.10.1
4016,AYvSMkx1PLFDkU8JvkR33kJRJSjeoDf8TKqxFkTX38Fb,174.138.12.156:1789,Amsterdam,52.35,4.9166,Netherlands,NLD,0.10.1
4020,G21iP5L5m1tQMUEFDrpQzoD5vE4tAwwi7K8Tf5uFthvC,195.201.2.175:1789,Nuremberg,49.4528,11.0778,Germany,DEU,0.10.1
4024,9Vurfg1aAxXHNiS6WuU4TLzAmn1XUypwgAsuhHoHVEJd,45.76.38.236:1789,Amsterdam,52.35,4.9166,Netherlands,NLD,0.10.1
4026,4nnWqerxpkhmN4BRpzuJaMAL2KexLYn9LVWw3nyd3EfY,178.62.218.33:1789,Amsterdam,52.35,4.9166,Netherlands,NLD,0.10.1
4029,FTzbF4kySRtDRULPfE6MEuzV4buVxn3mf7C7BHYqpY1e,[2a01:4f9:c010:6912::13]:1789,Barcelona,41.3825,2.1769,Spain,ESP,0.10.1
4030,BhRZnBYuMxKT5KMAcYaZcV4YunQ6KKdkPrT7mLsK914J,[2a01:4f8:c17:c4e4::6]:1789,Frankfurt,50.1136,8.6797,Germany,DEU,0.10.1
